LFLB 201043Z VRB02KT CAVOK 08/M03 Q1022 NOSIG,LFLB,2015-02-20T10:43:00Z,45.63,5.87,8.0,-3.0,0,2,,6.21,30.177166,,,,,,TRUE,,,,,CAVOK,,,,,,,,VFR,,,,,,,,,,,,METAR,239.0
ETOU 201043Z AUTO 18007KT 9999 FEW085 SCT130 05/02 A3000 RMK AO2,ETOU,2015-02-20T10:43:00Z,50.03,8.32,5.0,2.0,180,7,,6.21,30.0,,,TRUE,TRUE,,,,,,,FEW,8500,SCT,13000,,,,,VFR,,,,,,,,,,,,SPECI,141.0
EHEH 201040Z AUTO 20012KT 4300 BR BKN010 OVC012 06/05 Q1010 GRN 20012KT 9000 FEW010 BKN012 OVC015 TEMPO 5000 DZRA BR BKN007 OVC010,EHEH,2015-02-20T10:40:00Z,51.45,5.38,6.0,5.0,200,12,,2.67,29.822834,,,TRUE,,,,,,,BR,BKN,1000,OVC,1200,FEW,1000,BKN,1200,IFR,,,1.2,,,,,,,,,METAR,22.0
ETOU 201038Z AUTO 17005KT 9999 SCT085 BKN130 05/02 A3000 RMK AO2,ETOU,2015-02-20T10:38:00Z,50.03,8.32,5.0,2.0,170,5,,6.21,30.0,,,TRUE,TRUE,,,,,,,SCT,8500,BKN,13000,,,,,VFR,,,,,,,,,,,,SPECI,141.0
EHEH 201036Z AUTO 20012KT 7000 BR BKN010 OVC012 06/05 Q1010 GRN 20012KT 9000 FEW010 BKN012 OVC015 TEMPO 5000 DZRA BR BKN007 OVC010,EHEH,2015-02-20T10:36:00Z,51.45,5.38,6.0,5.0,200,12,,4.35,29.822834,,,TRUE,,,,,,,BR,BKN,1000,OVC,1200,FEW,1000,BKN,1200,MVFR,,,1.2,,,,,,,,,METAR,22.0
ETOU 201033Z AUTO 19007KT 9999 SCT085 BKN140 05/02 A3000 RMK AO2,ETOU,2015-02-20T10:33:00Z,50.03,8.32,5.0,2.0,190,7,,6.21,30.0,,,TRUE,TRUE,,,,,,,SCT,8500,BKN,14000,,,,,VFR,,,,,,,,,,,,SPECI,141.0
LFQG 201030Z AUTO 19010KT 9999 NSC 11/02 Q1016,LFQG,2015-02-20T10:30:00Z,47.0,3.1,11.0,2.0,190,10,,6.21,30.0,,,TRUE,,,,,,,,,,,,,,,,,,,,,,,,,,,,METAR,181.0
LESU 201030Z VRB02KT CAVOK 05/M03 Q1022,LESU,2015-02-20T10:30:00Z,42.33,1.4,5.0,-3.0,0,2,,6.21,30.177166,,,,,,,,,,,CAVOK,,,,,,,,VFR,,,,,,,,,,,,METAR,800.0
LFTW 201030Z AUTO 10006KT 060V140 9999 FEW046 10/04 Q1024,LFTW,2015-02-20T10:30:00Z,43.75,4.42,10.0,4.0,100,6,,6.21,30.236221,,,TRUE,,,,,,,,FEW,4600,,,,,,,VFR,,,,,,,,,,,,METAR,96.0
LFSD 201030Z AUTO 19012KT 9000 NSC 08/03 Q1018,LFSD,2015-02-20T10:30:00Z,47.27,5.07,8.0,3.0,190,12,,5.59,30.059055,,,TRUE,,,,,,,,,,,,,,,,,,,,,,,,,,,,METAR,227.0
LFRT 201030Z AUTO 23008KT 190V260 9999 FEW017 10/08 Q1006,LFRT,2015-02-20T10:30:00Z,48.52,-2.85,10.0,8.0,230,8,,6.21,29.704725,,,TRUE,,,,,,,,FEW,1700,,,,,,,VFR,,,,,,,,,,,,METAR,136.0
LFRQ 201030Z AUTO 23012KT 7000 -DZ OVC005 10/09 Q1006,LFRQ,2015-02-20T10:30:00Z,47.97,-4.17,10.0,9.0,230,12,,4.35,29.704725,,,TRUE,,,,,,,-DZ,OVC,500,,,,,,,IFR,,,,,,,,,,,,METAR,94.0
LFRH 201030Z AUTO 22019KT 9999 OVC006 10/10 Q1007,LFRH,2015-02-20T10:30:00Z,47.77,-3.45,10.0,10.0,220,19,,6.21,29.734253,,,TRUE,,,,,,,,OVC,600,,,,,,,IFR,,,,,,,,,,,,METAR,44.0
LFPT 201030Z AUTO 20013KT 8000 -RA BKN009 OVC014 07/05 Q1011,LFPT,2015-02-20T10:30:00Z,49.1,2.03,7.0,5.0,200,13,,4.97,29.852362,,,TRUE,,,,,,,-RA,BKN,900,OVC,1400,,,,,IFR,,,,,,,,,,,,METAR,99.0
LFPM 201030Z AUTO 19013KT 8000 -RA BKN031 BKN038 06/05 Q1013,LFPM,2015-02-20T10:30:00Z,48.62,2.67,6.0,5.0,190,13,,4.97,29.911417,,,TRUE,,,,,,,-RA,BKN,3100,BKN,3800,,,,,MVFR,,,,,,,,,,,,METAR,92.0
LFLN 201030Z AUTO 18009KT 9999 NSC 11/01 Q1018,LFLN,2015-02-20T10:30:00Z,46.42,4.02,11.0,1.0,180,9,,6.21,30.059055,,,TRUE,,,,,,,,,,,,,,,,,,,,,,,,,,,,METAR,244.0
LFGA 201030Z AUTO 11004KT 070V140 9999 NSC 10/01 Q1018,LFGA,2015-02-20T10:30:00Z,48.1,7.35,10.0,1.0,110,4,,6.21,30.059055,,,TRUE,,,,,,,,,,,,,,,,,,,,,,,,,,,,METAR,191.0
LFBU 201030Z AUTO 20008KT 170V240 9999 NSC 08/02 Q1018,LFBU,2015-02-20T10:30:00Z,45.72,0.22,8.0,2.0,200,8,,6.21,30.059055,,,TRUE,,,,,,,,,,,,,,,,,,,,,,,,,,,,METAR,133.0
LFAT 201030Z AUTO 16008KT 130V190 3100 -RA BR BKN009/// OVC015/// ///TCU 08/07 Q1007,LFAT,2015-02-20T10:30:00Z,50.52,1.62,8.0,7.0,160,8,,1.93,29.734253,,,TRUE,,,,,,,-RA BR,,,,,,,,,,,,,,,,,,,,,METAR,14.0
LFAQ 201030Z AUTO 19015KT 8000 -RA OVC007/// ///TCU 06/05 Q1010,LFAQ,2015-02-20T10:30:00Z,49.97,2.7,6.0,5.0,190,15,,4.97,29.822834,,,TRUE,,,,,,,-RA,,,,,,,,,,,,,,,,,,,,,METAR,111.0
LFRU 201030Z AUTO 23011KT 9999 SCT008/// BKN012/// BKN017/// ///TCU 10/09 Q1005,LFRU,2015-02-20T10:30:00Z,48.6,-3.82,10.0,9.0,230,11,,6.21,29.675198,,,TRUE,,,,,,,,,,,,,,,,,,,,,,,,,,,,METAR,86.0
LFRK 201030Z AUTO 20010KT 9999 -RA FEW013 BKN019 BKN026 09/08 Q1008,LFRK,2015-02-20T10:30:00Z,49.17,-0.45,9.0,8.0,200,10,,6.21,29.763779,,,TRUE,,,,,,,-RA,FEW,1300,BKN,1900,BKN,2600,,,MVFR,,,,,,,,,,,,METAR,67.0
LFRG 201030Z AUTO 22012KT 7000 -RA BKN007/// BKN011/// BKN022/// ///TCU 08/07 Q1008,LFRG,2015-02-20T10:30:00Z,49.37,0.15,8.0,7.0,220,12,,4.35,29.763779,,,TRUE,,,,,,,-RA,,,,,,,,,,,,,,,,,,,,,METAR,146.0
LFRC 201030Z AUTO 20016KT 9999 -RA OVC006 08/07 Q1005,LFRC,2015-02-20T10:30:00Z,49.63,-1.47,8.0,7.0,200,16,,6.21,29.675198,,,TRUE,,,,,,,-RA,OVC,600,,,,,,,IFR,,,,,,,,,,,,METAR,138.0
LFPN 201030Z AUTO 20018KT 9000 -RA OVC010 06/05 Q1012,LFPN,2015-02-20T10:30:00Z,48.75,2.12,6.0,5.0,200,18,,5.59,29.88189,,,TRUE,,,,,,,-RA,OVC,1000,,,,,,,MVFR,,,,,,,,,,,,METAR,164.0
LFOT 201030Z AUTO 19012KT 9999 -RA FEW017 OVC042 08/05 Q1014,LFOT,2015-02-20T10:30:00Z,47.43,0.72,8.0,5.0,190,12,,6.21,29.940945,,,TRUE,,,,,,,-RA,FEW,1700,OVC,4200,,,,,VFR,,,,,,,,,,,,METAR,108.0
LFMH 201030Z 19009KT CAVOK 11/M07 Q1020 NOSIG,LFMH,2015-02-20T10:30:00Z,45.52,4.28,11.0,-7.0,190,9,,6.21,30.11811,,,,,,TRUE,,,,,CAVOK,,,,,,,,VFR,,,,,,,,,,,,METAR,402.0
LFMD 201030Z AUTO 15005KT 090V190 9999 FEW041 13/05 Q1025,LFMD,2015-02-20T10:30:00Z,43.53,6.95,13.0,5.0,150,5,,6.21,30.265747,,,TRUE,,,,,,,,FEW,4100,,,,,,,VFR,,,,,,,,,,,,METAR,9.0
LFJR 201030Z AUTO 20015KT 9999 -RA OVC014 08/07 Q1012,LFJR,2015-02-20T10:30:00Z,47.57,-0.3,8.0,7.0,200,15,,6.21,29.88189,,,TRUE,,,,,,,-RA,OVC,1400,,,,,,,MVFR,,,,,,,,,,,,METAR,60.0
LFGJ 201030Z AUTO 19014KT 9999 NSC 10/01 Q1019,LFGJ,2015-02-20T10:30:00Z,47.05,5.43,10.0,1.0,190,14,,6.21,30.088583,,,TRUE,,,,,,,,,,,,,,,,,,,,,,,,,,,,METAR,196.0
LFBE 201030Z AUTO 15012KT 9999 NSC 09/04 Q1019,LFBE,2015-02-20T10:30:00Z,44.82,0.52,9.0,4.0,150,12,,6.21,30.088583,,,TRUE,,,,,,,,,,,,,,,,,,,,,,,,,,,,METAR,52.0
LFBA 201030Z AUTO 10008KT 070V130 6000 BKN004 07/05 Q1020,LFBA,2015-02-20T10:30:00Z,44.17,0.6,7.0,5.0,100,8,,3.73,30.11811,,,TRUE,,,,,,,,BKN,400,,,,,,,LIFR,,,,,,,,,,,,METAR,60.0
LFTH 201030Z AUTO 13004KT 080V190 9999 NSC 13/06 Q1024,LFTH,2015-02-20T10:30:00Z,43.1,6.15,13.0,6.0,130,4,,6.21,30.236221,,,TRUE,,,,,,,,,,,,,,,,,,,,,,,,,,,,METAR,4.0
LFST 201030Z AUTO 18010KT 140V220 9999 NSC 08/02 Q1018,LFST,2015-02-20T10:30:00Z,48.53,7.62,8.0,2.0,180,10,,6.21,30.059055,,,TRUE,,,,,,,,,,,,,,,,,,,,,,,,,,,,METAR,154.0
LFSG 201030Z AUTO 19016KT 9999 NSC 08/02 Q1016,LFSG,2015-02-20T10:30:00Z,48.33,6.07,8.0,2.0,190,16,,6.21,30.0,,,TRUE,,,,,,,,,,,,,,,,,,,,,,,,,,,,METAR,330.0
LFSB 201030Z 18005KT 150V210 CAVOK 08/01 Q1019 NOSIG,LFSB,2015-02-20T10:30:00Z,47.6,7.52,8.0,1.0,180,5,,6.21,30.088583,,,,,,TRUE,,,,,CAVOK,,,,,,,,VFR,,,,,,,,,,,,METAR,271.0
LFRZ 201030Z AUTO 22020KT 9999 -RA BKN008 BKN012 OVC022 10/09 Q1010,LFRZ,2015-02-20T10:30:00Z,47.32,-2.17,10.0,9.0,220,20,,6.21,29.822834,,,TRUE,,,,,,,-RA,BKN,800,BKN,1200,OVC,2200,,,IFR,,,,,,,,,,,,METAR,4.0
LFRV 201030Z AUTO 22011KT 180V260 3900 -DZ BR OVC003/// ///TCU 09/09 Q1008,LFRV,2015-02-20T10:30:00Z,47.72,-2.72,9.0,9.0,220,11,,2.42,29.763779,,,TRUE,,,,,,,-DZ BR,,,,,,,,,,,,,,,,,,,,,METAR,133.0
LFRO 201030Z AUTO 22008KT 7000 -RA FEW009/// BKN015/// BKN022/// ///TCU 10/09 Q1005,LFRO,2015-02-20T10:30:00Z,48.75,-3.47,10.0,9.0,220,8,,4.35,29.675198,,,TRUE,,,,,,,-RA,,,,,,,,,,,,,,,,,,,,,METAR,89.0
LFRN 201030Z AUTO 19013KT 7000 -RA OVC008 10/09 Q1008,LFRN,2015-02-20T10:30:00Z,48.07,-1.72,10.0,9.0,190,13,,4.35,29.763779,,,TRUE,,,,,,,-RA,OVC,800,,,,,,,IFR,,,,,,,,,,,,METAR,37.0
LFRM 201030Z AUTO 19011KT 150V220 8000 -RA BKN008 OVC012 08/07 Q1012,LFRM,2015-02-20T10:30:00Z,47.95,0.2,8.0,7.0,190,11,,4.97,29.88189,,,TRUE,,,,,,,-RA,BKN,800,OVC,1200,,,,,IFR,,,,,,,,,,,,METAR,52.0
LFRI 201030Z AUTO 21017KT 7000 -RA OVC007 08/07 Q1013,LFRI,2015-02-20T10:30:00Z,46.7,-1.37,8.0,7.0,210,17,,4.35,29.911417,,,TRUE,,,,,,,-RA,OVC,700,,,,,,,IFR,,,,,,,,,,,,METAR,91.0
LFRD 201030Z AUTO 19014KT 9999 BKN009 OVC017 10/09 Q1007,LFRD,2015-02-20T10:30:00Z,48.58,-2.07,10.0,9.0,190,14,,6.21,29.734253,,,TRUE,,,,,,,,BKN,900,OVC,1700,,,,,IFR,,,,,,,,,,,,METAR,59.0
LFOV 201030Z AUTO 19013KT 9000 -RA OVC007 09/08 Q1010,LFOV,2015-02-20T10:30:00Z,48.03,-0.75,9.0,8.0,190,13,,5.59,29.822834,,,TRUE,,,,,,,-RA,OVC,700,,,,,,,IFR,,,,,,,,,,,,METAR,101.0
LFMK 201030Z AUTO 10012KT 060V160 9000 SCT013 09/05 Q1022,LFMK,2015-02-20T10:30:00Z,43.22,2.32,9.0,5.0,100,12,,5.59,30.177166,,,TRUE,,,,,,,,SCT,1300,,,,,,,VFR,,,,,,,,,,,,METAR,130.0
LFMI 201030Z AUTO 09006KT 050V120 9999 NSC 11/05 Q1024,LFMI,2015-02-20T10:30:00Z,43.52,4.92,11.0,5.0,90,6,,6.21,30.236221,,,TRUE,,,,,,,,,,,,,,,,,,,,,,,,,,,,METAR,24.0
LEVT 201030Z 22008KT CAVOK 06/02 Q1021,LEVT,2015-02-20T10:30:00Z,42.87,-2.72,6.0,2.0,220,8,,6.21,30.147638,,,,,,,,,,,CAVOK,,,,,,,,VFR,,,,,,,,,,,,METAR,509.0
LESO 201030Z 19011KT 160V230 CAVOK 14/01 Q1020,LESO,2015-02-20T10:30:00Z,43.35,-1.8,14.0,1.0,190,11,,6.21,30.11811,,,,,,,,,,,CAVOK,,,,,,,,VFR,,,,,,,,,,,,METAR,8.0
LEZG 201030Z 10007KT 080V140 9000 NSC 07/01 Q1023,LEZG,2015-02-20T10:30:00Z,41.67,-1.02,7.0,1.0,100,7,,5.59,30.206694,,,,,,,,,,,,,,,,,,,,,,,,,,,,,,,METAR,258.0
LEGE 201030Z 19005KT 150V230 7000 NSC 10/05 Q1023,LEGE,2015-02-20T10:30:00Z,41.88,2.77,10.0,5.0,190,5,,4.35,30.206694,,,,,,,,,,,,,,,,,,,,,,,,,,,,,,,METAR,129.0
LEBB 201030Z 21011KT 170V250 9999 SCT068 12/03 Q1020 NOSIG,LEBB,2015-02-20T10:30:00Z,43.28,-2.92,12.0,3.0,210,11,,6.21,30.11811,,,,,,TRUE,,,,,SCT,6800,,,,,,,VFR,,,,,,,,,,,,METAR,34.0
LEAS 201030Z 22013KT 190V250 9999 BKN045 10/05 Q1018 NOSIG,LEAS,2015-02-20T10:30:00Z,43.53,-6.02,10.0,5.0,220,13,,6.21,30.059055,,,,,,TRUE,,,,,BKN,4500,,,,,,,VFR,,,,,,,,,,,,METAR,134.0
LEXJ 201030Z 21005KT 170V240 9999 FEW030 BKN060 13/05 Q1019,LEXJ,2015-02-20T10:30:00Z,43.42,-3.82,13.0,5.0,210,5,,6.21,30.088583,,,,,,,,,,,FEW,3000,BKN,6000,,,,,VFR,,,,,,,,,,,,METAR,6.0
LEPP 201030Z 00000KT CAVOK 07/02 Q1022,LEPP,2015-02-20T10:30:00Z,42.77,-1.65,7.0,2.0,0,0,,6.21,30.177166,,,,,,,,,,,CAVOK,,,,,,,,VFR,,,,,,,,,,,,METAR,459.0
LELL 201030Z 21002KT 6000 FEW010 11/05 Q1024,LELL,2015-02-20T10:30:00Z,41.52,2.1,11.0,5.0,210,2,,3.73,30.236221,,,,,,,,,,,FEW,1000,,,,,,,MVFR,,,,,,,,,,,,METAR,250.0
LEDA 201030Z 00000KT 9000 NSC 09/04 Q1024 NOSIG,LEDA,2015-02-20T10:30:00Z,41.73,0.53,9.0,4.0,0,0,,5.59,30.236221,,,,,,TRUE,,,,,,,,,,,,,,,,,,,,,,,,,METAR,350.0
LEVD 201030Z 22006KT 9999 FEW040 SCT047 04/02 Q1022,LEVD,2015-02-20T10:30:00Z,41.72,-4.83,4.0,2.0,220,6,,6.21,30.177166,,,,,,,,,,,FEW,4000,SCT,4700,,,,,VFR,,,,,,,,,,,,METAR,854.0
LFYR 201030Z AUTO 21010KT 9999 NSC 09/03 Q1015,LFYR,2015-02-20T10:30:00Z,47.32,1.67,9.0,3.0,210,10,,6.21,29.970472,,,TRUE,,,,,,,,,,,,,,,,,,,,,,,,,,,,METAR,86.0
LFSX 201030Z AUTO 19007KT 150V210 9999 NSC 10/02 Q1018,LFSX,2015-02-20T10:30:00Z,47.77,6.33,10.0,2.0,190,7,,6.21,30.059055,,,TRUE,,,,,,,,,,,,,,,,,,,,,,,,,,,,METAR,273.0
LFSO 201030Z AUTO 21018KT 9999 NSC 09/01 Q1016,LFSO,2015-02-20T10:30:00Z,48.57,5.97,9.0,1.0,210,18,,6.21,30.0,,,TRUE,,,,,,,,,,,,,,,,,,,,,,,,,,,,METAR,350.0
LFSI 201030Z AUTO 20009KT 170V230 9999 NSC 09/02 Q1015,LFSI,2015-02-20T10:30:00Z,48.62,4.9,9.0,2.0,200,9,,6.21,29.970472,,,TRUE,,,,,,,,,,,,,,,,,,,,,,,,,,,,METAR,140.0
LFPV 201030Z AUTO 21013KT 170V240 9999 -RA OVC009 06/05 Q1012,LFPV,2015-02-20T10:30:00Z,48.77,2.2,6.0,5.0,210,13,,6.21,29.88189,,,TRUE,,,,,,,-RA,OVC,900,,,,,,,IFR,,,,,,,,,,,,METAR,179.0
LFPC 201030Z AUTO 20012KT 160V220 7000 -RA ////// 06/06 Q1011,LFPC,2015-02-20T10:30:00Z,49.25,2.52,6.0,6.0,200,12,,4.35,29.852362,,,TRUE,,,,,,,-RA,,,,,,,,,,,,,,,,,,,,,METAR,88.0
LFSN 201030Z AUTO 21011KT 180V240 9999 NSC 08/01 Q1017,LFSN,2015-02-20T10:30:00Z,48.67,6.22,8.0,1.0,210,11,,6.21,30.029528,,,TRUE,,,,,,,,,,,,,,,,,,,,,,,,,,,,METAR,217.0
LFQB 201030Z AUTO 18014KT 9999 NSC 10/03 Q1015,LFQB,2015-02-20T10:30:00Z,48.32,4.02,10.0,3.0,180,14,,6.21,29.970472,,,TRUE,,,,,,,,,,,,,,,,,,,,,,,,,,,,METAR,118.0
LFQA 201030Z AUTO 20006KT 150V260 9999 -RA FEW020 BKN030 OVC039 06/03 Q1013,LFQA,2015-02-20T10:30:00Z,49.2,4.15,6.0,3.0,200,6,,6.21,29.911417,,,TRUE,,,,,,,-RA,FEW,2000,BKN,3000,OVC,3900,,,MVFR,,,,,,,,,,,,METAR,95.0
LFPB 201030Z AUTO 21012KT 180V240 8000 -RA OVC012 07/05 Q1012,LFPB,2015-02-20T10:30:00Z,48.97,2.45,7.0,5.0,210,12,,4.97,29.88189,,,TRUE,,,,,,,-RA,OVC,1200,,,,,,,MVFR,,,,,,,,,,,,METAR,65.0
LFOP 201030Z AUTO 19013KT 7000 -RA OVC006/// ///TCU 07/06 Q1009,LFOP,2015-02-20T10:30:00Z,49.37,1.17,7.0,6.0,190,13,,4.35,29.793306,,,TRUE,,,,,,,-RA,,,,,,,,,,,,,,,,,,,,,METAR,157.0
LFOK 201030Z AUTO 20016KT 9999 OVC047 08/04 Q1014,LFOK,2015-02-20T10:30:00Z,48.78,4.18,8.0,4.0,200,16,,6.21,29.940945,,,TRUE,,,,,,,,OVC,4700,,,,,,,VFR,,,,,,,,,,,,METAR,162.0
LFOH 201030Z AUTO 19012KT 9999 -RA FEW008/// SCT020/// BKN028/// ///TCU 08/07 Q1007,LFOH,2015-02-20T10:30:00Z,49.52,0.07,8.0,7.0,190,12,,6.21,29.734253,,,TRUE,,,,,,,-RA,,,,,,,,,,,,,,,,,,,,,METAR,103.0
LFOB 201030Z AUTO 20013KT 7000 -RA OVC008 06/06 Q1010,LFOB,2015-02-20T10:30:00Z,49.47,2.12,6.0,6.0,200,13,,4.35,29.822834,,,TRUE,,,,,,,-RA,OVC,800,,,,,,,IFR,,,,,,,,,,,,METAR,111.0
LFMU 201030Z AUTO 06010KT 9999 NSC 11/05 Q1023,LFMU,2015-02-20T10:30:00Z,43.32,3.35,11.0,5.0,60,10,,6.21,30.206694,,,TRUE,,,,,,,,,,,,,,,,,,,,,,,,,,,,METAR,17.0
LFMT 201030Z 04007KT 010V070 9999 BKN043 SCT260 09/04 Q1024 NOSIG,LFMT,2015-02-20T10:30:00Z,43.57,3.97,9.0,4.0,40,7,,6.21,30.236221,,,,,,TRUE,,,,,BKN,4300,SCT,26000,,,,,VFR,,,,,,,,,,,,METAR,6.0
LFLY 201030Z AUTO 18020KT 9999 NSC 10/M01 Q1021,LFLY,2015-02-20T10:30:00Z,45.72,4.95,10.0,-1.0,180,20,,6.21,30.147638,,,TRUE,,,,,,,,,,,,,,,,,,,,,,,,,,,,METAR,201.0
LFLU 201030Z AUTO 20015KT 9999 NSC 10/03 Q1022,LFLU,2015-02-20T10:30:00Z,44.92,4.98,10.0,3.0,200,15,,6.21,30.177166,,,TRUE,,,,,,,,,,,,,,,,,,,,,,,,,,,,METAR,160.0
LFLS 201030Z AUTO 24012KT 9999 NSC 08/01 Q1022,LFLS,2015-02-20T10:30:00Z,45.37,5.32,8.0,1.0,240,12,,6.21,30.177166,,,TRUE,,,,,,,,,,,,,,,,,,,,,,,,,,,,METAR,386.0
LFLP 201030Z AUTO VRB02KT 9999 NSC 09/M02 Q1021,LFLP,2015-02-20T10:30:00Z,45.92,6.08,9.0,-2.0,0,2,,6.21,30.147638,,,TRUE,,,,,,,,,,,,,,,,,,,,,,,,,,,,METAR,463.0
LFJL 201030Z AUTO 21018KT 9999 NSC 09/02 Q1016,LFJL,2015-02-20T10:30:00Z,48.97,6.25,9.0,2.0,210,18,,6.21,30.0,,,TRUE,,,,,,,,,,,,,,,,,,,,,,,,,,,,METAR,264.0
LFCR 201030Z AUTO 14011KT 9999 NSC 08/00 Q1020,LFCR,2015-02-20T10:30:00Z,44.38,2.47,8.0,0.0,140,11,,6.21,30.11811,,,TRUE,,,,,,,,,,,,,,,,,,,,,,,,,,,,METAR,580.0
LFPG 201030Z 19013KT 170V290 5000 -RA FEW007 BKN009 06/05 Q1012 NOSIG,LFPG,2015-02-20T10:30:00Z,49.02,2.52,6.0,5.0,190,13,,3.11,29.88189,,,,,,TRUE,,,,-RA,FEW,700,BKN,900,,,,,IFR,,,,,,,,,,,,METAR,109.0
LFRS 201030Z 21014KT 9000 -RA BKN007 OVC015 09/08 Q1012 NOSIG,LFRS,2015-02-20T10:30:00Z,47.17,-1.6,9.0,8.0,210,14,,5.59,29.88189,,,,,,TRUE,,,,-RA,BKN,700,OVC,1500,,,,,IFR,,,,,,,,,,,,METAR,27.0
LFRB 201030Z 35013KT 2000 -DZ BR OVC004 08/07 Q1006 BECMG 8000 BKN010,LFRB,2015-02-20T10:30:00Z,48.45,-4.42,8.0,7.0,350,13,,1.24,29.704725,,,,,,,,,,-DZ BR,OVC,400,,,,,,,LIFR,,,,,,,,,,,,METAR,103.0
LFQQ 201030Z 18015KT 9999 BKN009 07/05 Q1009 TEMPO 3000 RADZ BKN008,LFQQ,2015-02-20T10:30:00Z,50.57,3.1,7.0,5.0,180,15,,6.21,29.793306,,,,,,,,,,,BKN,900,,,,,,,IFR,,,,,,,,,,,,METAR,52.0
LFPO 201030Z 21013KT 9999 -RA BKN012 07/05 Q1012 NOSIG,LFPO,2015-02-20T10:30:00Z,48.72,2.38,7.0,5.0,210,13,,6.21,29.88189,,,,,,TRUE,,,,-RA,BKN,1200,,,,,,,MVFR,,,,,,,,,,,,METAR,96.0
LFMN 201030Z 00000KT 9999 FEW023 SCT033 12/03 Q1025 NOSIG,LFMN,2015-02-20T10:30:00Z,43.63,7.2,12.0,3.0,0,0,,6.21,30.265747,,,,,,TRUE,,,,,FEW,2300,SCT,3300,,,,,VFR,,,,,,,,,,,,METAR,10.0
LFLL 201030Z 19019KT 150V210 CAVOK 10/M01 Q1021 NOSIG,LFLL,2015-02-20T10:30:00Z,45.72,5.07,10.0,-1.0,190,19,,6.21,30.147638,,,,,,TRUE,,,,,CAVOK,,,,,,,,VFR,,,,,,,,,,,,METAR,240.0
LFSL 201030Z AUTO 16009KT 140V210 9999 NSC 09/M01 Q1019,LFSL,2015-02-20T10:30:00Z,45.03,1.48,9.0,-1.0,160,9,,6.21,30.088583,,,TRUE,,,,,,,,,,,,,,,,,,,,,,,,,,,,METAR,310.0
LFMV 201030Z AUTO 09003KT 050V140 9999 OVC040 09/03 Q1024,LFMV,2015-02-20T10:30:00Z,43.9,4.9,9.0,3.0,90,3,,6.21,30.236221,,,TRUE,,,,,,,,OVC,4000,,,,,,,VFR,,,,,,,,,,,,METAR,38.0
LFMP 201030Z AUTO VRB03KT 9000 BKN013 09/06 Q1023,LFMP,2015-02-20T10:30:00Z,42.72,2.87,9.0,6.0,0,3,,5.59,30.206694,,,TRUE,,,,,,,,BKN,1300,,,,,,,MVFR,,,,,,,,,,,,METAR,48.0
LFLC 201030Z 18016KT CAVOK 10/M03 Q1018 NOSIG,LFLC,2015-02-20T10:30:00Z,45.77,3.17,10.0,-3.0,180,16,,6.21,30.059055,,,,,,TRUE,,,,,CAVOK,,,,,,,,VFR,,,,,,,,,,,,METAR,330.0
EGWU 201030Z 31003KT 9999 SCT010 BKN160 BKN250 06/03 Q1007 GRN BECMG SCT020 WHT,EGWU,2015-02-20T10:30:00Z,51.55,-0.42,6.0,3.0,310,3,,6.21,29.734253,,,,,,,,,,,SCT,1000,BKN,16000,BKN,25000,,,VFR,,,,,,,,,,,,METAR,40.0
LFLW 201030Z AUTO 16009KT 120V200 9999 NSC 08/M03 Q1020,LFLW,2015-02-20T10:30:00Z,44.88,2.42,8.0,-3.0,160,9,,6.21,30.11811,,,TRUE,,,,,,,,,,,,,,,,,,,,,,,,,,,,METAR,639.0
LFKJ 201030Z 25003KT 9999 FEW053 14/03 Q1025 NOSIG,LFKJ,2015-02-20T10:30:00Z,41.92,8.8,14.0,3.0,250,3,,6.21,30.265747,,,,,,TRUE,,,,,FEW,5300,,,,,,,VFR,,,,,,,,,,,,METAR,9.0
LFKF 201030Z AUTO 20006KT 150V250 9999 NCD 14/07 Q1025,LFKF,2015-02-20T10:30:00Z,41.5,9.08,14.0,7.0,200,6,,6.21,30.265747,,,TRUE,,,,,,,,,,,,,,,,,,,,,,,,,,,,METAR,23.0
LFKC 201030Z 34005KT 280V010 9999 FEW030 13/04 Q1025 NOSIG,LFKC,2015-02-20T10:30:00Z,42.52,8.8,13.0,4.0,340,5,,6.21,30.265747,,,,,,TRUE,,,,,FEW,3000,,,,,,,VFR,,,,,,,,,,,,METAR,58.0
LFKB 201030Z 10004KT 070V170 9999 FEW033 14/05 Q1025 NOSIG,LFKB,2015-02-20T10:30:00Z,42.53,9.47,14.0,5.0,100,4,,6.21,30.265747,,,,,,TRUE,,,,,FEW,3300,,,,,,,VFR,,,,,,,,,,,,METAR,12.0
LFMY 201030Z AUTO 05004KT 010V080 9999 BKN039 11/04 Q1024,LFMY,2015-02-20T10:30:00Z,43.6,5.08,11.0,4.0,50,4,,6.21,30.236221,,,TRUE,,,,,,,,BKN,3900,,,,,,,VFR,,,,,,,,,,,,METAR,60.0
LFKS 201030Z AUTO 11005KT 090V150 9999 NSC 14/06 Q1025,LFKS,2015-02-20T10:30:00Z,41.92,9.4,14.0,6.0,110,5,,6.21,30.265747,,,TRUE,,,,,,,,,,,,,,,,,,,,,,,,,,,,METAR,22.0
LFBM 201030Z AUTO 24004KT 200V270 9999 NSC 13/02 Q1019,LFBM,2015-02-20T10:30:00Z,43.92,-0.5,13.0,2.0,240,4,,6.21,30.088583,,,TRUE,,,,,,,,,,,,,,,,,,,,,,,,,,,,METAR,63.0
LFBG 201030Z AUTO 19011KT 9999 -RA FEW017 BKN056 OVC066 09/05 Q1018,LFBG,2015-02-20T10:30:00Z,45.67,-0.32,9.0,5.0,190,11,,6.21,30.059055,,,TRUE,,,,,,,-RA,FEW,1700,BKN,5600,OVC,6600,,,VFR,,,,,,,,,,,,METAR,31.0
LFBC 201030Z AUTO 20005KT 9999 NSC 09/04 Q1019,LFBC,2015-02-20T10:30:00Z,44.52,-1.12,9.0,4.0,200,5,,6.21,30.088583,,,TRUE,,,,,,,,,,,,,,,,,,,,,,,,,,,,METAR,33.0
LFML 201030Z 25001KT 9999 SCT040 10/04 Q1024 NOSIG,LFML,2015-02-20T10:30:00Z,43.45,5.22,10.0,4.0,250,1,,6.21,30.236221,,,,,,TRUE,,,,,SCT,4000,,,,,,,VFR,,,,,,,,,,,,METAR,36.0
LFLX 201030Z 22012KT CAVOK 10/02 Q1016 NOSIG,LFLX,2015-02-20T10:30:00Z,46.85,1.72,10.0,2.0,220,12,,6.21,30.0,,,,,,TRUE,,,,,CAVOK,,,,,,,,VFR,,,,,,,,,,,,METAR,157.0
LFCK 201030Z AUTO 12016KT 090V150 9999 NSC 11/03 Q1021,LFCK,2015-02-20T10:30:00Z,43.55,2.28,11.0,3.0,120,16,,6.21,30.147638,,,TRUE,,,,,,,,,,,,,,,,,,,,,,,,,,,,METAR,240.0
LFBZ 201030Z AUTO VRB07KT 9999 NSC 14/M01 Q1019,LFBZ,2015-02-20T10:30:00Z,43.47,-1.52,14.0,-1.0,0,7,,6.21,30.088583,,,TRUE,,,,,,,,,,,,,,,,,,,,,,,,,,,,METAR,71.0
LFBT 201030Z AUTO VRB01KT 9999 NSC 15/M03 Q1019,LFBT,2015-02-20T10:30:00Z,43.17,0.0,15.0,-3.0,0,1,,6.21,30.088583,,,TRUE,,,,,,,,,,,,,,,,,,,,,,,,,,,,METAR,363.0
LFBP 201030Z AUTO VRB03KT 9999 NSC 12/03 Q1019,LFBP,2015-02-20T10:30:00Z,43.37,-0.42,12.0,3.0,0,3,,6.21,30.088583,,,TRUE,,,,,,,,,,,,,,,,,,,,,,,,,,,,METAR,185.0
LFBO 201030Z AUTO 15013KT 8000 FEW014 11/05 Q1021,LFBO,2015-02-20T10:30:00Z,43.62,1.37,11.0,5.0,150,13,,4.97,30.147638,,,TRUE,,,,,,,,FEW,1400,,,,,,,MVFR,,,,,,,,,,,,METAR,153.0
LFBL 201030Z AUTO 18013KT 9999 NSC 07/01 Q1017,LFBL,2015-02-20T10:30:00Z,45.87,1.17,7.0,1.0,180,13,,6.21,30.029528,,,TRUE,,,,,,,,,,,,,,,,,,,,,,,,,,,,METAR,402.0
LFBI 201030Z AUTO 20016KT 9999 BKN015 08/05 Q1016,LFBI,2015-02-20T10:30:00Z,46.57,0.32,8.0,5.0,200,16,,6.21,30.0,,,TRUE,,,,,,,,BKN,1500,,,,,,,MVFR,,,,,,,,,,,,METAR,120.0
LFBH 201030Z AUTO 20013KT 7000 RA BKN014/// BKN022/// OVC036/// ///TCU 09/07 Q1016,LFBH,2015-02-20T10:30:00Z,46.18,-1.2,9.0,7.0,200,13,,4.35,30.0,,,TRUE,,,,,,,RA,,,,,,,,,,,,,,,,,,,,,METAR,10.0
LFBD 201030Z AUTO 20007KT 9999 NSC 10/03 Q1019,LFBD,2015-02-20T10:30:00Z,44.82,-0.7,10.0,3.0,200,7,,6.21,30.088583,,,TRUE,,,,,,,,,,,,,,,,,,,,,,,,,,,,METAR,61.0
LFRL 201030Z AUTO 28010KT 9999 OVC003 10/10 Q1006,LFRL,2015-02-20T10:30:00Z,48.27,-4.42,10.0,10.0,280,10,,6.21,29.704725,,,TRUE,,,,,,,,OVC,300,,,,,,,LIFR,,,,,,,,,,,,METAR,82.0
LFRJ 201030Z AUTO 25010KT 4600 -RADZ BR BKN005 OVC009 10/10 Q1005,LFRJ,2015-02-20T10:30:00Z,48.52,-4.15,10.0,10.0,250,10,,2.86,29.675198,,,TRUE,,,,,,,-RA -DZ BR,BKN,500,OVC,900,,,,,IFR,,,,,,,,,,,,METAR,115.0
LFOJ 201030Z AUTO 21017KT 9999 BKN045 OVC054 08/05 Q1013,LFOJ,2015-02-20T10:30:00Z,47.97,1.75,8.0,5.0,210,17,,6.21,29.911417,,,TRUE,,,,,,,,BKN,4500,OVC,5400,,,,,VFR,,,,,,,,,,,,METAR,125.0
LFOE 201030Z AUTO 20015KT 9000 -RA SCT010 SCT045 OVC052 07/06 Q1010,LFOE,2015-02-20T10:30:00Z,49.02,1.22,7.0,6.0,200,15,,5.59,29.822834,,,TRUE,,,,,,,-RA,SCT,1000,SCT,4500,OVC,5200,,,VFR,,,,,,,,,,,,METAR,146.0
LFOC 201030Z AUTO 21019G29KT 9999 -RA BKN028 OVC036 07/06 Q1013,LFOC,2015-02-20T10:30:00Z,48.03,1.37,7.0,6.0,210,19,29,6.21,29.911417,,,TRUE,,,,,,,-RA,BKN,2800,OVC,3600,,,,,MVFR,,,,,,,,,,,,METAR,127.0
LFOA 201030Z AUTO 19014KT 9999 NSC 10/02 Q1016,LFOA,2015-02-20T10:30:00Z,47.03,2.63,10.0,2.0,190,14,,6.21,30.0,,,TRUE,,,,,,,,,,,,,,,,,,,,,,,,,,,,METAR,179.0
LFMO 201030Z AUTO VRB01KT 9999 BKN042 08/02 Q1025,LFMO,2015-02-20T10:30:00Z,44.12,4.87,8.0,2.0,0,1,,6.21,30.265747,,,TRUE,,,,,,,,BKN,4200,,,,,,,VFR,,,,,,,,,,,,METAR,55.0
EGVA 201028Z AUTO 24003KT 9999 SCT001 03/03 A2973 RMK AO2 $,EGVA,2015-02-20T10:28:00Z,51.67,-1.77,3.0,3.0,240,3,,6.21,29.731298,,,TRUE,TRUE,TRUE,,,,,,SCT,100,,,,,,,VFR,,,,,,,,,,,,SPECI,87.0
EGVP 201027Z 34002KT 6000 3500SE BR FEW004 BKN140 BKN230 04/04 Q1007 YLO1 BECMG 9999 NSW FEW015 BLU,EGVP,2015-02-20T10:27:00Z,51.13,-1.57,4.0,4.0,340,2,,3.73,29.734253,,,,,,,,,,BR,FEW,400,BKN,14000,BKN,23000,,,MVFR,,,,,,,,,,,,METAR,91.0
EBLB 201025Z AUTO 22011G22KT 9999 SCT006/// BKN008/// 03/01 Q1011 YLO,EBLB,2015-02-20T10:25:00Z,50.47,6.17,3.0,1.0,220,11,22,6.21,29.852362,,,TRUE,,,,,,,,,,,,,,,,,,,,,,,,,,,,METAR,570.0
EBFS 201025Z 20015KT 5000 BR SCT006 BKN008 04/03 Q1011 YLO GRN TEMPO YLO,EBFS,2015-02-20T10:25:00Z,50.22,4.65,4.0,3.0,200,15,,3.11,29.852362,,,,,,,,,,BR,SCT,600,BKN,800,,,,,IFR,,,,,,,,,,,,METAR,299.0
EBFN 201025Z 21010KT 3600 -RADZ FEW004 BKN007 BKN011 07/06 Q1008 YLO YLO TEMPO GRN,EBFN,2015-02-20T10:25:00Z,51.07,2.63,7.0,6.0,210,10,,2.24,29.763779,,,,,,,,,,-RA -DZ,FEW,400,BKN,700,BKN,1100,,,IFR,,,,,,,,,,,,METAR,9.0
EBDT 201025Z 20012KT 9000 -RA BKN011 BKN018 06/04 Q1011 BLACKGRN GRN,EBDT,2015-02-20T10:25:00Z,51.02,5.07,6.0,4.0,200,12,,5.59,29.852362,,,,,,,,,,-RA,BKN,1100,BKN,1800,,,,,MVFR,,,,,,,,,,,,METAR,54.0
EBCV 201025Z AUTO 20016KT 9999 OVC011/// 06/04 Q1011 GRN,EBCV,2015-02-20T10:25:00Z,50.57,3.82,6.0,4.0,200,16,,6.21,29.852362,,,TRUE,,,,,,,,,,,,,,,,,,,,,,,,,,,,METAR,63.0
EBBL 201025Z 21009KT 9999 -RA SCT013 BKN016 06/04 Q1011 GRN GRN,EBBL,2015-02-20T10:25:00Z,51.17,5.47,6.0,4.0,210,9,,6.21,29.852362,,,,,,,,,,-RA,SCT,1300,BKN,1600,,,,,MVFR,,,,,,,,,,,,METAR,64.0
EBBE 201025Z 20015KT 6000 -DZ FEW008 BKN009 BKN011 05/04 Q1010 GRN GRN TEMPO YLO,EBBE,2015-02-20T10:25:00Z,50.75,4.77,5.0,4.0,200,15,,3.73,29.822834,,,,,,,,,,-DZ,FEW,800,BKN,900,BKN,1100,,,IFR,,,,,,,,,,,,METAR,127.0
EHFS 201025Z AUTO 20015KT 3100 BR SCT005/// OVC006/// 06/05 Q1008,EHFS,2015-02-20T10:25:00Z,51.45,3.6,6.0,5.0,200,15,,1.93,29.763779,,,TRUE,,,,,,,BR,,,,,,,,,,,,,,,,,,,,,METAR,32.0
EHEH 201025Z AUTO 20013KT 9999 FEW009 OVC010 06/04 Q1010 GRN 20012KT 9000 FEW010 BKN012 OVC015 TEMPO 5000 DZRA BR BKN007 OVC010,EHEH,2015-02-20T10:25:00Z,51.45,5.38,6.0,4.0,200,13,,6.21,29.822834,,,TRUE,,,,,,,,FEW,900,OVC,1000,FEW,1000,BKN,1200,MVFR,,,1.2,,,,,,,,,METAR,22.0
EHBK 201025Z AUTO 21016KT 180V240 9999 OVC015 06/03 Q1011 NOSIG,EHBK,2015-02-20T10:25:00Z,50.92,5.77,6.0,3.0,210,16,,6.21,29.852362,,,TRUE,,,TRUE,,,,,OVC,1500,,,,,,,MVFR,,,,,,,,,,,,METAR,116.0
EHWO 201025Z AUTO 20010KT 2800 R25/2300 BR BKN006 OVC007 06/05 Q1009 REDZ YLO 20011KT 9999 SCT010 OVC011 TEMPO 4000 RADZ FEW004 SCT006 OVC009,EHWO,2015-02-20T10:25:00Z,51.45,4.32,6.0,5.0,200,10,,6.21,29.793306,,,TRUE,,,,,,,BR,BKN,600,OVC,700,SCT,1000,OVC,1100,IFR,,,1.1,,,,,,,,,METAR,17.0
EHVK 201025Z AUTO 20013KT 9999 DZ OVC011 06/04 Q1010 GRN 20015KT 9000 -RADZ SCT010 OVC015 TEMPO 3000 DZRA SCT007 OVC010,EHVK,2015-02-20T10:25:00Z,51.63,5.7,6.0,4.0,200,13,,6.21,29.822834,,,TRUE,,,,,,,DZ -RA DZ,OVC,1100,SCT,1000,OVC,1500,,,MVFR,,,1.5,,,,,,,,,METAR,21.0
EHGR 201025Z AUTO 20011KT 2500 R28/2600 +DZ FEW004 BKN005 OVC007 06/05 Q1009 YLO 20011KT 4000 -RA BKN005 OVC007 TEMPO 1500 DZRA SCT003 BKN004 OVC005,EHGR,2015-02-20T10:25:00Z,51.57,4.92,6.0,5.0,200,11,,1.55,29.793306,,,TRUE,,,,,,,-RA +DZ,FEW,400,BKN,500,OVC,700,BKN,500,IFR,,,1.1,,,,,,,,,METAR,13.0
ETAD 201024Z 21016KT 9999 BKN016 BKN025 BKN050 05/02 A2995 RMK AO2A,ETAD,2015-02-20T10:24:00Z,49.98,6.7,5.0,2.0,210,16,,6.21,29.949802,,,,TRUE,,,,,,,BKN,1600,BKN,2500,BKN,5000,,,MVFR,,,,,,,,,,,,METAR,365.0
EDNY 201020Z 24006KT CAVOK 03/M02 Q1020 RMK ATIS L,EDNY,2015-02-20T10:20:00Z,47.67,9.52,3.0,-2.0,240,6,,6.21,30.11811,,,,,,,,,,,CAVOK,,,,,,,,VFR,,,,,,,,,,,,SPECI,424.0
ELLX 201020Z 20010KT 160V230 9999 FEW015 BKN030 05/03 Q1014 TEMPO BKN010,ELLX,2015-02-20T10:20:00Z,49.63,6.2,5.0,3.0,200,10,,6.21,29.940945,,,,,,,,,,,FEW,1500,BKN,3000,,,,,MVFR,,,,,,,,,,,,SPECI,379.0
EBOS 201020Z 20010KT 3000 -RADZ BR BKN004 06/05 Q1008 TEMPO 2000 DZRA,EBOS,2015-02-20T10:20:00Z,51.2,2.87,6.0,5.0,200,10,,1.86,29.763779,,,,,,,,,,-RA -DZ BR,BKN,400,,,,,,,LIFR,,,,,,,,,,,,SPECI,5.0
EBLG 201020Z 20014KT 9999 FEW008 BKN010 05/03 Q1011 NOSIG,EBLG,2015-02-20T10:20:00Z,50.63,5.45,5.0,3.0,200,14,,6.21,29.852362,,,,,,TRUE,,,,,FEW,800,BKN,1000,,,,,MVFR,,,,,,,,,,,,METAR,178.0
EBCI 201020Z 20014KT 5000 BR BKN008 05/03 Q1011 TEMPO 20015G25KT,EBCI,2015-02-20T10:20:00Z,50.47,4.45,5.0,3.0,200,14,,3.11,29.852362,,,,,,,,,,BR,BKN,800,,,,,,,IFR,,,1.5,,,,,,,,,SPECI,192.0
EBBR 201020Z 20012KT 9999 FEW009 BKN011 06/04 Q1010 TEMPO 4000 RADZ BR BKN008,EBBR,2015-02-20T10:20:00Z,50.9,4.5,6.0,4.0,200,12,,6.21,29.822834,,,,,,,,,,,FEW,900,BKN,1100,,,,,MVFR,,,,,,,,,,,,SPECI,58.0
EBAW 201020Z 20013KT 8000 SCT007 BKN008 BKN009 06/04 Q1010 TEMPO 2500 RADZ BKN005,EBAW,2015-02-20T10:20:00Z,51.2,4.47,6.0,4.0,200,13,,4.97,29.822834,,,,,,,,,,,SCT,700,BKN,800,BKN,900,,,IFR,,,,,,,,,,,,SPECI,14.0
ETHF 201020Z 20015KT 9999 FEW030 SCT150 06/01 Q1013 BLU+BLU+ TEMPO GRN,ETHF,2015-02-20T10:20:00Z,51.12,9.27,6.0,1.0,200,15,,6.21,29.911417,,,,,,,,,,,FEW,3000,SCT,15000,,,,,VFR,,,,,,,,,,,,METAR,181.0
ETSB 201020Z 23011KT 8000 BKN011 BKN021 04/01 Q1013 GRN GRN TEMPO WHT,ETSB,2015-02-20T10:20:00Z,50.17,7.07,4.0,1.0,230,11,,4.97,29.911417,,,,,,,,,,,BKN,1100,BKN,2100,,,,,MVFR,,,,,,,,,,,,METAR,486.0
ETNN 201020Z 19008KT 9999 FEW020 SCT043 BKN090 08/02 Q1012 BLU BLU TEMPO WHT,ETNN,2015-02-20T10:20:00Z,50.82,6.67,8.0,2.0,190,8,,6.21,29.88189,,,,,,,,,,,FEW,2000,SCT,4300,BKN,9000,,,VFR,,,,,,,,,,,,METAR,135.0
LIML 201020Z 21004KT 5000 BR NSC 08/03 Q1025 NOSIG,LIML,2015-02-20T10:20:00Z,45.47,9.27,8.0,3.0,210,4,,3.11,30.265747,,,,,,TRUE,,,,BR,,,,,,,,,,,,,,,,,,,,,SPECI,103.0
LIMJ 201020Z 13014KT 9999 BKN040 11/06 Q1025,LIMJ,2015-02-20T10:20:00Z,44.42,8.83,11.0,6.0,130,14,,6.21,30.265747,,,,,,,,,,,BKN,4000,,,,,,,VFR,,,,,,,,,,,,METAR,3.0
LIMF 201020Z 09003KT 5000 BR NSC 06/01 Q1024,LIMF,2015-02-20T10:20:00Z,45.22,7.65,6.0,1.0,90,3,,3.11,30.236221,,,,,,,,,,BR,,,,,,,,,,,,,,,,,,,,,SPECI,287.0
LIME 201020Z 25004KT 200V290 5000 BR NSC 07/01 Q1024,LIME,2015-02-20T10:20:00Z,45.67,9.68,7.0,1.0,250,4,,3.11,30.236221,,,,,,,,,,BR,,,,,,,,,,,,,,,,,,,,,SPECI,237.0
LIMC 201020Z VRB02KT 8000 NSC 08/02 Q1024 NOSIG,LIMC,2015-02-20T10:20:00Z,45.62,8.72,8.0,2.0,0,2,,4.97,30.236221,,,,,,TRUE,,,,,,,,,,,,,,,,,,,,,,,,,SPECI,211.0
EDLV 201020Z 20013KT 170V230 9999 BKN015 06/06 Q1010,EDLV,2015-02-20T10:20:00Z,51.6,6.15,6.0,6.0,200,13,,6.21,29.822834,,,,,,,,,,,BKN,1500,,,,,,,MVFR,,,,,,,,,,,,METAR,32.0
EDFM 201020Z 19010KT CAVOK 06/M01 Q1017,EDFM,2015-02-20T10:20:00Z,49.47,8.52,6.0,-1.0,190,10,,6.21,30.029528,,,,,,,,,,,CAVOK,,,,,,,,VFR,,,,,,,,,,,,METAR,100.0
EDFE 201020Z 19008KT 8000 FEW028 BKN120 06/00 Q1016,EDFE,2015-02-20T10:20:00Z,49.97,8.63,6.0,0.0,190,8,,4.97,30.0,,,,,,,,,,,FEW,2800,BKN,12000,,,,,MVFR,,,,,,,,,,,,METAR,118.0
EDGS 201020Z 20013KT 4500 BR SCT006 BKN011 BKN060 02/02 Q1012,EDGS,2015-02-20T10:20:00Z,50.7,8.08,2.0,2.0,200,13,,2.8,29.88189,,,,,,,,,,BR,SCT,600,BKN,1100,BKN,6000,,,IFR,,,,,,,,,,,,METAR,602.0
EGTK 201020Z 26003KT 9999 FEW009 04/04 Q1007,EGTK,2015-02-20T10:20:00Z,51.83,-1.32,4.0,4.0,260,3,,6.21,29.734253,,,,,,,,,,,FEW,900,,,,,,,VFR,,,,,,,,,,,,METAR,82.0
EGMD 201020Z VRB02KT 7000 -DZ SCT005 SCT030 08/08 Q1007,EGMD,2015-02-20T10:20:00Z,50.95,0.92,8.0,8.0,0,2,,4.35,29.734253,,,,,,,,,,-DZ,SCT,500,SCT,3000,,,,,MVFR,,,,,,,,,,,,METAR,3.0
EGLF 201020Z VRB01KT 9999 SCT007 05/04 Q1007,EGLF,2015-02-20T10:20:00Z,51.28,-0.77,5.0,4.0,0,1,,6.21,29.734253,,,,,,,,,,,SCT,700,,,,,,,VFR,,,,,,,,,,,,METAR,65.0
EGKB 201020Z 27001KT 9999 SCT008 05/03 Q1006,EGKB,2015-02-20T10:20:00Z,51.32,0.02,5.0,3.0,270,1,,6.21,29.704725,,,,,,,,,,,SCT,800,,,,,,,VFR,,,,,,,,,,,,METAR,183.0
EGKA 201020Z 01002KT 8000 -RA FEW008 BKN028 07/06 Q1007,EGKA,2015-02-20T10:20:00Z,50.83,-0.3,7.0,6.0,10,2,,4.97,29.734253,,,,,,,,,,-RA,FEW,800,BKN,2800,,,,,MVFR,,,,,,,,,,,,METAR,2.0
EGHH 201020Z VRB04KT 9999 FEW005 06/05 Q1007,EGHH,2015-02-20T10:20:00Z,50.78,-1.83,6.0,5.0,0,4,,6.21,29.734253,,,,,,,,,,,FEW,500,,,,,,,VFR,,,,,,,,,,,,METAR,11.0
LSZC 201020Z 25003KT CAVOK 04/M03 Q1020,LSZC,2015-02-20T10:20:00Z,46.97,8.38,4.0,-3.0,250,3,,6.21,30.11811,,,,,,,,,,,CAVOK,,,,,,,,VFR,,,,,,,,,,,,METAR,450.0
LSZR 201020Z 08004KT 2000 BCFG SCT001 01/01 Q1020 BECMG CAVOK RMK G,LSZR,2015-02-20T10:20:00Z,47.48,9.57,1.0,1.0,80,4,,1.24,30.11811,,,,,,,,,,BCFG,SCT,100,,,,,,,IFR,,,,,,,,,,,,METAR,398.0
LSZG 201020Z 00000KT 0500 FZFG NSC M00/M00 Q1021 NOSIG,LSZG,2015-02-20T10:20:00Z,47.17,7.42,0.0,0.0,0,0,,0.31,30.147638,,,,,,TRUE,,,,FZFG,,,,,,,,,,,,,,,,,,,,,METAR,430.0
LSGS 201020Z 08005KT 050V140 CAVOK 05/M08 Q1022,LSGS,2015-02-20T10:20:00Z,46.22,7.32,5.0,-8.0,80,5,,6.21,30.177166,,,,,,,,,,,CAVOK,,,,,,,,VFR,,,,,,,,,,,,METAR,481.0
LSGC 201020Z 22005KT CAVOK 06/M06 Q1018,LSGC,2015-02-20T10:20:00Z,47.08,6.8,6.0,-6.0,220,5,,6.21,30.059055,,,,,,,,,,,CAVOK,,,,,,,,VFR,,,,,,,,,,,,METAR,1027.0
EGSS 201020Z VRB02KT 9999 SCT007 05/04 Q1007,EGSS,2015-02-20T10:20:00Z,51.88,0.22,5.0,4.0,0,2,,6.21,29.734253,,,,,,,,,,,SCT,700,,,,,,,VFR,,,,,,,,,,,,METAR,106.0
EGLL 201020Z VRB02KT 9999 SCT012 SCT017 07/03 Q1007,EGLL,2015-02-20T10:20:00Z,51.48,-0.45,7.0,3.0,0,2,,6.21,29.734253,,,,,,,,,,,SCT,1200,SCT,1700,,,,,VFR,,,,,,,,,,,,METAR,24.0
EGKK 201020Z VRB02KT 9999 SCT018 06/04 Q1007,EGKK,2015-02-20T10:20:00Z,51.13,-0.17,6.0,4.0,0,2,,6.21,29.734253,,,,,,,,,,,SCT,1800,,,,,,,VFR,,,,,,,,,,,,METAR,62.0
EGTE 201020Z 32005KT 9999 FEW004 05/05 Q1008,EGTE,2015-02-20T10:20:00Z,50.72,-3.42,5.0,5.0,320,5,,6.21,29.763779,,,,,,,,,,,FEW,400,,,,,,,VFR,,,,,,,,,,,,METAR,30.0
EGJJ 201020Z 19016KT 5000 -RA BKN003 BKN020 08/08 Q1006 RERA TEMPO 2000 BKN001,EGJJ,2015-02-20T10:20:00Z,49.22,-2.2,8.0,8.0,190,16,,3.11,29.704725,,,,,,,,,,-RA,BKN,300,BKN,2000,,,,,LIFR,,,,,,,,,,,,METAR,84.0
EGJB 201020Z 02009KT 6000 RA FEW001 SCT003 BKN012 07/07 Q1006 RERA,EGJB,2015-02-20T10:20:00Z,49.42,-2.6,7.0,7.0,20,9,,3.73,29.704725,,,,,,,,,,RA,FEW,100,SCT,300,BKN,1200,,,MVFR,,,,,,,,,,,,METAR,102.0
EGJA 201020Z 04010KT 6000 RA FEW002 BKN005 07/07 Q1006,EGJA,2015-02-20T10:20:00Z,49.72,-2.2,7.0,7.0,40,10,,3.73,29.704725,,,,,,,,,,RA,FEW,200,BKN,500,,,,,IFR,,,,,,,,,,,,METAR,71.0
EGHQ 201020Z 33008KT 9999 FEW030 06/03 Q1008,EGHQ,2015-02-20T10:20:00Z,50.43,-5.0,6.0,3.0,330,8,,6.21,29.763779,,,,,,,,,,,FEW,3000,,,,,,,VFR,,,,,,,,,,,,METAR,119.0
EGLC 201020Z VRB02KT 9999 SCT012 07/03 Q1007,EGLC,2015-02-20T10:20:00Z,51.5,0.05,7.0,3.0,0,2,,6.21,29.734253,,,,,,,,,,,SCT,1200,,,,,,,VFR,,,,,,,,,,,,METAR,5.0
EGGW 201020Z 00000KT 9999 FEW006 05/04 Q1006,EGGW,2015-02-20T10:20:00Z,51.87,-0.37,5.0,4.0,0,0,,6.21,29.704725,,,,,,,,,,,FEW,600,,,,,,,VFR,,,,,,,,,,,,METAR,160.0
EGFF 201020Z AUTO 31003KT 9999 NCD 05/04 Q1007,EGFF,2015-02-20T10:20:00Z,51.38,-3.35,5.0,4.0,310,3,,6.21,29.734253,,,TRUE,,,,,,,,,,,,,,,,,,,,,,,,,,,,METAR,67.0
EGHI 201020Z VRB01KT 9000 FEW030 05/04 Q1007,EGHI,2015-02-20T10:20:00Z,50.95,-1.35,5.0,4.0,0,1,,5.59,29.734253,,,,,,,,,,,FEW,3000,,,,,,,VFR,,,,,,,,,,,,METAR,14.0
EGGD 201020Z VRB02KT 9999 VCFG FEW001 05/03 Q1007,EGGD,2015-02-20T10:20:00Z,51.37,-2.72,5.0,3.0,0,2,,6.21,29.734253,,,,,,,,,,VCFG,FEW,100,,,,,,,VFR,,,,,,,,,,,,METAR,189.0
EDTL 201020Z VRB03KT CAVOK 11/01 Q1018,EDTL,2015-02-20T10:20:00Z,48.37,7.83,11.0,1.0,0,3,,6.21,30.059055,,,,,,,,,,,CAVOK,,,,,,,,VFR,,,,,,,,,,,,METAR,156.0
EDDS 201020Z VRB02KT CAVOK 08/02 Q1018 NOSIG,EDDS,2015-02-20T10:20:00Z,48.67,9.22,8.0,2.0,0,2,,6.21,30.059055,,,,,,TRUE,,,,,CAVOK,,,,,,,,VFR,,,,,,,,,,,,METAR,419.0
EDDL 201020Z 19011KT 9999 BKN020 06/03 Q1012 NOSIG,EDDL,2015-02-20T10:20:00Z,51.3,6.77,6.0,3.0,190,11,,6.21,29.88189,,,,,,TRUE,,,,,BKN,2000,,,,,,,MVFR,,,,,,,,,,,,METAR,44.0
EDDK 201020Z 19013KT 9999 SCT025 BKN040 07/02 Q1013 NOSIG,EDDK,2015-02-20T10:20:00Z,50.87,7.15,7.0,2.0,190,13,,6.21,29.911417,,,,,,TRUE,,,,,SCT,2500,BKN,4000,,,,,VFR,,,,,,,,,,,,METAR,99.0
EDDF 201020Z 19008KT 160V220 9999 FEW029 BKN120 06/01 Q1016 NOSIG,EDDF,2015-02-20T10:20:00Z,50.05,8.6,6.0,1.0,190,8,,6.21,30.0,,,,,,TRUE,,,,,FEW,2900,BKN,12000,,,,,VFR,,,,,,,,,,,,METAR,113.0
EDDR 201020Z 22012G22KT CAVOK 07/02 Q1016 NOSIG,EDDR,2015-02-20T10:20:00Z,49.22,7.1,7.0,2.0,220,12,22,6.21,30.0,,,,,,TRUE,,,,,CAVOK,,,,,,,,VFR,,,,,,,,,,,,METAR,320.0
LSZA 201020Z 19004KT 150V210 CAVOK 06/M01 Q1024 NOSIG,LSZA,2015-02-20T10:20:00Z,46.0,8.92,6.0,-1.0,190,4,,6.21,30.236221,,,,,,TRUE,,,,,CAVOK,,,,,,,,VFR,,,,,,,,,,,,METAR,276.0
LSZB 201020Z 14004KT 110V180 CAVOK 05/M04 Q1020 NOSIG,LSZB,2015-02-20T10:20:00Z,46.92,7.5,5.0,-4.0,140,4,,6.21,30.11811,,,,,,TRUE,,,,,CAVOK,,,,,,,,VFR,,,,,,,,,,,,METAR,505.0
LSGG 201020Z 21005KT CAVOK 07/M02 Q1021 NOSIG,LSGG,2015-02-20T10:20:00Z,46.25,6.12,7.0,-2.0,210,5,,6.21,30.147638,,,,,,TRUE,,,,,CAVOK,,,,,,,,VFR,,,,,,,,,,,,METAR,416.0
LSZH 201020Z 13004KT 090V150 CAVOK 06/M02 Q1020 NOSIG,LSZH,2015-02-20T10:20:00Z,47.48,8.53,6.0,-2.0,130,4,,6.21,30.11811,,,,,,TRUE,,,,,CAVOK,,,,,,,,VFR,,,,,,,,,,,,METAR,432.0
EDVK 201020Z 19011KT 160V220 9000 BKN022 05/01 Q1013 RMK ATIS L,EDVK,2015-02-20T10:20:00Z,51.38,9.37,5.0,1.0,190,11,,5.59,29.911417,,,,,,,,,,,BKN,2200,,,,,,,MVFR,,,,,,,,,,,,SPECI,285.0
EDSB 201020Z 19007KT CAVOK 07/00 Q1018,EDSB,2015-02-20T10:20:00Z,48.78,8.08,7.0,0.0,190,7,,6.21,30.059055,,,,,,,,,,,CAVOK,,,,,,,,VFR,,,,,,,,,,,,METAR,124.0
EDLW 201020Z 20017G27KT 9999 BKN021 06/00 Q1011 RMK ATIS M,EDLW,2015-02-20T10:20:00Z,51.52,7.62,6.0,0.0,200,17,27,6.21,29.852362,,,,,,,,,,,BKN,2100,,,,,,,MVFR,,,,,,,,,,,,SPECI,127.0
EDLP 201020Z 22014KT 190V250 9999 BKN024 06/03 Q1012 RMK ATIS YAN,EDLP,2015-02-20T10:20:00Z,51.62,8.62,6.0,3.0,220,14,,6.21,29.88189,,,,,,,,,,,BKN,2400,,,,,,,MVFR,,,,,,,,,,,,SPECI,213.0
EDLN 201020Z 20010KT 100V240 9999 BKN024 07/04 Q1011 RMK ATIS H,EDLN,2015-02-20T10:20:00Z,51.23,6.5,7.0,4.0,200,10,,6.21,29.852362,,,,,,,,,,,BKN,2400,,,,,,,MVFR,,,,,,,,,,,,SPECI,38.0
EDFH 201020Z 22013KT 9999 SCT012 BKN050 04/01 Q1014,EDFH,2015-02-20T10:20:00Z,49.95,7.27,4.0,1.0,220,13,,6.21,29.940945,,,,,,,,,,,SCT,1200,BKN,5000,,,,,VFR,,,,,,,,,,,,METAR,498.0
EGVA 201018Z AUTO 25004KT 8000 BR BKN001 03/03 A2973 RMK AO2 $,EGVA,2015-02-20T10:18:00Z,51.67,-1.77,3.0,3.0,250,4,,4.97,29.731298,,,TRUE,TRUE,TRUE,,,,,BR,BKN,100,,,,,,,LIFR,,,,,,,,,,,,SPECI,87.0
EBLB 201013Z AUTO 22011KT 9999 SCT006/// BKN008/// OVC010/// 02/01 Q1011 YLO,EBLB,2015-02-20T10:13:00Z,50.47,6.17,2.0,1.0,220,11,,6.21,29.852362,,,TRUE,,,,,,,,,,,,,,,,,,,,,,,,,,,,SPECI,570.0
EGVA 201013Z AUTO 25002KT 4800 R27/1300 BR BKN001 03/03 A2973 RMK AO2 $,EGVA,2015-02-20T10:13:00Z,51.67,-1.77,3.0,3.0,250,2,,2.98,29.731298,,,TRUE,TRUE,TRUE,,,,,BR,BKN,100,,,,,,,LIFR,,,,,,,,,,,,SPECI,87.0
EHWO 201012Z AUTO 21009KT 2800 R25/2500 -RA FEW005 BKN006 OVC007 06/05 Q1009 RERA REDZ YLO 20011KT 9999 SCT010 OVC011 TEMPO 4000 RADZ FEW004 SCT006 OVC009,EHWO,2015-02-20T10:12:00Z,51.45,4.32,6.0,5.0,210,9,,6.21,29.793306,,,TRUE,,,,,,,-RA,FEW,500,BKN,600,OVC,700,SCT,1000,IFR,,,1.1,,,,,,,,,SPECI,17.0
EGVN 201009Z 27002KT 9999 5000S BR FEW002 SCT020 BKN170 04/03 Q1007 WHT BECMG 9999 NSW FEW020 BLU,EGVN,2015-02-20T10:09:00Z,51.77,-1.58,4.0,3.0,270,2,,6.21,29.734253,,,,,,,,,,BR,FEW,200,SCT,2000,BKN,17000,,,VFR,,,,,,,,,,,,SPECI,88.0
EHWO 201008Z AUTO 21010KT 3000 R25/2600 DZRA FEW005 BKN007 OVC008 06/05 Q1009 YLO 20011KT 9999 SCT010 OVC011 TEMPO 4000 RADZ FEW004 SCT006 OVC009,EHWO,2015-02-20T10:08:00Z,51.45,4.32,6.0,5.0,210,10,,6.21,29.793306,,,TRUE,,,,,,,RA DZ,FEW,500,BKN,700,OVC,800,SCT,1000,IFR,,,,,,,,,,,,METAR,17.0
EHGR 201004Z AUTO 21011KT 2400 R28/P3000 -UP FEW006 BKN008 OVC009 06/05 Q1009 YLO 21015KT 4500 RADZ FEW006 SCT008 BKN010 TEMPO 9999 SCT010 BKN012,EHGR,2015-02-20T10:04:00Z,51.57,4.92,6.0,5.0,210,11,,1.49,29.793306,,,TRUE,,,,,,,RA DZ UP,FEW,600,BKN,800,OVC,900,FEW,600,IFR,,,-1.5,,,,,,,,,METAR,13.0
EGVA 201003Z AUTO 30001KT 4800 R27/1300 BR BKN001 03/02 A2973 RMK AO2 $,EGVA,2015-02-20T10:03:00Z,51.67,-1.77,3.0,2.0,300,1,,2.98,29.731298,,,TRUE,TRUE,TRUE,,,,,BR,BKN,100,,,,,,,LIFR,,,,,,,,,,,,METAR,87.0
LOIH 201000Z 35002KT 35KM SKC 03/M01 Q1020,LOIH,2015-02-20T10:00:00Z,47.38,9.7,3.0,-1.0,350,2,,21.75,30.11811,,,,,,,,,,,SKC,,,,,,,,VFR,,,,,,,,,,,,METAR,418.0
LFQG 201000Z AUTO 18009KT 9999 NSC 10/03 Q1017,LFQG,2015-02-20T10:00:00Z,47.0,3.1,10.0,3.0,180,9,,6.21,30.029528,,,TRUE,,,,,,,,,,,,,,,,,,,,,,,,,,,,METAR,181.0
LFLW 201000Z AUTO 11007KT 080V150 9999 NSC 07/M04 Q1020,LFLW,2015-02-20T10:00:00Z,44.88,2.42,7.0,-4.0,110,7,,6.21,30.11811,,,TRUE,,,,,,,,,,,,,,,,,,,,,,,,,,,,METAR,639.0
LEHC 201000Z 11007KT 080V150 CAVOK 07/02 Q1023,LEHC,2015-02-20T10:00:00Z,42.08,-0.32,7.0,2.0,110,7,,6.21,30.206694,,,,,,,,,,,CAVOK,,,,,,,,VFR,,,,,,,,,,,,METAR,539.0
LEBG 201000Z 21007KT 9999 FEW038 05/01 Q1021,LEBG,2015-02-20T10:00:00Z,42.37,-3.62,5.0,1.0,210,7,,6.21,30.147638,,,,,,,,,,,FEW,3800,,,,,,,VFR,,,,,,,,,,,,METAR,891.0
LELO 201000Z VRB02KT 8000 NSC 04/02 Q1023,LELO,2015-02-20T10:00:00Z,42.45,-2.32,4.0,2.0,0,2,,4.97,30.206694,,,,,,,,,,,,,,,,,,,,,,,,,,,,,,,METAR,363.0
LESU 201000Z VRB02KT CAVOK 03/M03 Q1023,LESU,2015-02-20T10:00:00Z,42.33,1.4,3.0,-3.0,0,2,,6.21,30.206694,,,,,,,,,,,CAVOK,,,,,,,,VFR,,,,,,,,,,,,METAR,800.0
LELN 201000Z 27008KT 240V300 7000 RA BKN024 BKN035 02/02 Q1021,LELN,2015-02-20T10:00:00Z,42.57,-5.65,2.0,2.0,270,8,,4.35,30.147638,,,,,,,,,,RA,BKN,2400,BKN,3500,,,,,MVFR,,,,,,,,,,,,METAR,914.0
LEVD 201000Z 21005KT 9000 FEW040 SCT049 03/01 Q1022,LEVD,2015-02-20T10:00:00Z,41.72,-4.83,3.0,1.0,210,5,,5.59,30.177166,,,,,,,,,,,FEW,4000,SCT,4900,,,,,VFR,,,,,,,,,,,,METAR,854.0
LEXJ 201000Z VRB02KT 9999 FEW030 BKN064 11/05 Q1019,LEXJ,2015-02-20T10:00:00Z,43.42,-3.82,11.0,5.0,0,2,,6.21,30.088583,,,,,,,,,,,FEW,3000,BKN,6400,,,,,VFR,,,,,,,,,,,,METAR,6.0
LEPP 201000Z 00000KT 9000 NSC 06/01 Q1022,LEPP,2015-02-20T10:00:00Z,42.77,-1.65,6.0,1.0,0,0,,5.59,30.177166,,,,,,,,,,,,,,,,,,,,,,,,,,,,,,,METAR,459.0
LELL 201000Z 18001KT 6000 FEW010 10/05 Q1024,LELL,2015-02-20T10:00:00Z,41.52,2.1,10.0,5.0,180,1,,3.73,30.236221,,,,,,,,,,,FEW,1000,,,,,,,MVFR,,,,,,,,,,,,METAR,250.0
LEDA 201000Z VRB01KT 9000 NSC 08/04 Q1024 NOSIG,LEDA,2015-02-20T10:00:00Z,41.73,0.53,8.0,4.0,0,1,,5.59,30.236221,,,,,,TRUE,,,,,,,,,,,,,,,,,,,,,,,,,METAR,350.0
EHGR 201000Z AUTO 21011KT 5000 BR FEW007 BKN008 OVC009 06/05 Q1009 GRN 21015KT 4500 RADZ FEW006 SCT008 BKN010 TEMPO 9999 SCT010 BKN012,EHGR,2015-02-20T10:00:00Z,51.57,4.92,6.0,5.0,210,11,,3.11,29.793306,,,TRUE,,,,,,,BR RA DZ,FEW,700,BKN,800,OVC,900,FEW,600,IFR,,,-1.5,,,,,,,,,METAR,13.0
LFTH 201000Z AUTO 12003KT 080V160 9999 NSC 12/06 Q1024,LFTH,2015-02-20T10:00:00Z,43.1,6.15,12.0,6.0,120,3,,6.21,30.236221,,,TRUE,,,,,,,,,,,,,,,,,,,,,,,,,,,,METAR,4.0
LFST 201000Z AUTO 17010KT 140V220 9999 NSC 07/02 Q1018,LFST,2015-02-20T10:00:00Z,48.53,7.62,7.0,2.0,170,10,,6.21,30.059055,,,TRUE,,,,,,,,,,,,,,,,,,,,,,,,,,,,METAR,154.0
LFSG 201000Z AUTO 19012KT 9999 NSC 05/02 Q1017,LFSG,2015-02-20T10:00:00Z,48.33,6.07,5.0,2.0,190,12,,6.21,30.029528,,,TRUE,,,,,,,,,,,,,,,,,,,,,,,,,,,,METAR,330.0
LFSB 201000Z 17006KT 140V200 CAVOK 07/00 Q1019 NOSIG,LFSB,2015-02-20T10:00:00Z,47.6,7.52,7.0,0.0,170,6,,6.21,30.088583,,,,,,TRUE,,,,,CAVOK,,,,,,,,VFR,,,,,,,,,,,,METAR,271.0
LFRZ 201000Z AUTO 22018KT 8000 -RA BKN007 OVC013 10/09 Q1011,LFRZ,2015-02-20T10:00:00Z,47.32,-2.17,10.0,9.0,220,18,,4.97,29.852362,,,TRUE,,,,,,,-RA,BKN,700,OVC,1300,,,,,IFR,,,,,,,,,,,,METAR,4.0
LFRV 201000Z AUTO 22011G22KT 180V260 4800 RA BR OVC002 09/09 Q1009,LFRV,2015-02-20T10:00:00Z,47.72,-2.72,9.0,9.0,220,11,22,2.98,29.793306,,,TRUE,,,,,,,RA BR,OVC,200,,,,,,,LIFR,,,,,,,,,,,,METAR,133.0
LFRO 201000Z AUTO 22011KT 9999 BKN013 BKN030 OVC170 10/09 Q1005,LFRO,2015-02-20T10:00:00Z,48.75,-3.47,10.0,9.0,220,11,,6.21,29.675198,,,TRUE,,,,,,,,BKN,1300,BKN,3000,OVC,17000,,,MVFR,,,,,,,,,,,,METAR,89.0
LFRN 201000Z AUTO 19011KT 9999 -RA BKN008 OVC012 10/08 Q1009,LFRN,2015-02-20T10:00:00Z,48.07,-1.72,10.0,8.0,190,11,,6.21,29.793306,,,TRUE,,,,,,,-RA,BKN,800,OVC,1200,,,,,IFR,,,,,,,,,,,,METAR,37.0
LFRM 201000Z AUTO 19009KT 160V220 9000 -RA OVC009 08/07 Q1012,LFRM,2015-02-20T10:00:00Z,47.95,0.2,8.0,7.0,190,9,,5.59,29.88189,,,TRUE,,,,,,,-RA,OVC,900,,,,,,,IFR,,,,,,,,,,,,METAR,52.0
LFRI 201000Z AUTO 21016KT 9999 -RA OVC008/// ///TCU 08/07 Q1014,LFRI,2015-02-20T10:00:00Z,46.7,-1.37,8.0,7.0,210,16,,6.21,29.940945,,,TRUE,,,,,,,-RA,,,,,,,,,,,,,,,,,,,,,METAR,91.0
LFRD 201000Z AUTO 18015KT 9999 -RA BKN009 OVC025 09/08 Q1007,LFRD,2015-02-20T10:00:00Z,48.58,-2.07,9.0,8.0,180,15,,6.21,29.734253,,,TRUE,,,,,,,-RA,BKN,900,OVC,2500,,,,,IFR,,,,,,,,,,,,METAR,59.0
LFOV 201000Z AUTO 19010KT 8000 -RA BKN004 OVC009 09/08 Q1010,LFOV,2015-02-20T10:00:00Z,48.03,-0.75,9.0,8.0,190,10,,4.97,29.822834,,,TRUE,,,,,,,-RA,BKN,400,OVC,900,,,,,LIFR,,,,,,,,,,,,METAR,101.0
LFMK 201000Z AUTO 09013KT 9999 BKN017 08/05 Q1022,LFMK,2015-02-20T10:00:00Z,43.22,2.32,8.0,5.0,90,13,,6.21,30.177166,,,TRUE,,,,,,,,BKN,1700,,,,,,,MVFR,,,,,,,,,,,,METAR,130.0
LFMI 201000Z AUTO 08005KT 040V110 9999 SCT038 10/04 Q1024,LFMI,2015-02-20T10:00:00Z,43.52,4.92,10.0,4.0,80,5,,6.21,30.236221,,,TRUE,,,,,,,,SCT,3800,,,,,,,VFR,,,,,,,,,,,,METAR,24.0
LFRU 201000Z AUTO 23009KT 9999 OVC012 10/09 Q1005,LFRU,2015-02-20T10:00:00Z,48.6,-3.82,10.0,9.0,230,9,,6.21,29.675198,,,TRUE,,,,,,,,OVC,1200,,,,,,,MVFR,,,,,,,,,,,,METAR,86.0
LFRK 201000Z AUTO 21010KT 9999 -RA BKN018/// BKN025/// OVC052/// ///TCU 09/07 Q1008,LFRK,2015-02-20T10:00:00Z,49.17,-0.45,9.0,7.0,210,10,,6.21,29.763779,,,TRUE,,,,,,,-RA,,,,,,,,,,,,,,,,,,,,,METAR,67.0
LFRG 201000Z AUTO 22010KT 190V250 9999 -RA BKN007/// OVC011/// ///TCU 08/07 Q1009,LFRG,2015-02-20T10:00:00Z,49.37,0.15,8.0,7.0,220,10,,6.21,29.793306,,,TRUE,,,,,,,-RA,,,,,,,,,,,,,,,,,,,,,METAR,146.0
LFRC 201000Z AUTO 20016KT 9999 -RA OVC007 08/07 Q1006,LFRC,2015-02-20T10:00:00Z,49.63,-1.47,8.0,7.0,200,16,,6.21,29.704725,,,TRUE,,,,,,,-RA,OVC,700,,,,,,,IFR,,,,,,,,,,,,METAR,138.0
LFPN 201000Z AUTO 20016KT 9000 -RA OVC008 06/05 Q1012,LFPN,2015-02-20T10:00:00Z,48.75,2.12,6.0,5.0,200,16,,5.59,29.88189,,,TRUE,,,,,,,-RA,OVC,800,,,,,,,IFR,,,,,,,,,,,,METAR,164.0
LFOT 201000Z AUTO 19015KT 9999 -RA FEW018 BKN043 BKN049 07/05 Q1014,LFOT,2015-02-20T10:00:00Z,47.43,0.72,7.0,5.0,190,15,,6.21,29.940945,,,TRUE,,,,,,,-RA,FEW,1800,BKN,4300,BKN,4900,,,VFR,,,,,,,,,,,,METAR,108.0
LFMH 201000Z 18009KT 150V210 CAVOK 10/M09 Q1020 NOSIG,LFMH,2015-02-20T10:00:00Z,45.52,4.28,10.0,-9.0,180,9,,6.21,30.11811,,,,,,TRUE,,,,,CAVOK,,,,,,,,VFR,,,,,,,,,,,,METAR,402.0
LFMD 201000Z AUTO VRB02KT 9999 NSC 13/05 Q1025,LFMD,2015-02-20T10:00:00Z,43.53,6.95,13.0,5.0,0,2,,6.21,30.265747,,,TRUE,,,,,,,,,,,,,,,,,,,,,,,,,,,,METAR,9.0
LFJR 201000Z AUTO 20013KT 9999 -RA OVC012 08/07 Q1013,LFJR,2015-02-20T10:00:00Z,47.57,-0.3,8.0,7.0,200,13,,6.21,29.911417,,,TRUE,,,,,,,-RA,OVC,1200,,,,,,,MVFR,,,,,,,,,,,,METAR,60.0
LFGJ 201000Z AUTO 19015KT 9999 NSC 09/01 Q1019,LFGJ,2015-02-20T10:00:00Z,47.05,5.43,9.0,1.0,190,15,,6.21,30.088583,,,TRUE,,,,,,,,,,,,,,,,,,,,,,,,,,,,METAR,196.0
LFBE 201000Z AUTO 13007KT 100V170 9999 NSC 09/04 Q1020,LFBE,2015-02-20T10:00:00Z,44.82,0.52,9.0,4.0,130,7,,6.21,30.11811,,,TRUE,,,,,,,,,,,,,,,,,,,,,,,,,,,,METAR,52.0
LFBA 201000Z AUTO 10009KT 4200 BR OVC002 05/04 Q1021,LFBA,2015-02-20T10:00:00Z,44.17,0.6,5.0,4.0,100,9,,2.61,30.147638,,,TRUE,,,,,,,BR,OVC,200,,,,,,,LIFR,,,,,,,,,,,,METAR,60.0
LFML 201000Z 00000KT 9999 BKN040 09/04 Q1024 NOSIG,LFML,2015-02-20T10:00:00Z,43.45,5.22,9.0,4.0,0,0,,6.21,30.236221,,,,,,TRUE,,,,,BKN,4000,,,,,,,VFR,,,,,,,,,,,,METAR,36.0
LFLX 201000Z 22014KT CAVOK 09/02 Q1016 NOSIG,LFLX,2015-02-20T10:00:00Z,46.85,1.72,9.0,2.0,220,14,,6.21,30.0,,,,,,TRUE,,,,,CAVOK,,,,,,,,VFR,,,,,,,,,,,,METAR,157.0
LFLB 201000Z 35003KT 330V040 CAVOK 07/M02 Q1022 NOSIG,LFLB,2015-02-20T10:00:00Z,45.63,5.87,7.0,-2.0,350,3,,6.21,30.177166,,,,,,TRUE,,,,,CAVOK,,,,,,,,VFR,,,,,,,,,,,,METAR,239.0
LFCK 201000Z AUTO 12017KT 9999 NSC 11/03 Q1022,LFCK,2015-02-20T10:00:00Z,43.55,2.28,11.0,3.0,120,17,,6.21,30.177166,,,TRUE,,,,,,,,,,,,,,,,,,,,,,,,,,,,METAR,240.0
LFBZ 201000Z AUTO 22007KT 140V300 9999 NSC 14/M01 Q1020,LFBZ,2015-02-20T10:00:00Z,43.47,-1.52,14.0,-1.0,220,7,,6.21,30.11811,,,TRUE,,,,,,,,,,,,,,,,,,,,,,,,,,,,METAR,71.0
LFBT 201000Z AUTO 22003KT 160V270 9999 NSC 13/M03 Q1020,LFBT,2015-02-20T10:00:00Z,43.17,0.0,13.0,-3.0,220,3,,6.21,30.11811,,,TRUE,,,,,,,,,,,,,,,,,,,,,,,,,,,,METAR,363.0
LFBP 201000Z AUTO 13004KT 9999 NSC 12/03 Q1020,LFBP,2015-02-20T10:00:00Z,43.37,-0.42,12.0,3.0,130,4,,6.21,30.11811,,,TRUE,,,,,,,,,,,,,,,,,,,,,,,,,,,,METAR,185.0
LFBO 201000Z AUTO 14010KT 110V170 8000 NSC 10/05 Q1021,LFBO,2015-02-20T10:00:00Z,43.62,1.37,10.0,5.0,140,10,,4.97,30.147638,,,TRUE,,,,,,,,,,,,,,,,,,,,,,,,,,,,METAR,153.0
LFBL 201000Z AUTO 18013KT 9999 NSC 06/02 Q1018,LFBL,2015-02-20T10:00:00Z,45.87,1.17,6.0,2.0,180,13,,6.21,30.059055,,,TRUE,,,,,,,,,,,,,,,,,,,,,,,,,,,,METAR,402.0
LFBI 201000Z AUTO 20015KT 9999 SCT015 SCT037 BKN100 08/05 Q1016,LFBI,2015-02-20T10:00:00Z,46.57,0.32,8.0,5.0,200,15,,6.21,30.0,,,TRUE,,,,,,,,SCT,1500,SCT,3700,BKN,10000,,,VFR,,,,,,,,,,,,METAR,120.0
LFBH 201000Z AUTO 21013KT 8000 -RA BKN014 BKN019 BKN028 09/07 Q1016,LFBH,2015-02-20T10:00:00Z,46.18,-1.2,9.0,7.0,210,13,,4.97,30.0,,,TRUE,,,,,,,-RA,BKN,1400,BKN,1900,BKN,2800,,,MVFR,,,,,,,,,,,,METAR,10.0
LFBD 201000Z AUTO 18009KT 9999 NSC 09/03 Q1019,LFBD,2015-02-20T10:00:00Z,44.82,-0.7,9.0,3.0,180,9,,6.21,30.088583,,,TRUE,,,,,,,,,,,,,,,,,,,,,,,,,,,,METAR,61.0
LFSN 201000Z AUTO 21010KT 160V240 9999 NSC 08/01 Q1017,LFSN,2015-02-20T10:00:00Z,48.67,6.22,8.0,1.0,210,10,,6.21,30.029528,,,TRUE,,,,,,,,,,,,,,,,,,,,,,,,,,,,METAR,217.0
LFQB 201000Z AUTO 19015KT 9999 NSC 09/03 Q1015,LFQB,2015-02-20T10:00:00Z,48.32,4.02,9.0,3.0,190,15,,6.21,29.970472,,,TRUE,,,,,,,,,,,,,,,,,,,,,,,,,,,,METAR,118.0
LFQA 201000Z AUTO 21004KT 160V260 9999 -RA OVC032 06/03 Q1014,LFQA,2015-02-20T10:00:00Z,49.2,4.15,6.0,3.0,210,4,,6.21,29.940945,,,TRUE,,,,,,,-RA,OVC,3200,,,,,,,VFR,,,,,,,,,,,,METAR,95.0
LFPB 201000Z AUTO 21011KT 9999 -RA OVC013 07/05 Q1013,LFPB,2015-02-20T10:00:00Z,48.97,2.45,7.0,5.0,210,11,,6.21,29.911417,,,TRUE,,,,,,,-RA,OVC,1300,,,,,,,MVFR,,,,,,,,,,,,METAR,65.0
LFOP 201000Z AUTO 19013KT 8000 -RA OVC006/// ///TCU 07/06 Q1010,LFOP,2015-02-20T10:00:00Z,49.37,1.17,7.0,6.0,190,13,,4.97,29.822834,,,TRUE,,,,,,,-RA,,,,,,,,,,,,,,,,,,,,,METAR,157.0
LFOK 201000Z AUTO 19014KT 9999 OVC045 07/04 Q1015,LFOK,2015-02-20T10:00:00Z,48.78,4.18,7.0,4.0,190,14,,6.21,29.970472,,,TRUE,,,,,,,,OVC,4500,,,,,,,VFR,,,,,,,,,,,,METAR,162.0
LFOH 201000Z AUTO 19012KT 160V220 7000 -RA SCT007/// SCT012/// BKN020/// ///TCU 08/06 Q1008,LFOH,2015-02-20T10:00:00Z,49.52,0.07,8.0,6.0,190,12,,4.35,29.763779,,,TRUE,,,,,,,-RA,,,,,,,,,,,,,,,,,,,,,METAR,103.0
LFOB 201000Z AUTO 20011KT 8000 -RA OVC008/// ///TCU 06/05 Q1011,LFOB,2015-02-20T10:00:00Z,49.47,2.12,6.0,5.0,200,11,,4.97,29.852362,,,TRUE,,,,,,,-RA,,,,,,,,,,,,,,,,,,,,,METAR,111.0
LFMU 201000Z AUTO 05009KT 9999 FEW032 10/05 Q1024,LFMU,2015-02-20T10:00:00Z,43.32,3.35,10.0,5.0,50,9,,6.21,30.236221,,,TRUE,,,,,,,,FEW,3200,,,,,,,VFR,,,,,,,,,,,,METAR,17.0
LFMT 201000Z 04006KT 010V070 9999 BKN043 08/03 Q1024 NOSIG,LFMT,2015-02-20T10:00:00Z,43.57,3.97,8.0,3.0,40,6,,6.21,30.236221,,,,,,TRUE,,,,,BKN,4300,,,,,,,VFR,,,,,,,,,,,,METAR,6.0
LFLY 201000Z AUTO 18020KT 9999 NSC 10/M01 Q1021,LFLY,2015-02-20T10:00:00Z,45.72,4.95,10.0,-1.0,180,20,,6.21,30.147638,,,TRUE,,,,,,,,,,,,,,,,,,,,,,,,,,,,METAR,201.0
LFLU 201000Z AUTO 19015KT 9999 NSC 09/03 Q1023,LFLU,2015-02-20T10:00:00Z,44.92,4.98,9.0,3.0,190,15,,6.21,30.206694,,,TRUE,,,,,,,,,,,,,,,,,,,,,,,,,,,,METAR,160.0
LFLS 201000Z AUTO 23013KT 9999 NSC 08/01 Q1022,LFLS,2015-02-20T10:00:00Z,45.37,5.32,8.0,1.0,230,13,,6.21,30.177166,,,TRUE,,,,,,,,,,,,,,,,,,,,,,,,,,,,METAR,386.0
LFLP 201000Z AUTO VRB01KT 9999 NSC 07/M03 Q1022,LFLP,2015-02-20T10:00:00Z,45.92,6.08,7.0,-3.0,0,1,,6.21,30.177166,,,TRUE,,,,,,,,,,,,,,,,,,,,,,,,,,,,METAR,463.0
LFJL 201000Z AUTO 21017KT 9999 NSC 08/02 Q1016,LFJL,2015-02-20T10:00:00Z,48.97,6.25,8.0,2.0,210,17,,6.21,30.0,,,TRUE,,,,,,,,,,,,,,,,,,,,,,,,,,,,METAR,264.0
LFCR 201000Z AUTO 13010KT 9999 NSC 08/01 Q1021,LFCR,2015-02-20T10:00:00Z,44.38,2.47,8.0,1.0,130,10,,6.21,30.147638,,,TRUE,,,,,,,,,,,,,,,,,,,,,,,,,,,,METAR,580.0
LFSL 201000Z AUTO 16009KT 130V190 9999 NSC 08/M02 Q1020,LFSL,2015-02-20T10:00:00Z,45.03,1.48,8.0,-2.0,160,9,,6.21,30.11811,,,TRUE,,,,,,,,,,,,,,,,,,,,,,,,,,,,METAR,310.0
LFMV 201000Z AUTO VRB03KT 9999 BKN038 OVC045 09/03 Q1025,LFMV,2015-02-20T10:00:00Z,43.9,4.9,9.0,3.0,0,3,,6.21,30.265747,,,TRUE,,,,,,,,BKN,3800,OVC,4500,,,,,VFR,,,,,,,,,,,,METAR,38.0
LFMP 201000Z AUTO 02003KT 330V070 8000 BKN010 08/06 Q1023,LFMP,2015-02-20T10:00:00Z,42.72,2.87,8.0,6.0,20,3,,4.97,30.206694,,,TRUE,,,,,,,,BKN,1000,,,,,,,MVFR,,,,,,,,,,,,METAR,48.0
LFLC 201000Z 18016KT CAVOK 09/M03 Q1019 NOSIG,LFLC,2015-02-20T10:00:00Z,45.77,3.17,9.0,-3.0,180,16,,6.21,30.088583,,,,,,TRUE,,,,,CAVOK,,,,,,,,VFR,,,,,,,,,,,,METAR,330.0
LFKJ 201000Z VRB01KT 9999 FEW053 14/03 Q1025 NOSIG,LFKJ,2015-02-20T10:00:00Z,41.92,8.8,14.0,3.0,0,1,,6.21,30.265747,,,,,,TRUE,,,,,FEW,5300,,,,,,,VFR,,,,,,,,,,,,METAR,9.0
LFKF 201000Z AUTO 22007KT 150V260 9999 NCD 14/08 Q1025,LFKF,2015-02-20T10:00:00Z,41.5,9.08,14.0,8.0,220,7,,6.21,30.265747,,,TRUE,,,,,,,,,,,,,,,,,,,,,,,,,,,,METAR,23.0
LFKC 201000Z 36004KT 310V040 9999 FEW030 13/02 Q1025 NOSIG,LFKC,2015-02-20T10:00:00Z,42.52,8.8,13.0,2.0,360,4,,6.21,30.265747,,,,,,TRUE,,,,,FEW,3000,,,,,,,VFR,,,,,,,,,,,,METAR,58.0
LFKB 201000Z VRB02KT 9999 FEW033 14/04 Q1025 NOSIG,LFKB,2015-02-20T10:00:00Z,42.53,9.47,14.0,4.0,0,2,,6.21,30.265747,,,,,,TRUE,,,,,FEW,3300,,,,,,,VFR,,,,,,,,,,,,METAR,12.0
LFTW 201000Z AUTO 08004KT 040V120 9999 SCT044 09/04 Q1024,LFTW,2015-02-20T10:00:00Z,43.75,4.42,9.0,4.0,80,4,,6.21,30.236221,,,TRUE,,,,,,,,SCT,4400,,,,,,,VFR,,,,,,,,,,,,METAR,96.0
LFSD 201000Z AUTO 20011KT 9000 NSC 07/03 Q1019,LFSD,2015-02-20T10:00:00Z,47.27,5.07,7.0,3.0,200,11,,5.59,30.088583,,,TRUE,,,,,,,,,,,,,,,,,,,,,,,,,,,,METAR,227.0
LFRT 201000Z AUTO 25010KT 9999 BKN015 BKN021 BKN038 10/08 Q1006,LFRT,2015-02-20T10:00:00Z,48.52,-2.85,10.0,8.0,250,10,,6.21,29.704725,,,TRUE,,,,,,,,BKN,1500,BKN,2100,BKN,3800,,,MVFR,,,,,,,,,,,,METAR,136.0
LFRQ 201000Z AUTO 23014KT 2500 -DZ BR BKN008 OVC013 10/09 Q1006,LFRQ,2015-02-20T10:00:00Z,47.97,-4.17,10.0,9.0,230,14,,1.55,29.704725,,,TRUE,,,,,,,-DZ BR,BKN,800,OVC,1300,,,,,IFR,,,,,,,,,,,,METAR,94.0
LFRH 201000Z AUTO 22018KT 9999 OVC005 10/09 Q1008,LFRH,2015-02-20T10:00:00Z,47.77,-3.45,10.0,9.0,220,18,,6.21,29.763779,,,TRUE,,,,,,,,OVC,500,,,,,,,IFR,,,,,,,,,,,,METAR,44.0
LFPT 201000Z AUTO 20014KT 9000 -RA OVC009/// ///TCU 06/05 Q1011,LFPT,2015-02-20T10:00:00Z,49.1,2.03,6.0,5.0,200,14,,5.59,29.852362,,,TRUE,,,,,,,-RA,,,,,,,,,,,,,,,,,,,,,METAR,99.0
LFPM 201000Z AUTO 19014KT 7000 -RA FEW017 OVC026 06/05 Q1014,LFPM,2015-02-20T10:00:00Z,48.62,2.67,6.0,5.0,190,14,,4.35,29.940945,,,TRUE,,,,,,,-RA,FEW,1700,OVC,2600,,,,,MVFR,,,,,,,,,,,,METAR,92.0
LFLN 201000Z AUTO 16008KT 9999 NSC 09/02 Q1019,LFLN,2015-02-20T10:00:00Z,46.42,4.02,9.0,2.0,160,8,,6.21,30.088583,,,TRUE,,,,,,,,,,,,,,,,,,,,,,,,,,,,METAR,244.0
LFGA 201000Z AUTO 16007KT 130V190 9999 NSC 08/00 Q1018,LFGA,2015-02-20T10:00:00Z,48.1,7.35,8.0,0.0,160,7,,6.21,30.059055,,,TRUE,,,,,,,,,,,,,,,,,,,,,,,,,,,,METAR,191.0
LFBU 201000Z AUTO 20010KT 160V260 9999 NSC 07/03 Q1018,LFBU,2015-02-20T10:00:00Z,45.72,0.22,7.0,3.0,200,10,,6.21,30.059055,,,TRUE,,,,,,,,,,,,,,,,,,,,,,,,,,,,METAR,133.0
LFAT 201000Z AUTO 16008KT 130V190 2000 -RA BR BKN009/// OVC015/// ///TCU 07/06 Q1008,LFAT,2015-02-20T10:00:00Z,50.52,1.62,7.0,6.0,160,8,,1.24,29.763779,,,TRUE,,,,,,,-RA BR,,,,,,,,,,,,,,,,,,,,,METAR,14.0
LFAQ 201000Z AUTO 19013KT 8000 OVC007 06/05 Q1010,LFAQ,2015-02-20T10:00:00Z,49.97,2.7,6.0,5.0,190,13,,4.97,29.822834,,,TRUE,,,,,,,,OVC,700,,,,,,,IFR,,,,,,,,,,,,METAR,111.0
LFPG 201000Z 20016KT 7000 -RA FEW009 BKN011 06/05 Q1012 NOSIG,LFPG,2015-02-20T10:00:00Z,49.02,2.52,6.0,5.0,200,16,,4.35,29.88189,,,,,,TRUE,,,,-RA,FEW,900,BKN,1100,,,,,MVFR,,,,,,,,,,,,METAR,109.0
LFRS 201000Z 20015KT 8000 -RA BKN007 09/08 Q1012 NOSIG,LFRS,2015-02-20T10:00:00Z,47.17,-1.6,9.0,8.0,200,15,,4.97,29.88189,,,,,,TRUE,,,,-RA,BKN,700,,,,,,,IFR,,,,,,,,,,,,METAR,27.0
LFRB 201000Z 25007KT 6000 -DZ BKN005 BKN011 10/09 Q1006 TEMPO 3000 RADZ,LFRB,2015-02-20T10:00:00Z,48.45,-4.42,10.0,9.0,250,7,,3.73,29.704725,,,,,,,,,,-DZ,BKN,500,BKN,1100,,,,,IFR,,,,,,,,,,,,METAR,103.0
LFQQ 201000Z 19017KT 9999 BKN009 06/05 Q1009 TEMPO 3000 RADZ BKN008,LFQQ,2015-02-20T10:00:00Z,50.57,3.1,6.0,5.0,190,17,,6.21,29.793306,,,,,,,,,,,BKN,900,,,,,,,IFR,,,,,,,,,,,,METAR,52.0
LFPO 201000Z 21012KT 180V250 9000 -RA BKN012 07/05 Q1013 NOSIG,LFPO,2015-02-20T10:00:00Z,48.72,2.38,7.0,5.0,210,12,,5.59,29.911417,,,,,,TRUE,,,,-RA,BKN,1200,,,,,,,MVFR,,,,,,,,,,,,METAR,96.0
LFMN 201000Z 32005KT 9999 FEW023 SCT033 11/02 Q1025 NOSIG,LFMN,2015-02-20T10:00:00Z,43.63,7.2,11.0,2.0,320,5,,6.21,30.265747,,,,,,TRUE,,,,,FEW,2300,SCT,3300,,,,,VFR,,,,,,,,,,,,METAR,10.0
LFLL 201000Z 18019KT CAVOK 10/M02 Q1021 NOSIG,LFLL,2015-02-20T10:00:00Z,45.72,5.07,10.0,-2.0,180,19,,6.21,30.147638,,,,,,TRUE,,,,,CAVOK,,,,,,,,VFR,,,,,,,,,,,,METAR,240.0
LFMY 201000Z AUTO 03004KT 360V080 9999 OVC038 09/03 Q1025,LFMY,2015-02-20T10:00:00Z,43.6,5.08,9.0,3.0,30,4,,6.21,30.265747,,,TRUE,,,,,,,,OVC,3800,,,,,,,VFR,,,,,,,,,,,,METAR,60.0
LFMC 201000Z 00000KT 8000 FEW013 05/03 Q1025,LFMC,2015-02-20T10:00:00Z,43.37,6.37,5.0,3.0,0,0,,4.97,30.265747,,,,,,,,,,,FEW,1300,,,,,,,MVFR,,,,,,,,,,,,METAR,78.0
LFBY 201000Z 00000KT CAVOK 10/04 Q1020,LFBY,2015-02-20T10:00:00Z,43.67,-1.07,10.0,4.0,0,0,,6.21,30.11811,,,,,,,,,,,CAVOK,,,,,,,,VFR,,,,,,,,,,,,METAR,32.0
LFBM 201000Z AUTO VRB02KT 9999 NSC 12/04 Q1020,LFBM,2015-02-20T10:00:00Z,43.92,-0.5,12.0,4.0,0,2,,6.21,30.11811,,,TRUE,,,,,,,,,,,,,,,,,,,,,,,,,,,,METAR,63.0
LFBG 201000Z AUTO 18011KT 9999 -RA SCT043 BKN054 OVC070 08/05 Q1018,LFBG,2015-02-20T10:00:00Z,45.67,-0.32,8.0,5.0,180,11,,6.21,30.059055,,,TRUE,,,,,,,-RA,SCT,4300,BKN,5400,OVC,7000,,,VFR,,,,,,,,,,,,METAR,31.0
LFBC 201000Z AUTO 18007KT 9999 NSC 08/03 Q1019,LFBC,2015-02-20T10:00:00Z,44.52,-1.12,8.0,3.0,180,7,,6.21,30.088583,,,TRUE,,,,,,,,,,,,,,,,,,,,,,,,,,,,METAR,33.0
LFSX 201000Z AUTO VRB03KT 9999 NSC 08/02 Q1019,LFSX,2015-02-20T10:00:00Z,47.77,6.33,8.0,2.0,0,3,,6.21,30.088583,,,TRUE,,,,,,,,,,,,,,,,,,,,,,,,,,,,METAR,273.0
LFSO 201000Z AUTO 21014KT 9999 NSC 08/01 Q1016,LFSO,2015-02-20T10:00:00Z,48.57,5.97,8.0,1.0,210,14,,6.21,30.0,,,TRUE,,,,,,,,,,,,,,,,,,,,,,,,,,,,METAR,350.0
LFSI 201000Z AUTO 19010KT 9999 NSC 08/03 Q1016,LFSI,2015-02-20T10:00:00Z,48.62,4.9,8.0,3.0,190,10,,6.21,30.0,,,TRUE,,,,,,,,,,,,,,,,,,,,,,,,,,,,METAR,140.0
LFRL 201000Z AUTO 24009KT 210V270 8000 OVC004 10/10 Q1006,LFRL,2015-02-20T10:00:00Z,48.27,-4.42,10.0,10.0,240,9,,4.97,29.704725,,,TRUE,,,,,,,,OVC,400,,,,,,,LIFR,,,,,,,,,,,,METAR,82.0
LFRJ 201000Z AUTO 24010KT 9999 BKN008 BKN014 BKN026 10/10 Q1006,LFRJ,2015-02-20T10:00:00Z,48.52,-4.15,10.0,10.0,240,10,,6.21,29.704725,,,TRUE,,,,,,,,BKN,800,BKN,1400,BKN,2600,,,IFR,,,,,,,,,,,,METAR,115.0
LFOJ 201000Z AUTO 21017KT 9999 -RA OVC044 07/05 Q1014,LFOJ,2015-02-20T10:00:00Z,47.97,1.75,7.0,5.0,210,17,,6.21,29.940945,,,TRUE,,,,,,,-RA,OVC,4400,,,,,,,VFR,,,,,,,,,,,,METAR,125.0
LFOE 201000Z AUTO 20015KT 7000 -RA OVC011/// ///TCU 07/06 Q1011,LFOE,2015-02-20T10:00:00Z,49.02,1.22,7.0,6.0,200,15,,4.35,29.852362,,,TRUE,,,,,,,-RA,,,,,,,,,,,,,,,,,,,,,METAR,146.0
LFOC 201000Z AUTO 21019KT 9999 -RA SCT029 OVC036 07/06 Q1013,LFOC,2015-02-20T10:00:00Z,48.03,1.37,7.0,6.0,210,19,,6.21,29.911417,,,TRUE,,,,,,,-RA,SCT,2900,OVC,3600,,,,,VFR,,,,,,,,,,,,METAR,127.0
LFPV 201000Z AUTO 21011KT 170V230 9999 -RA OVC008 06/04 Q1012,LFPV,2015-02-20T10:00:00Z,48.77,2.2,6.0,4.0,210,11,,6.21,29.88189,,,TRUE,,,,,,,-RA,OVC,800,,,,,,,IFR,,,,,,,,,,,,METAR,179.0
LFPC 201000Z AUTO 20013KT 6000 -RA ////// 06/06 Q1012,LFPC,2015-02-20T10:00:00Z,49.25,2.52,6.0,6.0,200,13,,3.73,29.88189,,,TRUE,,,,,,,-RA,,,,,,,,,,,,,,,,,,,,,METAR,88.0
LEVT 201000Z 24006KT CAVOK 06/02 Q1021,LEVT,2015-02-20T10:00:00Z,42.87,-2.72,6.0,2.0,240,6,,6.21,30.147638,,,,,,,,,,,CAVOK,,,,,,,,VFR,,,,,,,,,,,,METAR,509.0
LESO 201000Z 22008KT 190V260 CAVOK 14/00 Q1020,LESO,2015-02-20T10:00:00Z,43.35,-1.8,14.0,0.0,220,8,,6.21,30.11811,,,,,,,,,,,CAVOK,,,,,,,,VFR,,,,,,,,,,,,METAR,8.0
LEZG 201000Z 12007KT 080V150 CAVOK 06/01 Q1024,LEZG,2015-02-20T10:00:00Z,41.67,-1.02,6.0,1.0,120,7,,6.21,30.236221,,,,,,,,,,,CAVOK,,,,,,,,VFR,,,,,,,,,,,,METAR,258.0
LEGE 201000Z VRB02KT 5000 BR NSC 08/04 Q1023,LEGE,2015-02-20T10:00:00Z,41.88,2.77,8.0,4.0,0,2,,3.11,30.206694,,,,,,,,,,BR,,,,,,,,,,,,,,,,,,,,,METAR,129.0
LEBB 201000Z VRB02KT 9999 SCT068 12/04 Q1020 NOSIG,LEBB,2015-02-20T10:00:00Z,43.28,-2.92,12.0,4.0,0,2,,6.21,30.11811,,,,,,TRUE,,,,,SCT,6800,,,,,,,VFR,,,,,,,,,,,,METAR,34.0
LEAS 201000Z 22014G24KT 190V250 8000 FEW040 BKN055 09/05 Q1018 RERA NOSIG,LEAS,2015-02-20T10:00:00Z,43.53,-6.02,9.0,5.0,220,14,24,4.97,30.059055,,,,,,TRUE,,,,,FEW,4000,BKN,5500,,,,,MVFR,,,,,,,,,,,,METAR,134.0
LFYR 201000Z AUTO 20013KT 170V230 9999 NSC 09/02 Q1016,LFYR,2015-02-20T10:00:00Z,47.32,1.67,9.0,2.0,200,13,,6.21,30.0,,,TRUE,,,,,,,,,,,,,,,,,,,,,,,,,,,,METAR,86.0
LFOA 201000Z AUTO 19013KT 9999 NSC 09/03 Q1017,LFOA,2015-02-20T10:00:00Z,47.03,2.63,9.0,3.0,190,13,,6.21,30.029528,,,TRUE,,,,,,,,,,,,,,,,,,,,,,,,,,,,METAR,179.0
LFMO 201000Z AUTO VRB02KT 9999 BKN039 BKN220 07/03 Q1025,LFMO,2015-02-20T10:00:00Z,44.12,4.87,7.0,3.0,0,2,,6.21,30.265747,,,TRUE,,,,,,,,BKN,3900,BKN,22000,,,,,VFR,,,,,,,,,,,,METAR,55.0
LFKS 201000Z AUTO 11003KT 080V160 9999 NSC 13/06 Q1025,LFKS,2015-02-20T10:00:00Z,41.92,9.4,13.0,6.0,110,3,,6.21,30.265747,,,TRUE,,,,,,,,,,,,,,,,,,,,,,,,,,,,METAR,22.0
EGVA 200958Z AUTO M 3200 R27/1200 BR BKN001 03/02 A2973 RMK AO2 VIS 3200V4000 BKN V OVC SLP074 T00250023 $,EGVA,2015-02-20T09:58:00Z,51.67,-1.77,2.5,2.3,,,,1.99,29.731298,1007.4,,TRUE,TRUE,TRUE,,,,,BR,BKN,100,,,,,,,LIFR,,,,,,,,,,,,METAR,87.0
ETAD 200958Z 21017KT 9999 BKN014 BKN021 BKN027 04/02 A2996 RMK AO2A SLP152 T00420016,ETAD,2015-02-20T09:58:00Z,49.98,6.7,4.2,1.6,210,17,,6.21,29.958662,1015.2,,,TRUE,,,,,,,BKN,1400,BKN,2100,BKN,2700,,,MVFR,,,,,,,,,,,,METAR,365.0
ETAR 200958Z AUTO 24009G15KT 9999 CLR 08/00 A3001 RMK AO2 SLP176 T00790004 $,ETAR,2015-02-20T09:58:00Z,49.42,7.58,7.9,0.4,240,9,15,6.21,30.008858,1017.6,,TRUE,TRUE,TRUE,,,,,,CLR,,,,,,,,VFR,,,,,,,,,,,,METAR,238.0
ETOU 200958Z AUTO 19008KT 9999 BKN100 BKN120 03/01 A3002 RMK AO2 SLP175 T00320007 $,ETOU,2015-02-20T09:58:00Z,50.03,8.32,3.2,0.7,190,8,,6.21,30.02067,1017.5,,TRUE,TRUE,TRUE,,,,,,BKN,10000,BKN,12000,,,,,VFR,,,,,,,,,,,,METAR,141.0
EGVA 200957Z AUTO 00000KT 3200 R27/1100 BR BKN001 03/02 A2973 RMK AO2 VIS 3200V4000 BKN V OVC $,EGVA,2015-02-20T09:57:00Z,51.67,-1.77,3.0,2.0,0,0,,1.99,29.731298,,,TRUE,TRUE,TRUE,,,,,BR,BKN,100,,,,,,,LIFR,,,,,,,,,,,,METAR,87.0
LIMY 200955Z VRB02KT CAVOK 04/M02 Q1024 RMK SKC VAL NIL VIS MIN 9999,LIMY,2015-02-20T09:55:00Z,44.25,7.78,4.0,-2.0,0,2,,6.21,30.236221,,,,,,,,,,,CAVOK,,,,,,,,VFR,,,,,,,,,,,,METAR,1742.0
LIMV 200955Z /////KT 9999 SCT012 SCT015 06/01 Q1024 RMK BKN MON LIB VAL NIL VIS MIN 9999,LIMV,2015-02-20T09:55:00Z,44.55,8.92,6.0,1.0,,,,6.21,30.236221,,,,,,,,,,,SCT,1200,SCT,1500,,,,,VFR,,,,,,,,,,,,METAR,475.0
LIMU 200955Z 19009KT 9999 SCT033 12/04 Q1025 RMK SCT QUK 1 QUL 1 S VIS MAR 20 KM VIS MIN 9999,LIMU,2015-02-20T09:55:00Z,43.95,8.17,12.0,4.0,190,9,,6.21,30.265747,,,,,,,,,,,SCT,3300,,,,,,,VFR,,,,,,,,,,,,METAR,221.0
LIMH 200955Z /////KT CAVOK M09/M30 Q1017 RMK SKC MON LIB VAL NIL VIS MIN 9999,LIMH,2015-02-20T09:55:00Z,45.93,7.7,-9.0,-30.0,,,,6.21,30.029528,,,,,,,,,,,CAVOK,,,,,,,,VFR,,,,,,,,,,,,METAR,3488.0
LIMN 200955Z /////KT 6000 NSC 06/01 Q1024 RMK FEW FEW080 VIS MIN 6000 WHT,LIMN,2015-02-20T09:55:00Z,45.52,8.67,6.0,1.0,,,,3.73,30.236221,,,,,,,,,,,,,,,,,,,,,,,,,,,,,,,METAR,169.0
LIMK 200955Z 00000KT 5000 BR NSC 03/01 Q1022 RMK SKC VAL FOSCHIA SKC SUP VIS MIN 5000,LIMK,2015-02-20T09:55:00Z,45.02,7.72,3.0,1.0,0,0,,3.11,30.177166,,,,,,,,,,BR,,,,,,,,,,,,,,,,,,,,,METAR,710.0
LIMS 200955Z 02003KT CAVOK 08/02 Q1024 RMK FEW FEW200 VIS MIN 9999 WIND THR30 30001KT BLU,LIMS,2015-02-20T09:55:00Z,44.92,9.72,8.0,2.0,20,3,,6.21,30.236221,,,,,,,,,,,CAVOK,,,,,,,,VFR,,,,,,,,,,,,METAR,138.0
EBFS 200955Z 20014KT 5000 BR SCT006 BKN008 04/03 Q1012 YLO GRN TEMPO YLO,EBFS,2015-02-20T09:55:00Z,50.22,4.65,4.0,3.0,200,14,,3.11,29.88189,,,,,,,,,,BR,SCT,600,BKN,800,,,,,IFR,,,,,,,,,,,,METAR,299.0
EBFN 200955Z 21010KT 3100 RADZ FEW003 BKN005 BKN007 07/06 Q1009 YLO YLO TEMPO GRN,EBFN,2015-02-20T09:55:00Z,51.07,2.63,7.0,6.0,210,10,,1.93,29.793306,,,,,,,,,,RA DZ,FEW,300,BKN,500,BKN,700,,,IFR,,,,,,,,,,,,METAR,9.0
EBBL 200955Z 21009KT 9999 SCT013 BKN016 06/03 Q1011 GRN GRN,EBBL,2015-02-20T09:55:00Z,51.17,5.47,6.0,3.0,210,9,,6.21,29.852362,,,,,,,,,,,SCT,1300,BKN,1600,,,,,MVFR,,,,,,,,,,,,METAR,64.0
EHBK 200955Z AUTO 21016KT 170V240 9999 BKN016 OVC020 06/03 Q1011 NOSIG,EHBK,2015-02-20T09:55:00Z,50.92,5.77,6.0,3.0,210,16,,6.21,29.852362,,,TRUE,,,TRUE,,,,,BKN,1600,OVC,2000,,,,,MVFR,,,,,,,,,,,,METAR,116.0
EHGR 200955Z AUTO 21011KT 9000 BR FEW007 OVC008 06/05 Q1009 GRN 21015KT 4500 RADZ FEW006 SCT008 BKN010 TEMPO 9999 SCT010 BKN012,EHGR,2015-02-20T09:55:00Z,51.57,4.92,6.0,5.0,210,11,,5.59,29.793306,,,TRUE,,,,,,,BR RA DZ,FEW,700,OVC,800,FEW,600,SCT,800,IFR,,,-1.5,,,,,,,,,METAR,13.0
EHFS 200955Z AUTO 20014KT 5000 -RA SCT005 BKN006 OVC007 06/05 Q1008 RERA REDZ,EHFS,2015-02-20T09:55:00Z,51.45,3.6,6.0,5.0,200,14,,3.11,29.763779,,,TRUE,,,,,,,-RA,SCT,500,BKN,600,OVC,700,,,IFR,,,,,,,,,,,,METAR,32.0
EHEH 200955Z AUTO 19012KT 9999 BKN010 OVC012 06/04 Q1010 GRN 20012KT 9000 FEW010 BKN012 OVC015 TEMPO 5000 DZRA BR BKN007 OVC010,EHEH,2015-02-20T09:55:00Z,51.45,5.38,6.0,4.0,190,12,,6.21,29.822834,,,TRUE,,,,,,,,BKN,1000,OVC,1200,FEW,1000,BKN,1200,MVFR,,,1.2,,,,,,,,,METAR,22.0
EHWO 200955Z AUTO 21009KT 2900 R25/2300 DZ FEW005 BKN006 OVC008 06/05 Q1009 YLO 20011KT 9999 SCT010 OVC011 TEMPO 4000 RADZ SCT006 OVC009,EHWO,2015-02-20T09:55:00Z,51.45,4.32,6.0,5.0,210,9,,6.21,29.793306,,,TRUE,,,,,,,DZ,FEW,500,BKN,600,OVC,800,SCT,1000,IFR,,,1.1,,,,,,,,,METAR,17.0
EHVK 200955Z AUTO 20014KT 9999 FEW008 BKN009 OVC010 06/04 Q1010 GRN 20015KT 9000 -RADZ SCT010 OVC015 TEMPO 3000 DZRA SCT007 OVC010,EHVK,2015-02-20T09:55:00Z,51.63,5.7,6.0,4.0,200,14,,6.21,29.822834,,,TRUE,,,,,,,-RA DZ,FEW,800,BKN,900,OVC,1000,SCT,1000,IFR,,,1.5,,,,,,,,,METAR,21.0
EGVA 200954Z AUTO 32001KT 3200 R27/1400 BR BKN001 02/02 A2973 RMK AO2 VIS 3200V4000 BKN V OVC,EGVA,2015-02-20T09:54:00Z,51.67,-1.77,2.0,2.0,320,1,,1.99,29.731298,,,TRUE,TRUE,,,,,,BR,BKN,100,,,,,,,LIFR,,,,,,,,,,,,METAR,87.0
EBFS 200953Z 20014KT 5000 BR SCT006 BKN008 04/03 Q1012 YLO GRN TEMPO YLO,EBFS,2015-02-20T09:53:00Z,50.22,4.65,4.0,3.0,200,14,,3.11,29.88189,,,,,,,,,,BR,SCT,600,BKN,800,,,,,IFR,,,,,,,,,,,,METAR,299.0
LSZR 200950Z VRB02KT 0100 R10/0250N FZFG VV001 M00/M00 Q1021 NOSIG RMK F,LSZR,2015-02-20T09:50:00Z,47.48,9.57,0.0,0.0,0,2,,0.06,30.147638,,,,,,TRUE,,,,FZFG,OVX,0,,,,,,,LIFR,,,,,,,,,,,100,METAR,398.0
LSZG 200950Z VRB01KT 0100 FZFG VV001 M01/M01 Q1021 NOSIG,LSZG,2015-02-20T09:50:00Z,47.17,7.42,-1.0,-1.0,0,1,,0.06,30.147638,,,,,,TRUE,,,,FZFG,OVX,0,,,,,,,LIFR,,,,,,,,,,,100,METAR,430.0
LSGS 200950Z 09006KT CAVOK 04/M08 Q1022,LSGS,2015-02-20T09:50:00Z,46.22,7.32,4.0,-8.0,90,6,,6.21,30.177166,,,,,,,,,,,CAVOK,,,,,,,,VFR,,,,,,,,,,,,METAR,481.0
LSGC 200950Z VRB04KT CAVOK 05/M05 Q1018,LSGC,2015-02-20T09:50:00Z,47.08,6.8,5.0,-5.0,0,4,,6.21,30.059055,,,,,,,,,,,CAVOK,,,,,,,,VFR,,,,,,,,,,,,METAR,1027.0
LSMS 200950Z 09006KT CAVOK 04/M08 Q1022,LSMS,2015-02-20T09:50:00Z,46.22,7.32,4.0,-8.0,90,6,,6.21,30.177166,,,,,,,,,,,CAVOK,,,,,,,,VFR,,,,,,,,,,,,METAR,481.0
LSMP 200950Z 08003KT 060V120 0200 R05/P2000D R23/0700V1100U FG FEW001 M01/M01 Q1021 RMK RED,LSMP,2015-02-20T09:50:00Z,46.82,6.92,-1.0,-1.0,80,3,,0.12,30.147638,,,,,,,,,,FG,FEW,100,,,,,,,LIFR,,,,,,,,,,,,METAR,491.0
LSMM 200950Z VRB02KT CAVOK 00/M06 Q1021 RMK BLU,LSMM,2015-02-20T09:50:00Z,46.75,8.12,0.0,-6.0,0,2,,6.21,30.147638,,,,,,,,,,,CAVOK,,,,,,,,VFR,,,,,,,,,,,,METAR,577.0
LSME 200950Z 00000KT CAVOK 04/M02 Q1021 RMK BLU,LSME,2015-02-20T09:50:00Z,47.1,8.3,4.0,-2.0,0,0,,6.21,30.147638,,,,,,,,,,,CAVOK,,,,,,,,VFR,,,,,,,,,,,,METAR,427.0
LSMD 200950Z VRB02KT CAVOK 05/M04 Q1021 RMK BLU,LSMD,2015-02-20T09:50:00Z,47.4,8.65,5.0,-4.0,0,2,,6.21,30.147638,,,,,,,,,,,CAVOK,,,,,,,,VFR,,,,,,,,,,,,METAR,448.0
LSMA 200950Z 00000KT CAVOK 03/M03 Q1021 RMK BLU,LSMA,2015-02-20T09:50:00Z,46.95,8.28,3.0,-3.0,0,0,,6.21,30.147638,,,,,,,,,,,CAVOK,,,,,,,,VFR,,,,,,,,,,,,METAR,444.0
EGTE 200950Z 31003KT 9999 FEW008 05/04 Q1008,EGTE,2015-02-20T09:50:00Z,50.72,-3.42,5.0,4.0,310,3,,6.21,29.763779,,,,,,,,,,,FEW,800,,,,,,,VFR,,,,,,,,,,,,METAR,30.0
EGJJ 200950Z 19014KT 5000 RA BKN003 BKN017 08/08 Q1006 TEMPO 2000 BKN001,EGJJ,2015-02-20T09:50:00Z,49.22,-2.2,8.0,8.0,190,14,,3.11,29.704725,,,,,,,,,,RA,BKN,300,BKN,1700,,,,,LIFR,,,,,,,,,,,,METAR,84.0
EGJB 200950Z 01007KT 3000 +RA FEW001 SCT003 BKN008 07/07 Q1006,EGJB,2015-02-20T09:50:00Z,49.42,-2.6,7.0,7.0,10,7,,1.86,29.704725,,,,,,,,,,+RA,FEW,100,SCT,300,BKN,800,,,IFR,,,,,,,,,,,,METAR,102.0
EGJA 200950Z 03008KT 010V070 5000 RA SCT002 BKN004 BKN013 07/07 Q1006,EGJA,2015-02-20T09:50:00Z,49.72,-2.2,7.0,7.0,30,8,,3.11,29.704725,,,,,,,,,,RA,SCT,200,BKN,400,BKN,1300,,,LIFR,,,,,,,,,,,,METAR,71.0
EGHQ 200950Z 35006KT 9999 FEW025 06/03 Q1008,EGHQ,2015-02-20T09:50:00Z,50.43,-5.0,6.0,3.0,350,6,,6.21,29.763779,,,,,,,,,,,FEW,2500,,,,,,,VFR,,,,,,,,,,,,METAR,119.0
EGTK 200950Z 22002KT CAVOK 04/04 Q1007,EGTK,2015-02-20T09:50:00Z,51.83,-1.32,4.0,4.0,220,2,,6.21,29.734253,,,,,,,,,,,CAVOK,,,,,,,,VFR,,,,,,,,,,,,METAR,82.0
EGMD 200950Z 20003KT 6000 -RADZ SCT005 SCT033 08/08 Q1008,EGMD,2015-02-20T09:50:00Z,50.95,0.92,8.0,8.0,200,3,,3.73,29.763779,,,,,,,,,,-RA -DZ,SCT,500,SCT,3300,,,,,MVFR,,,,,,,,,,,,METAR,3.0
EGMC 200950Z 33003KT 9999 FEW009 06/04 Q1007,EGMC,2015-02-20T09:50:00Z,51.57,0.7,6.0,4.0,330,3,,6.21,29.734253,,,,,,,,,,,FEW,900,,,,,,,VFR,,,,,,,,,,,,METAR,15.0
EGLF 200950Z VRB01KT 9999 SCT006 05/04 Q1007,EGLF,2015-02-20T09:50:00Z,51.28,-0.77,5.0,4.0,0,1,,6.21,29.734253,,,,,,,,,,,SCT,600,,,,,,,VFR,,,,,,,,,,,,METAR,65.0
EGKA 200950Z 00000KT 9999 -RA FEW011 07/06 Q1007,EGKA,2015-02-20T09:50:00Z,50.83,-0.3,7.0,6.0,0,0,,6.21,29.734253,,,,,,,,,,-RA,FEW,1100,,,,,,,VFR,,,,,,,,,,,,METAR,2.0
EGHH 200950Z 01004KT 9999 FEW015 BKN045 06/05 Q1007,EGHH,2015-02-20T09:50:00Z,50.78,-1.83,6.0,5.0,10,4,,6.21,29.734253,,,,,,,,,,,FEW,1500,BKN,4500,,,,,VFR,,,,,,,,,,,,METAR,11.0
EGLC 200950Z 00000KT 9999 SCT012 07/04 Q1007,EGLC,2015-02-20T09:50:00Z,51.5,0.05,7.0,4.0,0,0,,6.21,29.734253,,,,,,,,,,,SCT,1200,,,,,,,VFR,,,,,,,,,,,,METAR,5.0
EGGW 200950Z VRB03KT 9999 SCT006 05/04 Q1006,EGGW,2015-02-20T09:50:00Z,51.87,-0.37,5.0,4.0,0,3,,6.21,29.704725,,,,,,,,,,,SCT,600,,,,,,,VFR,,,,,,,,,,,,METAR,160.0
EGFF 200950Z AUTO VRB02KT 9999 NCD 05/04 Q1007,EGFF,2015-02-20T09:50:00Z,51.38,-3.35,5.0,4.0,0,2,,6.21,29.734253,,,TRUE,,,,,,,,,,,,,,,,,,,,,,,,,,,,METAR,67.0
EGSS 200950Z 32004KT 9999 FEW005 SCT008 05/04 Q1007,EGSS,2015-02-20T09:50:00Z,51.88,0.22,5.0,4.0,320,4,,6.21,29.734253,,,,,,,,,,,FEW,500,SCT,800,,,,,VFR,,,,,,,,,,,,METAR,106.0
EGLL 200950Z VRB02KT 9999 FEW013 07/04 Q1007,EGLL,2015-02-20T09:50:00Z,51.48,-0.45,7.0,4.0,0,2,,6.21,29.734253,,,,,,,,,,,FEW,1300,,,,,,,VFR,,,,,,,,,,,,METAR,24.0
EGKK 200950Z VRB03KT 9999 FEW012 06/04 Q1007,EGKK,2015-02-20T09:50:00Z,51.13,-0.17,6.0,4.0,0,3,,6.21,29.734253,,,,,,,,,,,FEW,1200,,,,,,,VFR,,,,,,,,,,,,METAR,62.0
EGHI 200950Z VRB02KT 9000 FEW030 05/04 Q1007,EGHI,2015-02-20T09:50:00Z,50.95,-1.35,5.0,4.0,0,2,,5.59,29.734253,,,,,,,,,,,FEW,3000,,,,,,,VFR,,,,,,,,,,,,METAR,14.0
EGGD 200950Z 29002KT 9999 VCFG FEW001 04/02 Q1007,EGGD,2015-02-20T09:50:00Z,51.37,-2.72,4.0,2.0,290,2,,6.21,29.734253,,,,,,,,,,VCFG,FEW,100,,,,,,,VFR,,,,,,,,,,,,METAR,189.0
LSZL 200950Z 00000KT CAVOK 05/M04 Q1025 RMK BLU,LSZL,2015-02-20T09:50:00Z,46.17,8.88,5.0,-4.0,0,0,,6.21,30.265747,,,,,,,,,,,CAVOK,,,,,,,,VFR,,,,,,,,,,,,METAR,600.0
LSZC 200950Z VRB02KT CAVOK 04/M03 Q1021,LSZC,2015-02-20T09:50:00Z,46.97,8.38,4.0,-3.0,0,2,,6.21,30.147638,,,,,,,,,,,CAVOK,,,,,,,,VFR,,,,,,,,,,,,METAR,450.0
EDDS 200950Z 12003KT 060V190 CAVOK 07/00 Q1018 NOSIG,EDDS,2015-02-20T09:50:00Z,48.67,9.22,7.0,0.0,120,3,,6.21,30.059055,,,,,,TRUE,,,,,CAVOK,,,,,,,,VFR,,,,,,,,,,,,METAR,419.0
EDDL 200950Z 19010KT 9999 FEW017 BKN022 06/02 Q1012 NOSIG,EDDL,2015-02-20T09:50:00Z,51.3,6.77,6.0,2.0,190,10,,6.21,29.88189,,,,,,TRUE,,,,,FEW,1700,BKN,2200,,,,,MVFR,,,,,,,,,,,,METAR,44.0
EDDK 200950Z 19011KT 9999 FEW025 BKN044 07/02 Q1013 NOSIG,EDDK,2015-02-20T09:50:00Z,50.87,7.15,7.0,2.0,190,11,,6.21,29.911417,,,,,,TRUE,,,,,FEW,2500,BKN,4400,,,,,VFR,,,,,,,,,,,,METAR,99.0
EDDF 200950Z 19010KT 9000 FEW029 BKN120 05/01 Q1017 NOSIG,EDDF,2015-02-20T09:50:00Z,50.05,8.6,5.0,1.0,190,10,,5.59,30.029528,,,,,,TRUE,,,,,FEW,2900,BKN,12000,,,,,VFR,,,,,,,,,,,,METAR,113.0
EDDR 200950Z 21013KT CAVOK 06/02 Q1016 NOSIG,EDDR,2015-02-20T09:50:00Z,49.22,7.1,6.0,2.0,210,13,,6.21,30.0,,,,,,TRUE,,,,,CAVOK,,,,,,,,VFR,,,,,,,,,,,,METAR,320.0
EDTL 200950Z 32003KT CAVOK 07/02 Q1018,EDTL,2015-02-20T09:50:00Z,48.37,7.83,7.0,2.0,320,3,,6.21,30.059055,,,,,,,,,,,CAVOK,,,,,,,,VFR,,,,,,,,,,,,METAR,156.0
EGKB 200950Z 34002KT 9999 FEW007 05/03 Q1007,EGKB,2015-02-20T09:50:00Z,51.32,0.02,5.0,3.0,340,2,,6.21,29.734253,,,,,,,,,,,FEW,700,,,,,,,VFR,,,,,,,,,,,,METAR,183.0
EGDR 200950Z 36009KT 9999 FEW018 SCT140 07/02 Q1008 BLU TEMPO SCT018 WHT,EGDR,2015-02-20T09:50:00Z,50.08,-5.25,7.0,2.0,360,9,,6.21,29.763779,,,,,,,,,,,FEW,1800,SCT,14000,,,,,VFR,,,,,,,,,,,,SPECI,82.0
LIMG 200950Z 00000KT 9999 BKN050 10/04 Q1025,LIMG,2015-02-20T09:50:00Z,44.03,8.12,10.0,4.0,0,0,,6.21,30.265747,,,,,,,,,,,BKN,5000,,,,,,,VFR,,,,,,,,,,,,METAR,49.0
LIMA 200950Z 00000KT 5000 BR NSC 06/01 Q1024,LIMA,2015-02-20T09:50:00Z,45.08,7.6,6.0,1.0,0,0,,3.11,30.236221,,,,,,,,,,BR,,,,,,,,,,,,,,,,,,,,,METAR,287.0
EDNY 200950Z 13004KT 090V150 CAVOK 04/M06 Q1020 RMK ATIS K,EDNY,2015-02-20T09:50:00Z,47.67,9.52,4.0,-6.0,130,4,,6.21,30.11811,,,,,,,,,,,CAVOK,,,,,,,,VFR,,,,,,,,,,,,SPECI,424.0
EGVP 200950Z 32001KT 1000 BR FEW000 BKN230 04/04 Q1007 AMB BECMG 9999 NSW FEW015 BLU,EGVP,2015-02-20T09:50:00Z,51.13,-1.57,4.0,4.0,320,1,,0.62,29.734253,,,,,,,,,,BR,FEW,0,BKN,23000,,,,,LIFR,,,,,,,,,,,,METAR,91.0
EGVO 200950Z 32001KT 9999 FEW004 SCT140 BKN180 05/03 Q1007 BLU NOSIG,EGVO,2015-02-20T09:50:00Z,51.23,-0.95,5.0,3.0,320,1,,6.21,29.734253,,,,,,TRUE,,,,,FEW,400,SCT,14000,BKN,18000,,,VFR,,,,,,,,,,,,METAR,123.0
EHGR 200950Z AUTO 21011KT 9000 BR SCT007 OVC008 06/05 Q1009 GRN 21015KT 4500 RADZ FEW006 SCT008 BKN010 TEMPO 9999 SCT010 BKN012,EHGR,2015-02-20T09:50:00Z,51.57,4.92,6.0,5.0,210,11,,5.59,29.793306,,,TRUE,,,,,,,BR RA DZ,SCT,700,OVC,800,FEW,600,SCT,800,IFR,,,-1.5,,,,,,,,,METAR,13.0
EGVA 200950Z AUTO 00000KT 4000 BR OVC001 02/02 A2973 RMK AO2 VIS 2400V4000 OVC V BKN,EGVA,2015-02-20T09:50:00Z,51.67,-1.77,2.0,2.0,0,0,,2.49,29.731298,,,TRUE,TRUE,,,,,,BR,OVC,100,,,,,,,LIFR,,,,,,,,,,,,METAR,87.0
EGWU 200950Z 33001KT 9999 FEW006 SCT160 BKN250 05/04 Q1007 TEMPO SCT010,EGWU,2015-02-20T09:50:00Z,51.55,-0.42,5.0,4.0,330,1,,6.21,29.734253,,,,,,,,,,,FEW,600,SCT,16000,BKN,25000,,,VFR,,,,,,,,,,,,METAR,40.0
EGDM 200950Z 33004KT 0800 FG FEW001 BKN180 04/03 Q1007 AMB BECMG 4000 BR SCT014 GRN,EGDM,2015-02-20T09:50:00Z,51.17,-1.75,4.0,3.0,330,4,,0.5,29.734253,,,,,,,,,,FG,FEW,100,BKN,18000,,,,,LIFR,,,,,,,,,,,,METAR,124.0
EGVN 200950Z 24002KT 9000 2000S BR SCT002 OVC180 03/03 Q1007 AMB BECMG 9999 NSW FEW002 BLU,EGVN,2015-02-20T09:50:00Z,51.77,-1.58,3.0,3.0,240,2,,5.59,29.734253,,,,,,,,,,BR SA,SCT,200,OVC,18000,,,,,VFR,,,,,,,,,,,,METAR,88.0
EGUB 200950Z 27001KT 9999 FEW006 BKN180 05/03 Q1007 BLU TEMPO SCT006 YLO1,EGUB,2015-02-20T09:50:00Z,51.62,-1.07,5.0,3.0,270,1,,6.21,29.734253,,,,,,,,,,,FEW,600,BKN,18000,,,,,VFR,,,,,,,,,,,,METAR,63.0
EGOP 200950Z 00000KT 9999 FEW018 BKN180 04/03 Q1008 BLU,EGOP,2015-02-20T09:50:00Z,51.72,-4.32,4.0,3.0,0,0,,6.21,29.763779,,,,,,,,,,,FEW,1800,BKN,18000,,,,,VFR,,,,,,,,,,,,METAR,6.0
EGDY 200950Z 02001KT 0800 FG SCT002 OVC200 05/05 Q1007 AMB BECMG 9999 BKN020 WHT,EGDY,2015-02-20T09:50:00Z,51.0,-2.62,5.0,5.0,20,1,,0.5,29.734253,,,,,,,,,,FG,SCT,200,OVC,20000,,,,,LIFR,,,,,,,,,,,,METAR,23.0
EGDX 200950Z 26002KT 9999 SCT030 BKN150 05/04 Q1007 BLU,EGDX,2015-02-20T09:50:00Z,51.4,-3.43,5.0,4.0,260,2,,6.21,29.734253,,,,,,,,,,,SCT,3000,BKN,15000,,,,,VFR,,,,,,,,,,,,METAR,50.0
LSZA 200950Z VRB02KT CAVOK 06/M01 Q1024 NOSIG,LSZA,2015-02-20T09:50:00Z,46.0,8.92,6.0,-1.0,0,2,,6.21,30.236221,,,,,,TRUE,,,,,CAVOK,,,,,,,,VFR,,,,,,,,,,,,METAR,276.0
LSZB 200950Z 14005KT CAVOK 04/M03 Q1020 NOSIG,LSZB,2015-02-20T09:50:00Z,46.92,7.5,4.0,-3.0,140,5,,6.21,30.11811,,,,,,TRUE,,,,,CAVOK,,,,,,,,VFR,,,,,,,,,,,,METAR,505.0
LSGG 200950Z 21007KT CAVOK 06/M03 Q1021 NOSIG,LSGG,2015-02-20T09:50:00Z,46.25,6.12,6.0,-3.0,210,7,,6.21,30.147638,,,,,,TRUE,,,,,CAVOK,,,,,,,,VFR,,,,,,,,,,,,METAR,416.0
LSZH 200950Z 16004KT 130V200 CAVOK 05/M02 Q1020 NOSIG,LSZH,2015-02-20T09:50:00Z,47.48,8.53,5.0,-2.0,160,4,,6.21,30.11811,,,,,,TRUE,,,,,CAVOK,,,,,,,,VFR,,,,,,,,,,,,METAR,432.0
EDVK 200950Z 17009KT 130V210 9000 BKN020 04/00 Q1013 RMK ATIS K,EDVK,2015-02-20T09:50:00Z,51.38,9.37,4.0,0.0,170,9,,5.59,29.911417,,,,,,,,,,,BKN,2000,,,,,,,MVFR,,,,,,,,,,,,SPECI,285.0
EDSB 200950Z 19006KT 7000 NSC 04/01 Q1018,EDSB,2015-02-20T09:50:00Z,48.78,8.08,4.0,1.0,190,6,,4.35,30.059055,,,,,,,,,,,,,,,,,,,,,,,,,,,,,,,METAR,124.0
EDLW 200950Z 21017KT 9999 BKN025 06/00 Q1011 RMK ATIS L,EDLW,2015-02-20T09:50:00Z,51.52,7.62,6.0,0.0,210,17,,6.21,29.852362,,,,,,,,,,,BKN,2500,,,,,,,MVFR,,,,,,,,,,,,METAR,127.0
EDLP 200950Z 21015G27KT 9999 SCT033 05/02 Q1012 RMK ATIS X-R,EDLP,2015-02-20T09:50:00Z,51.62,8.62,5.0,2.0,210,15,27,6.21,29.88189,,,,,,,,,,,SCT,3300,,,,,,,VFR,,,,,,,,,,,,METAR,213.0
EDLN 200950Z 20009KT 160V240 9000 BKN023 07/03 Q1012 RMK ATIS G,EDLN,2015-02-20T09:50:00Z,51.23,6.5,7.0,3.0,200,9,,5.59,29.88189,,,,,,,,,,,BKN,2300,,,,,,,MVFR,,,,,,,,,,,,METAR,38.0
EDFH 200950Z 22014KT 9999 SCT012 BKN050 04/02 Q1014,EDFH,2015-02-20T09:50:00Z,49.95,7.27,4.0,2.0,220,14,,6.21,29.940945,,,,,,,,,,,SCT,1200,BKN,5000,,,,,VFR,,,,,,,,,,,,METAR,498.0
ETNG 200950Z 21011G27KT 9999 FEW026 BKN037 07/03 Q1012 TEMPO -RA,ETNG,2015-02-20T09:50:00Z,50.97,6.03,7.0,3.0,210,11,27,6.21,29.88189,,,,,,,,,,,FEW,2600,BKN,3700,,,,,VFR,,,,,,,,,,,,METAR,98.0
EBLG 200950Z 20015KT 9999 FEW008 BKN012 05/03 Q1012 NOSIG,EBLG,2015-02-20T09:50:00Z,50.63,5.45,5.0,3.0,200,15,,6.21,29.88189,,,,,,TRUE,,,,,FEW,800,BKN,1200,,,,,MVFR,,,,,,,,,,,,METAR,178.0
EBCI 200950Z 20015KT 7000 BKN008 05/03 Q1011 TEMPO 20015G25KT,EBCI,2015-02-20T09:50:00Z,50.47,4.45,5.0,3.0,200,15,,4.35,29.852362,,,,,,,,,,,BKN,800,,,,,,,IFR,,,1.5,,,,,,,,,METAR,192.0
EBBR 200950Z 21013KT 7000 -RA BR SCT008 BKN010 05/04 Q1011 BECMG 4000 RADZ BR BKN008,EBBR,2015-02-20T09:50:00Z,50.9,4.5,5.0,4.0,210,13,,4.35,29.852362,,,,,,,,,,-RA BR,SCT,800,BKN,1000,,,,,MVFR,,,,,,,,,,,,METAR,58.0
EBAW 200950Z 21013KT 6000 SCT007 BKN008 BKN009 06/04 Q1010 TEMPO 3000 RADZ BKN006,EBAW,2015-02-20T09:50:00Z,51.2,4.47,6.0,4.0,210,13,,3.73,29.822834,,,,,,,,,,,SCT,700,BKN,800,BKN,900,,,IFR,,,,,,,,,,,,METAR,14.0
LIML 200950Z 21004KT 170V230 5000 BR NSC 08/04 Q1025 NOSIG,LIML,2015-02-20T09:50:00Z,45.47,9.27,8.0,4.0,210,4,,3.11,30.265747,,,,,,TRUE,,,,BR,,,,,,,,,,,,,,,,,,,,,SPECI,103.0
LIMJ 200950Z 12012KT 9999 BKN040 11/05 Q1025,LIMJ,2015-02-20T09:50:00Z,44.42,8.83,11.0,5.0,120,12,,6.21,30.265747,,,,,,,,,,,BKN,4000,,,,,,,VFR,,,,,,,,,,,,METAR,3.0
LIMF 200950Z 09003KT 5000 BR NSC 05/01 Q1024,LIMF,2015-02-20T09:50:00Z,45.22,7.65,5.0,1.0,90,3,,3.11,30.236221,,,,,,,,,,BR,,,,,,,,,,,,,,,,,,,,,SPECI,287.0
LIME 200950Z VRB02KT 5000 BR NSC 07/01 Q1025,LIME,2015-02-20T09:50:00Z,45.67,9.68,7.0,1.0,0,2,,3.11,30.265747,,,,,,,,,,BR,,,,,,,,,,,,,,,,,,,,,SPECI,237.0
LIMC 200950Z VRB01KT CAVOK 08/02 Q1025 NOSIG,LIMC,2015-02-20T09:50:00Z,45.62,8.72,8.0,2.0,0,1,,6.21,30.265747,,,,,,TRUE,,,,,CAVOK,,,,,,,,VFR,,,,,,,,,,,,METAR,211.0
ELLX 200950Z 20011KT 9999 SCT015 BKN025 04/02 Q1014 TEMPO BKN009,ELLX,2015-02-20T09:50:00Z,49.63,6.2,4.0,2.0,200,11,,6.21,29.940945,,,,,,,,,,,SCT,1500,BKN,2500,,,,,MVFR,,,,,,,,,,,,METAR,379.0
EBOS 200950Z 20009KT 3000 -RADZ BR BKN004 BKN007 06/05 Q1009 TEMPO 2000 DZRA,EBOS,2015-02-20T09:50:00Z,51.2,2.87,6.0,5.0,200,9,,1.86,29.793306,,,,,,,,,,-RA -DZ BR,BKN,400,BKN,700,,,,,LIFR,,,,,,,,,,,,METAR,5.0
EDFE 200950Z 21006KT 8000 FEW028 BKN120 07/00 Q1016,EDFE,2015-02-20T09:50:00Z,49.97,8.63,7.0,0.0,210,6,,4.97,30.0,,,,,,,,,,,FEW,2800,BKN,12000,,,,,MVFR,,,,,,,,,,,,METAR,118.0
EDGS 200950Z 20014KT 4000 BR FEW005 BKN013 BKN070 01/01 Q1013,EDGS,2015-02-20T09:50:00Z,50.7,8.08,1.0,1.0,200,14,,2.49,29.911417,,,,,,,,,,BR,FEW,500,BKN,1300,BKN,7000,,,IFR,,,,,,,,,,,,METAR,602.0
EDLV 200950Z 20011KT 170V230 9999 BKN015 06/06 Q1011,EDLV,2015-02-20T09:50:00Z,51.6,6.15,6.0,6.0,200,11,,6.21,29.852362,,,,,,,,,,,BKN,1500,,,,,,,MVFR,,,,,,,,,,,,METAR,32.0
EDFM 200950Z 18009KT 150V220 CAVOK 05/M01 Q1018,EDFM,2015-02-20T09:50:00Z,49.47,8.52,5.0,-1.0,180,9,,6.21,30.059055,,,,,,,,,,,CAVOK,,,,,,,,VFR,,,,,,,,,,,,METAR,100.0
EGUO 200950Z 00000KT 2000 0200S FOG BKN020 03/03 Q1008 RED,EGUO,2015-02-20T09:50:00Z,51.43,-2.28,3.0,3.0,0,0,,1.24,29.763779,,,,,,,,,,,BKN,2000,,,,,,,IFR,,,,,,,,,,,,METAR,13.0
EHVK 200947Z AUTO 20014KT 9000 BR FEW008 OVC010 06/05 Q1010 REDZ GRN 20015KT 9000 -RADZ SCT010 OVC015 TEMPO 3000 DZRA SCT007 OVC010,EHVK,2015-02-20T09:47:00Z,51.63,5.7,6.0,5.0,200,14,,5.59,29.822834,,,TRUE,,,,,,,BR -RA DZ,FEW,800,OVC,1000,SCT,1000,OVC,1500,MVFR,,,1.5,,,,,,,,,SPECI,21.0
EGVA 200945Z AUTO 00000KT 3200 BR BKN001 02/02 A2973 RMK AO2 VIS 2000V3200 BKN V OVC $,EGVA,2015-02-20T09:45:00Z,51.67,-1.77,2.0,2.0,0,0,,1.99,29.731298,,,TRUE,TRUE,TRUE,,,,,BR,BKN,100,,,,,,,LIFR,,,,,,,,,,,,SPECI,87.0
EGUB 200944Z 23001KT 9000 HZ FEW005 BKN180 05/04 Q1007 BLU TEMPO SCT006 YLO1,EGUB,2015-02-20T09:44:00Z,51.62,-1.07,5.0,4.0,230,1,,5.59,29.734253,,,,,,,,,,HZ,FEW,500,BKN,18000,,,,,VFR,,,,,,,,,,,,METAR,63.0
EBLB 200943Z AUTO 21013KT 9999 SCT007/// BKN009/// 02/01 Q1012 GRN,EBLB,2015-02-20T09:43:00Z,50.47,6.17,2.0,1.0,210,13,,6.21,29.88189,,,TRUE,,,,,,,,,,,,,,,,,,,,,,,,,,,,SPECI,570.0
EGDY 200943Z 08001KT 0800 FG SCT002 OVC200 05/04 Q1007 AMB BECMG 4000 BR SCT012 GRN,EGDY,2015-02-20T09:43:00Z,51.0,-2.62,5.0,4.0,80,1,,0.5,29.734253,,,,,,,,,,FG,SCT,200,OVC,20000,,,,,LIFR,,,,,,,,,,,,METAR,23.0
EHWO 200941Z AUTO 21010KT 2800 R25/2800 DZ BKN006 OVC008 06/05 Q1009 YLO 20011KT 9999 SCT010 OVC011 TEMPO 4000 RADZ SCT006 OVC009,EHWO,2015-02-20T09:41:00Z,51.45,4.32,6.0,5.0,210,10,,6.21,29.793306,,,TRUE,,,,,,,DZ,BKN,600,OVC,800,SCT,1000,OVC,1100,IFR,,,1.1,,,,,,,,,SPECI,17.0
ETOU 200940Z AUTO 18009KT 9000 HZ FEW095 BKN120 03/00 A3003 RMK AO2,ETOU,2015-02-20T09:40:00Z,50.03,8.32,3.0,0.0,180,9,,5.59,30.029528,,,TRUE,TRUE,,,,,,HZ,FEW,9500,BKN,12000,,,,,VFR,,,,,,,,,,,,SPECI,141.0
EGVA 200940Z AUTO 00000KT 2400 R27/1200 BR BKN001 02/02 A2973 RMK AO2 VIS 1200V2400 BKN V OVC $,EGVA,2015-02-20T09:40:00Z,51.67,-1.77,2.0,2.0,0,0,,1.49,29.731298,,,TRUE,TRUE,TRUE,,,,,BR,BKN,100,,,,,,,LIFR,,,,,,,,,,,,METAR,87.0
EHEH 200938Z AUTO 20012KT 9999 FEW009 OVC010 06/04 Q1010 GRN 20012KT 9000 FEW010 BKN012 OVC015 TEMPO 5000 DZRA BR BKN007 OVC010,EHEH,2015-02-20T09:38:00Z,51.45,5.38,6.0,4.0,200,12,,6.21,29.822834,,,TRUE,,,,,,,,FEW,900,OVC,1000,FEW,1000,BKN,1200,MVFR,,,1.2,,,,,,,,,METAR,22.0
EHWO 200937Z AUTO 21010KT 2500 R25/P3000 BR BKN007 OVC008 06/05 Q1009 YLO 20011KT 9999 SCT010 OVC011 TEMPO 4000 RADZ SCT006 OVC009,EHWO,2015-02-20T09:37:00Z,51.45,4.32,6.0,5.0,210,10,,6.21,29.793306,,,TRUE,,,,,,,BR,BKN,700,OVC,800,SCT,1000,OVC,1100,IFR,,,1.1,,,,,,,,,METAR,17.0
EHGR 200937Z AUTO 20013KT 9000 BR BKN008 OVC009 06/05 Q1009 GRN 21015KT 4500 RADZ FEW006 SCT008 BKN010 TEMPO 9999 SCT010 BKN012,EHGR,2015-02-20T09:37:00Z,51.57,4.92,6.0,5.0,200,13,,5.59,29.793306,,,TRUE,,,,,,,BR RA DZ,BKN,800,OVC,900,FEW,600,SCT,800,IFR,,,-1.5,,,,,,,,,METAR,13.0
EGVA 200936Z AUTO 00000KT 2000 R27/1000 BR OVC001 02/02 A2973 RMK AO2 VIS 1200V2000 $,EGVA,2015-02-20T09:36:00Z,51.67,-1.77,2.0,2.0,0,0,,1.24,29.731298,,,TRUE,TRUE,TRUE,,,,,BR,OVC,100,,,,,,,LIFR,,,,,,,,,,,,METAR,87.0
EGVA 200935Z AUTO 24001KT 1600 R27/1000 BR VV001 02/02 A2973 RMK AO2 $,EGVA,2015-02-20T09:35:00Z,51.67,-1.77,2.0,2.0,240,1,,0.99,29.731298,,,TRUE,TRUE,TRUE,,,,,BR,OVX,0,,,,,,,LIFR,,,,,,,,,,,100,METAR,87.0
LFMC 200934Z VRB01KT 1000 BR BKN002 03/03 Q1025,LFMC,2015-02-20T09:34:00Z,43.37,6.37,3.0,3.0,0,1,,0.62,30.265747,,,,,,,,,,BR,BKN,200,,,,,,,LIFR,,,,,,,,,,,,METAR,78.0
EBFN 200933Z 20010KT 3100 RADZ FEW003 BKN005 BKN007 06/06 Q1009 YLO YLO TEMPO GRN,EBFN,2015-02-20T09:33:00Z,51.07,2.63,6.0,6.0,200,10,,1.93,29.793306,,,,,,,,,,RA DZ,FEW,300,BKN,500,BKN,700,,,IFR,,,,,,,,,,,,SPECI,9.0
EHWO 200932Z AUTO 21010KT 2700 R25/P3000 BR BKN007 OVC008 06/05 Q1009 YLO 20011KT 9999 SCT010 OVC011 TEMPO 4000 RADZ SCT006 OVC009,EHWO,2015-02-20T09:32:00Z,51.45,4.32,6.0,5.0,210,10,,6.21,29.793306,,,TRUE,,,,,,,BR,BKN,700,OVC,800,SCT,1000,OVC,1100,IFR,,,1.1,,,,,,,,,METAR,17.0
LFQG 200930Z AUTO 17010KT 9999 NSC 08/02 Q1017,LFQG,2015-02-20T09:30:00Z,47.0,3.1,8.0,2.0,170,10,,6.21,30.029528,,,TRUE,,,,,,,,,,,,,,,,,,,,,,,,,,,,METAR,181.0
LFLW 200930Z AUTO 12009KT 9999 NSC 06/M06 Q1020,LFLW,2015-02-20T09:30:00Z,44.88,2.42,6.0,-6.0,120,9,,6.21,30.11811,,,TRUE,,,,,,,,,,,,,,,,,,,,,,,,,,,,METAR,639.0
LESU 200930Z VRB01KT CAVOK 02/M03 Q1023,LESU,2015-02-20T09:30:00Z,42.33,1.4,2.0,-3.0,0,1,,6.21,30.206694,,,,,,,,,,,CAVOK,,,,,,,,VFR,,,,,,,,,,,,METAR,800.0
LEXJ 200930Z VRB01KT 9999 FEW030 BKN064 11/07 Q1020,LEXJ,2015-02-20T09:30:00Z,43.42,-3.82,11.0,7.0,0,1,,6.21,30.11811,,,,,,,,,,,FEW,3000,BKN,6400,,,,,VFR,,,,,,,,,,,,METAR,6.0
LEPP 200930Z 00000KT 8000 NSC 05/02 Q1023,LEPP,2015-02-20T09:30:00Z,42.77,-1.65,5.0,2.0,0,0,,4.97,30.206694,,,,,,,,,,,,,,,,,,,,,,,,,,,,,,,SPECI,459.0
LELL 200930Z 00000KT 6000 FEW015 08/05 Q1025,LELL,2015-02-20T09:30:00Z,41.52,2.1,8.0,5.0,0,0,,3.73,30.265747,,,,,,,,,,,FEW,1500,,,,,,,MVFR,,,,,,,,,,,,METAR,250.0
LEDA 200930Z VRB02KT 8000 NSC 07/03 Q1024 NOSIG,LEDA,2015-02-20T09:30:00Z,41.73,0.53,7.0,3.0,0,2,,4.97,30.236221,,,,,,TRUE,,,,,,,,,,,,,,,,,,,,,,,,,METAR,350.0
EGVA 200930Z AUTO 18001KT 1200 R27/0750 BR VV001 02/02 A2973 RMK AO2 $,EGVA,2015-02-20T09:30:00Z,51.67,-1.77,2.0,2.0,180,1,,0.75,29.731298,,,TRUE,TRUE,TRUE,,,,,BR,OVX,0,,,,,,,LIFR,,,,,,,,,,,100,SPECI,87.0
LEVD 200930Z 20004KT 9000 NSC 03/01 Q1022,LEVD,2015-02-20T09:30:00Z,41.72,-4.83,3.0,1.0,200,4,,5.59,30.177166,,,,,,,,,,,,,,,,,,,,,,,,,,,,,,,SPECI,854.0
LEVT 200930Z 22007KT CAVOK 05/03 Q1022,LEVT,2015-02-20T09:30:00Z,42.87,-2.72,5.0,3.0,220,7,,6.21,30.177166,,,,,,,,,,,CAVOK,,,,,,,,VFR,,,,,,,,,,,,METAR,509.0
LESO 200930Z 22008KT 200V260 CAVOK 14/M00 Q1020,LESO,2015-02-20T09:30:00Z,43.35,-1.8,14.0,0.0,220,8,,6.21,30.11811,,,,,,,,,,,CAVOK,,,,,,,,VFR,,,,,,,,,,,,METAR,8.0
LEZG 200930Z 11008KT CAVOK 05/01 Q1024,LEZG,2015-02-20T09:30:00Z,41.67,-1.02,5.0,1.0,110,8,,6.21,30.236221,,,,,,,,,,,CAVOK,,,,,,,,VFR,,,,,,,,,,,,METAR,258.0
LEGE 200930Z VRB01KT 3500 BR NSC 06/04 Q1024,LEGE,2015-02-20T09:30:00Z,41.88,2.77,6.0,4.0,0,1,,2.17,30.236221,,,,,,,,,,BR,,,,,,,,,,,,,,,,,,,,,SPECI,129.0
LEBB 200930Z VRB01KT CAVOK 12/04 Q1021 NOSIG,LEBB,2015-02-20T09:30:00Z,43.28,-2.92,12.0,4.0,0,1,,6.21,30.147638,,,,,,TRUE,,,,,CAVOK,,,,,,,,VFR,,,,,,,,,,,,METAR,34.0
LEAS 200930Z 22014KT 8000 FEW040 BKN055 09/05 Q1019 RERA TEMPO 4000 RA,LEAS,2015-02-20T09:30:00Z,43.53,-6.02,9.0,5.0,220,14,,4.97,30.088583,,,,,,,,,,,FEW,4000,BKN,5500,,,,,MVFR,,,,,,,,,,,,SPECI,134.0
LFSN 200930Z AUTO 19006KT 140V230 9999 NSC 07/02 Q1017,LFSN,2015-02-20T09:30:00Z,48.67,6.22,7.0,2.0,190,6,,6.21,30.029528,,,TRUE,,,,,,,,,,,,,,,,,,,,,,,,,,,,SPECI,217.0
LFQB 200930Z AUTO 19013KT 9999 NSC 08/03 Q1016,LFQB,2015-02-20T09:30:00Z,48.32,4.02,8.0,3.0,190,13,,6.21,30.0,,,TRUE,,,,,,,,,,,,,,,,,,,,,,,,,,,,SPECI,118.0
LFQA 200930Z AUTO 19005KT 150V230 9999 -RADZ BKN029 BKN037 OVC088 06/03 Q1015,LFQA,2015-02-20T09:30:00Z,49.2,4.15,6.0,3.0,190,5,,6.21,29.970472,,,TRUE,,,,,,,-RA -DZ,BKN,2900,BKN,3700,OVC,8800,,,MVFR,,,,,,,,,,,,METAR,95.0
LFPB 200930Z AUTO 21013KT 9999 -RA OVC012/// ///TCU 07/05 Q1013,LFPB,2015-02-20T09:30:00Z,48.97,2.45,7.0,5.0,210,13,,6.21,29.911417,,,TRUE,,,,,,,-RA,,,,,,,,,,,,,,,,,,,,,SPECI,65.0
LFOP 200930Z AUTO 20014KT 5000 -RA BR OVC006/// ///TCU 06/06 Q1010,LFOP,2015-02-20T09:30:00Z,49.37,1.17,6.0,6.0,200,14,,3.11,29.822834,,,TRUE,,,,,,,-RA BR,,,,,,,,,,,,,,,,,,,,,SPECI,157.0
LFOK 200930Z AUTO 19015KT 9999 -RA OVC043 06/04 Q1015,LFOK,2015-02-20T09:30:00Z,48.78,4.18,6.0,4.0,190,15,,6.21,29.970472,,,TRUE,,,,,,,-RA,OVC,4300,,,,,,,VFR,,,,,,,,,,,,METAR,162.0
LFOH 200930Z AUTO 19014KT 9999 -RA SCT007/// SCT014/// BKN025/// ///TCU 07/06 Q1008,LFOH,2015-02-20T09:30:00Z,49.52,0.07,7.0,6.0,190,14,,6.21,29.763779,,,TRUE,,,,,,,-RA,,,,,,,,,,,,,,,,,,,,,SPECI,103.0
LFOB 200930Z AUTO 20012KT 9000 -RA OVC008/// ///TCU 06/05 Q1011,LFOB,2015-02-20T09:30:00Z,49.47,2.12,6.0,5.0,200,12,,5.59,29.852362,,,TRUE,,,,,,,-RA,,,,,,,,,,,,,,,,,,,,,SPECI,111.0
LFMU 200930Z AUTO 04007KT 9999 SCT036 09/05 Q1024,LFMU,2015-02-20T09:30:00Z,43.32,3.35,9.0,5.0,40,7,,6.21,30.236221,,,TRUE,,,,,,,,SCT,3600,,,,,,,VFR,,,,,,,,,,,,METAR,17.0
LFMT 200930Z 02006KT 9999 SCT043 07/03 Q1025 NOSIG,LFMT,2015-02-20T09:30:00Z,43.57,3.97,7.0,3.0,20,6,,6.21,30.265747,,,,,,TRUE,,,,,SCT,4300,,,,,,,VFR,,,,,,,,,,,,METAR,6.0
LFLY 200930Z AUTO 19013KT 9999 NSC 09/M01 Q1022,LFLY,2015-02-20T09:30:00Z,45.72,4.95,9.0,-1.0,190,13,,6.21,30.177166,,,TRUE,,,,,,,,,,,,,,,,,,,,,,,,,,,,SPECI,201.0
LFLU 200930Z AUTO 19015KT 9999 NSC 08/02 Q1023,LFLU,2015-02-20T09:30:00Z,44.92,4.98,8.0,2.0,190,15,,6.21,30.206694,,,TRUE,,,,,,,,,,,,,,,,,,,,,,,,,,,,METAR,160.0
LFLS 200930Z AUTO 27004KT 190V340 9999 NSC 08/00 Q1023,LFLS,2015-02-20T09:30:00Z,45.37,5.32,8.0,0.0,270,4,,6.21,30.206694,,,TRUE,,,,,,,,,,,,,,,,,,,,,,,,,,,,SPECI,386.0
LFLP 200930Z AUTO VRB01KT 9999 NSC 06/M03 Q1022,LFLP,2015-02-20T09:30:00Z,45.92,6.08,6.0,-3.0,0,1,,6.21,30.177166,,,TRUE,,,,,,,,,,,,,,,,,,,,,,,,,,,,METAR,463.0
LFJL 200930Z AUTO 21016KT 9999 NSC 08/02 Q1016,LFJL,2015-02-20T09:30:00Z,48.97,6.25,8.0,2.0,210,16,,6.21,30.0,,,TRUE,,,,,,,,,,,,,,,,,,,,,,,,,,,,SPECI,264.0
LFCR 200930Z AUTO 13009KT 100V160 9999 NSC 06/00 Q1021,LFCR,2015-02-20T09:30:00Z,44.38,2.47,6.0,0.0,130,9,,6.21,30.147638,,,TRUE,,,,,,,,,,,,,,,,,,,,,,,,,,,,SPECI,580.0
LFRU 200930Z AUTO 22010KT 180V250 9999 -RADZ BKN011 BKN017 BKN038 10/09 Q1006,LFRU,2015-02-20T09:30:00Z,48.6,-3.82,10.0,9.0,220,10,,6.21,29.704725,,,TRUE,,,,,,,-RA -DZ,BKN,1100,BKN,1700,BKN,3800,,,MVFR,,,,,,,,,,,,METAR,86.0
LFRK 200930Z AUTO 21012KT 9999 -RA FEW017 SCT031 BKN037 09/07 Q1008,LFRK,2015-02-20T09:30:00Z,49.17,-0.45,9.0,7.0,210,12,,6.21,29.763779,,,TRUE,,,,,,,-RA,FEW,1700,SCT,3100,BKN,3700,,,VFR,,,,,,,,,,,,METAR,67.0
LFRG 200930Z AUTO 22011KT 9999 -RA OVC006/// ///TCU 07/07 Q1009,LFRG,2015-02-20T09:30:00Z,49.37,0.15,7.0,7.0,220,11,,6.21,29.793306,,,TRUE,,,,,,,-RA,,,,,,,,,,,,,,,,,,,,,METAR,146.0
LFRC 200930Z AUTO 20017KT 7000 -RA OVC007 08/07 Q1006,LFRC,2015-02-20T09:30:00Z,49.63,-1.47,8.0,7.0,200,17,,4.35,29.704725,,,TRUE,,,,,,,-RA,OVC,700,,,,,,,IFR,,,,,,,,,,,,METAR,138.0
LFPN 200930Z AUTO 20016KT 6000 -RA OVC008 06/04 Q1013,LFPN,2015-02-20T09:30:00Z,48.75,2.12,6.0,4.0,200,16,,3.73,29.911417,,,TRUE,,,,,,,-RA,OVC,800,,,,,,,IFR,,,,,,,,,,,,METAR,164.0
LFOT 200930Z AUTO 18014KT 9000 -RA FEW016 BKN036 OVC042 07/05 Q1015,LFOT,2015-02-20T09:30:00Z,47.43,0.72,7.0,5.0,180,14,,5.59,29.970472,,,TRUE,,,,,,,-RA,FEW,1600,BKN,3600,OVC,4200,,,VFR,,,,,,,,,,,,METAR,108.0
LFMH 200930Z 19007KT 150V210 CAVOK 09/M07 Q1021 NOSIG,LFMH,2015-02-20T09:30:00Z,45.52,4.28,9.0,-7.0,190,7,,6.21,30.147638,,,,,,TRUE,,,,,CAVOK,,,,,,,,VFR,,,,,,,,,,,,METAR,402.0
LFMD 200930Z AUTO VRB02KT 9999 NSC 11/05 Q1025,LFMD,2015-02-20T09:30:00Z,43.53,6.95,11.0,5.0,0,2,,6.21,30.265747,,,TRUE,,,,,,,,,,,,,,,,,,,,,,,,,,,,METAR,9.0
LFJR 200930Z AUTO 20016G27KT 9999 -RA OVC013 09/07 Q1013,LFJR,2015-02-20T09:30:00Z,47.57,-0.3,9.0,7.0,200,16,27,6.21,29.911417,,,TRUE,,,,,,,-RA,OVC,1300,,,,,,,MVFR,,,,,,,,,,,,METAR,60.0
LFGJ 200930Z AUTO 19015KT 9999 NSC 08/01 Q1020,LFGJ,2015-02-20T09:30:00Z,47.05,5.43,8.0,1.0,190,15,,6.21,30.11811,,,TRUE,,,,,,,,,,,,,,,,,,,,,,,,,,,,METAR,196.0
LFBE 200930Z AUTO 12004KT 060V160 9999 NSC 08/04 Q1020,LFBE,2015-02-20T09:30:00Z,44.82,0.52,8.0,4.0,120,4,,6.21,30.11811,,,TRUE,,,,,,,,,,,,,,,,,,,,,,,,,,,,METAR,52.0
LFBA 200930Z AUTO 10009KT 0650 R29/0900U FG VV/// 03/03 Q1021,LFBA,2015-02-20T09:30:00Z,44.17,0.6,3.0,3.0,100,9,,0.4,30.147638,,,TRUE,,,,,,,FG,OVX,0,,,,,,,LIFR,,,,,,,,,,,,METAR,60.0
LFSL 200930Z AUTO 16010KT 9999 NSC 07/M02 Q1020,LFSL,2015-02-20T09:30:00Z,45.03,1.48,7.0,-2.0,160,10,,6.21,30.11811,,,TRUE,,,,,,,,,,,,,,,,,,,,,,,,,,,,SPECI,310.0
LFMV 200930Z AUTO 01004KT 340V100 9999 FEW035 BKN046 08/02 Q1025,LFMV,2015-02-20T09:30:00Z,43.9,4.9,8.0,2.0,10,4,,6.21,30.265747,,,TRUE,,,,,,,,FEW,3500,BKN,4600,,,,,VFR,,,,,,,,,,,,METAR,38.0
LFMP 200930Z AUTO VRB02KT 9999 SCT010 07/05 Q1023,LFMP,2015-02-20T09:30:00Z,42.72,2.87,7.0,5.0,0,2,,6.21,30.206694,,,TRUE,,,,,,,,SCT,1000,,,,,,,VFR,,,,,,,,,,,,METAR,48.0
LFLC 200930Z 18016KT CAVOK 08/M03 Q1019 NOSIG,LFLC,2015-02-20T09:30:00Z,45.77,3.17,8.0,-3.0,180,16,,6.21,30.088583,,,,,,TRUE,,,,,CAVOK,,,,,,,,VFR,,,,,,,,,,,,METAR,330.0
LFKJ 200930Z VRB02KT 9999 FEW053 12/04 Q1025 NOSIG,LFKJ,2015-02-20T09:30:00Z,41.92,8.8,12.0,4.0,0,2,,6.21,30.265747,,,,,,TRUE,,,,,FEW,5300,,,,,,,VFR,,,,,,,,,,,,METAR,9.0
LFKF 200930Z AUTO 20004KT 140V250 9999 NCD 13/08 Q1025,LFKF,2015-02-20T09:30:00Z,41.5,9.08,13.0,8.0,200,4,,6.21,30.265747,,,TRUE,,,,,,,,,,,,,,,,,,,,,,,,,,,,SPECI,23.0
LFKC 200930Z 01003KT 330V050 9999 FEW030 12/02 Q1025 NOSIG,LFKC,2015-02-20T09:30:00Z,42.52,8.8,12.0,2.0,10,3,,6.21,30.265747,,,,,,TRUE,,,,,FEW,3000,,,,,,,VFR,,,,,,,,,,,,METAR,58.0
LFKB 200930Z 22003KT 180V250 9999 FEW030 12/03 Q1025 NOSIG,LFKB,2015-02-20T09:30:00Z,42.53,9.47,12.0,3.0,220,3,,6.21,30.265747,,,,,,TRUE,,,,,FEW,3000,,,,,,,VFR,,,,,,,,,,,,METAR,12.0
LFTW 200930Z AUTO 05005KT 020V090 9000 BKN041 08/04 Q1024,LFTW,2015-02-20T09:30:00Z,43.75,4.42,8.0,4.0,50,5,,5.59,30.236221,,,TRUE,,,,,,,,BKN,4100,,,,,,,VFR,,,,,,,,,,,,METAR,96.0
LFSD 200930Z AUTO 19013KT 9000 NSC 06/03 Q1019,LFSD,2015-02-20T09:30:00Z,47.27,5.07,6.0,3.0,190,13,,5.59,30.088583,,,TRUE,,,,,,,,,,,,,,,,,,,,,,,,,,,,METAR,227.0
LFRT 200930Z AUTO 22009KT 160V270 9999 FEW007 OVC014 09/09 Q1007,LFRT,2015-02-20T09:30:00Z,48.52,-2.85,9.0,9.0,220,9,,6.21,29.734253,,,TRUE,,,,,,,,FEW,700,OVC,1400,,,,,MVFR,,,,,,,,,,,,METAR,136.0
LFRQ 200930Z AUTO 21014KT 4200 -RA BR OVC007 10/10 Q1007,LFRQ,2015-02-20T09:30:00Z,47.97,-4.17,10.0,10.0,210,14,,2.61,29.734253,,,TRUE,,,,,,,-RA BR,OVC,700,,,,,,,IFR,,,,,,,,,,,,METAR,94.0
LFRH 200930Z AUTO 22018KT 4900 DZ BR BKN005 OVC011 10/09 Q1008,LFRH,2015-02-20T09:30:00Z,47.77,-3.45,10.0,9.0,220,18,,3.04,29.763779,,,TRUE,,,,,,,DZ BR,BKN,500,OVC,1100,,,,,IFR,,,,,,,,,,,,METAR,44.0
LFPT 200930Z AUTO 20015KT 7000 -RA OVC008/// ///TCU 06/05 Q1012,LFPT,2015-02-20T09:30:00Z,49.1,2.03,6.0,5.0,200,15,,4.35,29.88189,,,TRUE,,,,,,,-RA,,,,,,,,,,,,,,,,,,,,,METAR,99.0
LFPM 200930Z AUTO 19013KT 9999 -RA OVC027 06/04 Q1014,LFPM,2015-02-20T09:30:00Z,48.62,2.67,6.0,4.0,190,13,,6.21,29.940945,,,TRUE,,,,,,,-RA,OVC,2700,,,,,,,MVFR,,,,,,,,,,,,METAR,92.0
LFLN 200930Z AUTO 16004KT 110V200 9999 NSC 06/02 Q1019,LFLN,2015-02-20T09:30:00Z,46.42,4.02,6.0,2.0,160,4,,6.21,30.088583,,,TRUE,,,,,,,,,,,,,,,,,,,,,,,,,,,,METAR,244.0
LFGA 200930Z AUTO 14006KT 110V180 9999 NSC 07/00 Q1019,LFGA,2015-02-20T09:30:00Z,48.1,7.35,7.0,0.0,140,6,,6.21,30.088583,,,TRUE,,,,,,,,,,,,,,,,,,,,,,,,,,,,METAR,191.0
LFBU 200930Z AUTO 17010KT 9999 NSC 07/04 Q1018,LFBU,2015-02-20T09:30:00Z,45.72,0.22,7.0,4.0,170,10,,6.21,30.059055,,,TRUE,,,,,,,,,,,,,,,,,,,,,,,,,,,,METAR,133.0
LFAT 200930Z AUTO 18009KT 150V210 5000 -DZ BR FEW008/// OVC015/// ///TCU 07/06 Q1008,LFAT,2015-02-20T09:30:00Z,50.52,1.62,7.0,6.0,180,9,,3.11,29.763779,,,TRUE,,,,,,,-DZ BR,,,,,,,,,,,,,,,,,,,,,METAR,14.0
LFAQ 200930Z AUTO 18013KT 9000 OVC008 06/04 Q1011,LFAQ,2015-02-20T09:30:00Z,49.97,2.7,6.0,4.0,180,13,,5.59,29.852362,,,TRUE,,,,,,,,OVC,800,,,,,,,IFR,,,,,,,,,,,,METAR,111.0
LFTH 200930Z AUTO 00000KT 9999 NSC 11/06 Q1025,LFTH,2015-02-20T09:30:00Z,43.1,6.15,11.0,6.0,0,0,,6.21,30.265747,,,TRUE,,,,,,,,,,,,,,,,,,,,,,,,,,,,SPECI,4.0
LFST 200930Z AUTO 17009KT 150V220 9999 NSC 06/01 Q1018,LFST,2015-02-20T09:30:00Z,48.53,7.62,6.0,1.0,170,9,,6.21,30.059055,,,TRUE,,,,,,,,,,,,,,,,,,,,,,,,,,,,SPECI,154.0
LFSG 200930Z AUTO 19012KT 9999 NSC 04/01 Q1018,LFSG,2015-02-20T09:30:00Z,48.33,6.07,4.0,1.0,190,12,,6.21,30.059055,,,TRUE,,,,,,,,,,,,,,,,,,,,,,,,,,,,METAR,330.0
LFSB 200930Z 16007KT 130V190 9000 NSC 06/01 Q1020 NOSIG,LFSB,2015-02-20T09:30:00Z,47.6,7.52,6.0,1.0,160,7,,5.59,30.11811,,,,,,TRUE,,,,,,,,,,,,,,,,,,,,,,,,,SPECI,271.0
LFRZ 200930Z AUTO 21017KT 8000 RA BKN006 BKN010 OVC015 10/09 Q1011,LFRZ,2015-02-20T09:30:00Z,47.32,-2.17,10.0,9.0,210,17,,4.97,29.852362,,,TRUE,,,,,,,RA,BKN,600,BKN,1000,OVC,1500,,,IFR,,,,,,,,,,,,METAR,4.0
LFRV 200930Z AUTO 21012KT 180V240 4300 -RA BR OVC002 09/09 Q1009,LFRV,2015-02-20T09:30:00Z,47.72,-2.72,9.0,9.0,210,12,,2.67,29.793306,,,TRUE,,,,,,,-RA BR,OVC,200,,,,,,,LIFR,,,,,,,,,,,,METAR,133.0
LFRO 200930Z AUTO 21010KT 180V240 9999 BKN012 OVC056 10/09 Q1006,LFRO,2015-02-20T09:30:00Z,48.75,-3.47,10.0,9.0,210,10,,6.21,29.704725,,,TRUE,,,,,,,,BKN,1200,OVC,5600,,,,,MVFR,,,,,,,,,,,,METAR,89.0
LFRN 200930Z AUTO 19011KT 9999 -RA BKN009 BKN014 OVC037 09/08 Q1010,LFRN,2015-02-20T09:30:00Z,48.07,-1.72,9.0,8.0,190,11,,6.21,29.822834,,,TRUE,,,,,,,-RA,BKN,900,BKN,1400,OVC,3700,,,IFR,,,,,,,,,,,,METAR,37.0
LFRM 200930Z AUTO 19010KT 160V220 7000 -RA OVC008 08/06 Q1013,LFRM,2015-02-20T09:30:00Z,47.95,0.2,8.0,6.0,190,10,,4.35,29.911417,,,TRUE,,,,,,,-RA,OVC,800,,,,,,,IFR,,,,,,,,,,,,METAR,52.0
LFRI 200930Z AUTO 20017G27KT 9999 -RA BKN013 BKN018 OVC035 08/07 Q1014,LFRI,2015-02-20T09:30:00Z,46.7,-1.37,8.0,7.0,200,17,27,6.21,29.940945,,,TRUE,,,,,,,-RA,BKN,1300,BKN,1800,OVC,3500,,,MVFR,,,,,,,,,,,,METAR,91.0
LFRD 200930Z AUTO 18014KT 9999 -RA BKN010 BKN041 BKN048 09/08 Q1008,LFRD,2015-02-20T09:30:00Z,48.58,-2.07,9.0,8.0,180,14,,6.21,29.763779,,,TRUE,,,,,,,-RA,BKN,1000,BKN,4100,BKN,4800,,,MVFR,,,,,,,,,,,,METAR,59.0
LFOV 200930Z AUTO 18009KT 150V210 9999 -RA BKN005 OVC044 08/08 Q1011,LFOV,2015-02-20T09:30:00Z,48.03,-0.75,8.0,8.0,180,9,,6.21,29.852362,,,TRUE,,,,,,,-RA,BKN,500,OVC,4400,,,,,IFR,,,,,,,,,,,,METAR,101.0
LFMK 200930Z AUTO 10013KT 070V130 9999 OVC016 08/04 Q1023,LFMK,2015-02-20T09:30:00Z,43.22,2.32,8.0,4.0,100,13,,6.21,30.206694,,,TRUE,,,,,,,,OVC,1600,,,,,,,MVFR,,,,,,,,,,,,METAR,130.0
LFMI 200930Z AUTO 08007KT 9999 SCT037 09/04 Q1025,LFMI,2015-02-20T09:30:00Z,43.52,4.92,9.0,4.0,80,7,,6.21,30.265747,,,TRUE,,,,,,,,SCT,3700,,,,,,,VFR,,,,,,,,,,,,METAR,24.0
LFML 200930Z 00000KT 9999 BKN040 07/04 Q1025 NOSIG,LFML,2015-02-20T09:30:00Z,43.45,5.22,7.0,4.0,0,0,,6.21,30.265747,,,,,,TRUE,,,,,BKN,4000,,,,,,,VFR,,,,,,,,,,,,METAR,36.0
LFLX 200930Z 21012KT CAVOK 08/02 Q1017 NOSIG,LFLX,2015-02-20T09:30:00Z,46.85,1.72,8.0,2.0,210,12,,6.21,30.029528,,,,,,TRUE,,,,,CAVOK,,,,,,,,VFR,,,,,,,,,,,,METAR,157.0
LFLB 200930Z VRB02KT CAVOK 06/M03 Q1023 NOSIG,LFLB,2015-02-20T09:30:00Z,45.63,5.87,6.0,-3.0,0,2,,6.21,30.206694,,,,,,TRUE,,,,,CAVOK,,,,,,,,VFR,,,,,,,,,,,,METAR,239.0
LFCK 200930Z AUTO 11017KT 9999 NSC 10/03 Q1022,LFCK,2015-02-20T09:30:00Z,43.55,2.28,10.0,3.0,110,17,,6.21,30.177166,,,TRUE,,,,,,,,,,,,,,,,,,,,,,,,,,,,METAR,240.0
LFBZ 200930Z AUTO 21007KT 130V280 9999 NSC 13/M00 Q1020,LFBZ,2015-02-20T09:30:00Z,43.47,-1.52,13.0,0.0,210,7,,6.21,30.11811,,,TRUE,,,,,,,,,,,,,,,,,,,,,,,,,,,,SPECI,71.0
LFBT 200930Z AUTO 20005KT 9999 NSC 12/M01 Q1020,LFBT,2015-02-20T09:30:00Z,43.17,0.0,12.0,-1.0,200,5,,6.21,30.11811,,,TRUE,,,,,,,,,,,,,,,,,,,,,,,,,,,,SPECI,363.0
LFBP 200930Z AUTO 14004KT 9999 NSC 11/03 Q1020,LFBP,2015-02-20T09:30:00Z,43.37,-0.42,11.0,3.0,140,4,,6.21,30.11811,,,TRUE,,,,,,,,,,,,,,,,,,,,,,,,,,,,SPECI,185.0
LFBO 200930Z AUTO 14013KT 8000 NSC 09/05 Q1021,LFBO,2015-02-20T09:30:00Z,43.62,1.37,9.0,5.0,140,13,,4.97,30.147638,,,TRUE,,,,,,,,,,,,,,,,,,,,,,,,,,,,SPECI,153.0
LFBL 200930Z AUTO 17011KT 9999 NSC 05/01 Q1018,LFBL,2015-02-20T09:30:00Z,45.87,1.17,5.0,1.0,170,11,,6.21,30.059055,,,TRUE,,,,,,,,,,,,,,,,,,,,,,,,,,,,SPECI,402.0
LFBI 200930Z AUTO 20015KT 9999 FEW019 SCT110 08/04 Q1016,LFBI,2015-02-20T09:30:00Z,46.57,0.32,8.0,4.0,200,15,,6.21,30.0,,,TRUE,,,,,,,,FEW,1900,SCT,11000,,,,,VFR,,,,,,,,,,,,METAR,120.0
LFBH 200930Z AUTO 21014KT 8000 -RA BKN030 OVC039 09/07 Q1016,LFBH,2015-02-20T09:30:00Z,46.18,-1.2,9.0,7.0,210,14,,4.97,30.0,,,TRUE,,,,,,,-RA,BKN,3000,OVC,3900,,,,,MVFR,,,,,,,,,,,,METAR,10.0
LFBD 200930Z AUTO 18008KT 9999 NSC 08/03 Q1019,LFBD,2015-02-20T09:30:00Z,44.82,-0.7,8.0,3.0,180,8,,6.21,30.088583,,,TRUE,,,,,,,,,,,,,,,,,,,,,,,,,,,,SPECI,61.0
LFPV 200930Z AUTO 20012G23KT 160V240 9999 -RADZ OVC009 05/04 Q1013,LFPV,2015-02-20T09:30:00Z,48.77,2.2,5.0,4.0,200,12,23,6.21,29.911417,,,TRUE,,,,,,,-RA -DZ,OVC,900,,,,,,,IFR,,,,,,,,,,,,METAR,179.0
LFPC 200930Z AUTO 20014KT 8000 -RA ////// 06/05 Q1012,LFPC,2015-02-20T09:30:00Z,49.25,2.52,6.0,5.0,200,14,,4.97,29.88189,,,TRUE,,,,,,,-RA,,,,,,,,,,,,,,,,,,,,,METAR,88.0
LFOA 200930Z AUTO 20012KT 9999 NSC 08/02 Q1017,LFOA,2015-02-20T09:30:00Z,47.03,2.63,8.0,2.0,200,12,,6.21,30.029528,,,TRUE,,,,,,,,,,,,,,,,,,,,,,,,,,,,SPECI,179.0
LFMY 200930Z AUTO 05004KT 9999 OVC036 07/03 Q1025,LFMY,2015-02-20T09:30:00Z,43.6,5.08,7.0,3.0,50,4,,6.21,30.265747,,,TRUE,,,,,,,,OVC,3600,,,,,,,VFR,,,,,,,,,,,,METAR,60.0
LFMO 200930Z AUTO VRB01KT 9999 BKN038 BKN046 05/01 Q1025,LFMO,2015-02-20T09:30:00Z,44.12,4.87,5.0,1.0,0,1,,6.21,30.265747,,,TRUE,,,,,,,,BKN,3800,BKN,4600,,,,,VFR,,,,,,,,,,,,METAR,55.0
LFKS 200930Z AUTO VRB03KT 9999 NSC 13/05 Q1025,LFKS,2015-02-20T09:30:00Z,41.92,9.4,13.0,5.0,0,3,,6.21,30.265747,,,TRUE,,,,,,,,,,,,,,,,,,,,,,,,,,,,METAR,22.0
LFBM 200930Z AUTO VRB03KT 9999 NSC 09/04 Q1020,LFBM,2015-02-20T09:30:00Z,43.92,-0.5,9.0,4.0,0,3,,6.21,30.11811,,,TRUE,,,,,,,,,,,,,,,,,,,,,,,,,,,,SPECI,63.0
LFBG 200930Z AUTO 18010KT 9999 NSC 07/05 Q1019,LFBG,2015-02-20T09:30:00Z,45.67,-0.32,7.0,5.0,180,10,,6.21,30.088583,,,TRUE,,,,,,,,,,,,,,,,,,,,,,,,,,,,METAR,31.0
LFBC 200930Z AUTO 20007KT 9999 NSC 08/04 Q1019,LFBC,2015-02-20T09:30:00Z,44.52,-1.12,8.0,4.0,200,7,,6.21,30.088583,,,TRUE,,,,,,,,,,,,,,,,,,,,,,,,,,,,SPECI,33.0
LFRS 200930Z 20015KT 7000 -RA OVC007 09/08 Q1012 NOSIG,LFRS,2015-02-20T09:30:00Z,47.17,-1.6,9.0,8.0,200,15,,4.35,29.88189,,,,,,TRUE,,,,-RA,OVC,700,,,,,,,IFR,,,,,,,,,,,,METAR,27.0
LFRB 200930Z 23012KT 6000 -RA BKN006 BKN023 10/09 Q1006 TEMPO 3000 RADZ,LFRB,2015-02-20T09:30:00Z,48.45,-4.42,10.0,9.0,230,12,,3.73,29.704725,,,,,,,,,,-RA,BKN,600,BKN,2300,,,,,IFR,,,,,,,,,,,,SPECI,103.0
LFQQ 200930Z 19014KT 9999 BKN008 06/05 Q1010 TEMPO 3000 RADZ BKN008,LFQQ,2015-02-20T09:30:00Z,50.57,3.1,6.0,5.0,190,14,,6.21,29.822834,,,,,,,,,,,BKN,800,,,,,,,IFR,,,,,,,,,,,,SPECI,52.0
LFPO 200930Z 21013KT 180V240 8000 -DZ BKN012 06/05 Q1013 NOSIG,LFPO,2015-02-20T09:30:00Z,48.72,2.38,6.0,5.0,210,13,,4.97,29.911417,,,,,,TRUE,,,,-DZ,BKN,1200,,,,,,,MVFR,,,,,,,,,,,,METAR,96.0
LFPG 200930Z 19013KT 7000 -RA BKN006 BKN007 06/05 Q1013 NOSIG,LFPG,2015-02-20T09:30:00Z,49.02,2.52,6.0,5.0,190,13,,4.35,29.911417,,,,,,TRUE,,,,-RA,BKN,600,BKN,700,,,,,IFR,,,,,,,,,,,,METAR,109.0
LFMN 200930Z 32009KT 9999 FEW020 SCT033 10/02 Q1025 NOSIG,LFMN,2015-02-20T09:30:00Z,43.63,7.2,10.0,2.0,320,9,,6.21,30.265747,,,,,,TRUE,,,,,FEW,2000,SCT,3300,,,,,VFR,,,,,,,,,,,,METAR,10.0
LFLL 200930Z 17013KT CAVOK 09/M02 Q1022 NOSIG,LFLL,2015-02-20T09:30:00Z,45.72,5.07,9.0,-2.0,170,13,,6.21,30.177166,,,,,,TRUE,,,,,CAVOK,,,,,,,,VFR,,,,,,,,,,,,METAR,240.0
LFYR 200930Z AUTO 21011KT 9999 NSC 08/03 Q1016,LFYR,2015-02-20T09:30:00Z,47.32,1.67,8.0,3.0,210,11,,6.21,30.0,,,TRUE,,,,,,,,,,,,,,,,,,,,,,,,,,,,METAR,86.0
LFSX 200930Z AUTO 11004KT 9999 NSC 07/01 Q1019,LFSX,2015-02-20T09:30:00Z,47.77,6.33,7.0,1.0,110,4,,6.21,30.088583,,,TRUE,,,,,,,,,,,,,,,,,,,,,,,,,,,,SPECI,273.0
LFSO 200930Z AUTO 20014KT 9999 NSC 07/01 Q1016,LFSO,2015-02-20T09:30:00Z,48.57,5.97,7.0,1.0,200,14,,6.21,30.0,,,TRUE,,,,,,,,,,,,,,,,,,,,,,,,,,,,SPECI,350.0
LFSI 200930Z AUTO 18010KT 9999 SCT043 BKN050 OVC060 08/03 Q1016,LFSI,2015-02-20T09:30:00Z,48.62,4.9,8.0,3.0,180,10,,6.21,30.0,,,TRUE,,,,,,,,SCT,4300,BKN,5000,OVC,6000,,,VFR,,,,,,,,,,,,METAR,140.0
LFRL 200930Z AUTO 22011KT 7000 -DZ BKN004 BKN008 OVC012 10/09 Q1006,LFRL,2015-02-20T09:30:00Z,48.27,-4.42,10.0,9.0,220,11,,4.35,29.704725,,,TRUE,,,,,,,-DZ,BKN,400,BKN,800,OVC,1200,,,LIFR,,,,,,,,,,,,METAR,82.0
LFRJ 200930Z AUTO 22013KT 9000 -DZ BKN009 OVC015 10/10 Q1006,LFRJ,2015-02-20T09:30:00Z,48.52,-4.15,10.0,10.0,220,13,,5.59,29.704725,,,TRUE,,,,,,,-DZ,BKN,900,OVC,1500,,,,,IFR,,,,,,,,,,,,METAR,115.0
LFOE 200930Z AUTO 20016KT 7000 -RA OVC010/// ///TCU 07/06 Q1011,LFOE,2015-02-20T09:30:00Z,49.02,1.22,7.0,6.0,200,16,,4.35,29.852362,,,TRUE,,,,,,,-RA,,,,,,,,,,,,,,,,,,,,,SPECI,146.0
LFOC 200930Z AUTO 20017KT 9999 DZ FEW014 BKN033 OVC047 07/05 Q1014,LFOC,2015-02-20T09:30:00Z,48.03,1.37,7.0,5.0,200,17,,6.21,29.940945,,,TRUE,,,,,,,DZ,FEW,1400,BKN,3300,OVC,4700,,,VFR,,,,,,,,,,,,METAR,127.0
LFOJ 200930Z AUTO 20015KT 9999 -RA OVC043 07/04 Q1014,LFOJ,2015-02-20T09:30:00Z,47.97,1.75,7.0,4.0,200,15,,6.21,29.940945,,,TRUE,,,,,,,-RA,OVC,4300,,,,,,,VFR,,,,,,,,,,,,METAR,125.0
EGUB 200927Z 19001KT 7000 BR FEW004 BKN200 05/04 Q1007 WHT BECMG 9999 NSW BLU,EGUB,2015-02-20T09:27:00Z,51.62,-1.07,5.0,4.0,190,1,,4.35,29.734253,,,,,,,,,,BR,FEW,400,BKN,20000,,,,,MVFR,,,,,,,,,,,,METAR,63.0
EGVA 200926Z AUTO 13001KT 1200 R27/0600 BR VV001 02/02 A2974 RMK AO2,EGVA,2015-02-20T09:26:00Z,51.67,-1.77,2.0,2.0,130,1,,0.75,29.740158,,,TRUE,TRUE,,,,,,BR,OVX,0,,,,,,,LIFR,,,,,,,,,,,100,METAR,87.0
ETAD 200925Z 21019G24KT 9999 BKN015 BKN026 05/02 A2996 RMK AO2A,ETAD,2015-02-20T09:25:00Z,49.98,6.7,5.0,2.0,210,19,24,6.21,29.958662,,,,TRUE,,,,,,,BKN,1500,BKN,2600,,,,,MVFR,,,,,,,,,,,,METAR,365.0
EHBK 200925Z AUTO 21016KT 9999 OVC016 06/03 Q1012 NOSIG,EHBK,2015-02-20T09:25:00Z,50.92,5.77,6.0,3.0,210,16,,6.21,29.88189,,,TRUE,,,TRUE,,,,,OVC,1600,,,,,,,MVFR,,,,,,,,,,,,METAR,116.0
EHWO 200925Z AUTO 21010KT 6000 BR BKN007 OVC009 06/05 Q1009 REDZ GRN 20011KT 9999 SCT010 OVC011 TEMPO 4000 RADZ SCT006 OVC009,EHWO,2015-02-20T09:25:00Z,51.45,4.32,6.0,5.0,210,10,,6.21,29.793306,,,TRUE,,,,,,,BR,BKN,700,OVC,900,SCT,1000,OVC,1100,IFR,,,1.1,,,,,,,,,METAR,17.0
EHVK 200925Z AUTO 20014KT 4600 DZ BKN010 OVC012 06/04 Q1010 GRN 20015KT 9000 -RADZ SCT010 OVC015 TEMPO 3000 DZRA SCT007 OVC010,EHVK,2015-02-20T09:25:00Z,51.63,5.7,6.0,4.0,200,14,,2.86,29.822834,,,TRUE,,,,,,,DZ -RA DZ,BKN,1000,OVC,1200,SCT,1000,OVC,1500,IFR,,,1.5,,,,,,,,,METAR,21.0
EHGR 200925Z AUTO 20012KT 8000 BR FEW006 BKN008 OVC009 06/05 Q1010 GRN 21015KT 4500 RADZ FEW006 SCT008 BKN010,EHGR,2015-02-20T09:25:00Z,51.57,4.92,6.0,5.0,200,12,,4.97,29.822834,,,TRUE,,,,,,,BR RA DZ,FEW,600,BKN,800,OVC,900,FEW,600,IFR,,,-1.5,,,,,,,,,METAR,13.0
EHEH 200925Z AUTO 20011KT 9999 FEW007 SCT009 OVC010 05/04 Q1010 GRN 20012KT 9000 FEW010 BKN012 OVC015 TEMPO 5000 DZRA BR BKN007 OVC010,EHEH,2015-02-20T09:25:00Z,51.45,5.38,5.0,4.0,200,11,,6.21,29.822834,,,TRUE,,,,,,,,FEW,700,SCT,900,OVC,1000,FEW,1000,MVFR,,,1.2,,,,,,,,,METAR,22.0
EHFS 200925Z AUTO 20018KT 3700 BR FEW004/// SCT005/// BKN007/// 06/05 Q1009,EHFS,2015-02-20T09:25:00Z,51.45,3.6,6.0,5.0,200,18,,2.3,29.793306,,,TRUE,,,,,,,BR,,,,,,,,,,,,,,,,,,,,,METAR,32.0
EBLB 200925Z AUTO 22010KT 9999 SCT006/// BKN008/// 02/01 Q1012 YLO,EBLB,2015-02-20T09:25:00Z,50.47,6.17,2.0,1.0,220,10,,6.21,29.88189,,,TRUE,,,,,,,,,,,,,,,,,,,,,,,,,,,,METAR,570.0
EBFS 200925Z 20015KT 6000 -RA FEW006 BKN008 04/03 Q1012 GRN GRN TEMPO YLO,EBFS,2015-02-20T09:25:00Z,50.22,4.65,4.0,3.0,200,15,,3.73,29.88189,,,,,,,,,,-RA,FEW,600,BKN,800,,,,,IFR,,,,,,,,,,,,METAR,299.0
EBFN 200925Z 20010KT 3500 RADZ FEW003 BKN007 BKN008 06/06 Q1009 YLO GRN TEMPO YLO,EBFN,2015-02-20T09:25:00Z,51.07,2.63,6.0,6.0,200,10,,2.17,29.793306,,,,,,,,,,RA DZ,FEW,300,BKN,700,BKN,800,,,IFR,,,,,,,,,,,,METAR,9.0
EBDT 200925Z 20012KT 9999 SCT012 BKN015 BKN018 06/03 Q1011 BLACKGRN GRN,EBDT,2015-02-20T09:25:00Z,51.02,5.07,6.0,3.0,200,12,,6.21,29.852362,,,,,,,,,,,SCT,1200,BKN,1500,BKN,1800,,,MVFR,,,,,,,,,,,,METAR,54.0
EBCV 200925Z AUTO 20016KT 9999 OVC011/// 06/04 Q1011 GRN,EBCV,2015-02-20T09:25:00Z,50.57,3.82,6.0,4.0,200,16,,6.21,29.852362,,,TRUE,,,,,,,,,,,,,,,,,,,,,,,,,,,,METAR,63.0
EBBL 200925Z 21008KT 9000 -RA FEW012 BKN014 OVC018 05/04 Q1011 GRN GRN,EBBL,2015-02-20T09:25:00Z,51.17,5.47,5.0,4.0,210,8,,5.59,29.852362,,,,,,,,,,-RA,FEW,1200,BKN,1400,OVC,1800,,,MVFR,,,,,,,,,,,,METAR,64.0
EBBE 200925Z 20017KT 4000 -DZ FEW009 SCT011 BKN015 05/04 Q1011 GRN GRN TEMPO YLO,EBBE,2015-02-20T09:25:00Z,50.75,4.77,5.0,4.0,200,17,,2.49,29.852362,,,,,,,,,,-DZ,FEW,900,SCT,1100,BKN,1500,,,IFR,,,,,,,,,,,,METAR,127.0
EBBE 200922Z 20015KT 4000 -DZ FEW009 SCT011 BKN015 05/03 Q1011 GRN GRN TEMPO YLO,EBBE,2015-02-20T09:22:00Z,50.75,4.77,5.0,3.0,200,15,,2.49,29.852362,,,,,,,,,,-DZ,FEW,900,SCT,1100,BKN,1500,,,IFR,,,,,,,,,,,,SPECI,127.0
EHWO 200921Z AUTO 21010KT 6000 BR BKN007 OVC009 06/05 Q1009 REDZ GRN 20011KT 9999 SCT010 OVC011 TEMPO 4000 RADZ SCT006 OVC009,EHWO,2015-02-20T09:21:00Z,51.45,4.32,6.0,5.0,210,10,,6.21,29.793306,,,TRUE,,,,,,,BR,BKN,700,OVC,900,SCT,1000,OVC,1100,IFR,,,1.1,,,,,,,,,SPECI,17.0
EGVA 200921Z AUTO 00000KT 0800 R27/0600 FG VV001 02/02 A2974 RMK AO2 $,EGVA,2015-02-20T09:21:00Z,51.67,-1.77,2.0,2.0,0,0,,0.5,29.740158,,,TRUE,TRUE,TRUE,,,,,FG,OVX,0,,,,,,,LIFR,,,,,,,,,,,100,SPECI,87.0
ELLX 200920Z 20009KT 170V240 8000 BKN013 02/01 Q1015 TEMPO BKN009,ELLX,2015-02-20T09:20:00Z,49.63,6.2,2.0,1.0,200,9,,4.97,29.970472,,,,,,,,,,,BKN,1300,,,,,,,MVFR,,,,,,,,,,,,METAR,379.0
EBBL 200920Z 21009KT 9000 -RA FEW012 BKN014 OVC018 05/03 Q1011 GRN GRN,EBBL,2015-02-20T09:20:00Z,51.17,5.47,5.0,3.0,210,9,,5.59,29.852362,,,,,,,,,,-RA,FEW,1200,BKN,1400,OVC,1800,,,MVFR,,,,,,,,,,,,SPECI,64.0
LSZA 200920Z VRB02KT CAVOK 04/M01 Q1025 NOSIG,LSZA,2015-02-20T09:20:00Z,46.0,8.92,4.0,-1.0,0,2,,6.21,30.265747,,,,,,TRUE,,,,,CAVOK,,,,,,,,VFR,,,,,,,,,,,,METAR,276.0
LSZB 200920Z 14004KT CAVOK 02/M03 Q1021 NOSIG,LSZB,2015-02-20T09:20:00Z,46.92,7.5,2.0,-3.0,140,4,,6.21,30.147638,,,,,,TRUE,,,,,CAVOK,,,,,,,,VFR,,,,,,,,,,,,METAR,505.0
LSGG 200920Z 20004KT 180V240 CAVOK 05/M03 Q1022 NOSIG,LSGG,2015-02-20T09:20:00Z,46.25,6.12,5.0,-3.0,200,4,,6.21,30.177166,,,,,,TRUE,,,,,CAVOK,,,,,,,,VFR,,,,,,,,,,,,METAR,416.0
LSZH 200920Z VRB02KT CAVOK 05/M03 Q1021 NOSIG,LSZH,2015-02-20T09:20:00Z,47.48,8.53,5.0,-3.0,0,2,,6.21,30.147638,,,,,,TRUE,,,,,CAVOK,,,,,,,,VFR,,,,,,,,,,,,METAR,432.0
EDVK 200920Z 16010KT 130V200 9000 BKN021 03/M00 Q1014 RMK ATIS J,EDVK,2015-02-20T09:20:00Z,51.38,9.37,3.0,0.0,160,10,,5.59,29.940945,,,,,,,,,,,BKN,2100,,,,,,,MVFR,,,,,,,,,,,,SPECI,285.0
EDSB 200920Z VRB02KT 6000 NSC 02/01 Q1019,EDSB,2015-02-20T09:20:00Z,48.78,8.08,2.0,1.0,0,2,,3.73,30.088583,,,,,,,,,,,,,,,,,,,,,,,,,,,,,,,METAR,124.0
EDNY 200920Z VRB02KT CAVOK 03/M05 Q1021 RMK ATIS J,EDNY,2015-02-20T09:20:00Z,47.67,9.52,3.0,-5.0,0,2,,6.21,30.147638,,,,,,,,,,,CAVOK,,,,,,,,VFR,,,,,,,,,,,,SPECI,424.0
EDLP 200920Z 21016G26KT 9999 SCT025 BKN036 05/02 Q1013 RMK ATIS WHI,EDLP,2015-02-20T09:20:00Z,51.62,8.62,5.0,2.0,210,16,26,6.21,29.911417,,,,,,,,,,,SCT,2500,BKN,3600,,,,,VFR,,,,,,,,,,,,SPECI,213.0
EDFH 200920Z 22009KT 190V250 9999 FEW016 BKN060 04/02 Q1014,EDFH,2015-02-20T09:20:00Z,49.95,7.27,4.0,2.0,220,9,,6.21,29.940945,,,,,,,,,,,FEW,1600,BKN,6000,,,,,VFR,,,,,,,,,,,,METAR,498.0
EDDK 200920Z 18012KT 9999 FEW025 BKN042 07/01 Q1014 NOSIG,EDDK,2015-02-20T09:20:00Z,50.87,7.15,7.0,1.0,180,12,,6.21,29.940945,,,,,,TRUE,,,,,FEW,2500,BKN,4200,,,,,VFR,,,,,,,,,,,,METAR,99.0
EDDS 200920Z 03003KT 330V080 CAVOK 04/00 Q1019 NOSIG,EDDS,2015-02-20T09:20:00Z,48.67,9.22,4.0,0.0,30,3,,6.21,30.088583,,,,,,TRUE,,,,,CAVOK,,,,,,,,VFR,,,,,,,,,,,,METAR,419.0
EDDL 200920Z 18010KT 9999 BKN024 06/02 Q1012 NOSIG,EDDL,2015-02-20T09:20:00Z,51.3,6.77,6.0,2.0,180,10,,6.21,29.88189,,,,,,TRUE,,,,,BKN,2400,,,,,,,MVFR,,,,,,,,,,,,METAR,44.0
EDDR 200920Z 21015KT 9999 FEW025 SCT270 04/01 Q1017 NOSIG,EDDR,2015-02-20T09:20:00Z,49.22,7.1,4.0,1.0,210,15,,6.21,30.029528,,,,,,TRUE,,,,,FEW,2500,SCT,27000,,,,,VFR,,,,,,,,,,,,METAR,320.0
EBBR 200920Z 20014KT 7000 BR FEW007 BKN010 05/04 Q1011 BECMG 4000 RADZ BR BKN008,EBBR,2015-02-20T09:20:00Z,50.9,4.5,5.0,4.0,200,14,,4.35,29.852362,,,,,,,,,,BR,FEW,700,BKN,1000,,,,,MVFR,,,,,,,,,,,,METAR,58.0
EBAW 200920Z 20012KT 6000 SCT007 BKN008 BKN009 06/04 Q1010 TEMPO 3000 RADZ BKN006,EBAW,2015-02-20T09:20:00Z,51.2,4.47,6.0,4.0,200,12,,3.73,29.822834,,,,,,,,,,,SCT,700,BKN,800,BKN,900,,,IFR,,,,,,,,,,,,METAR,14.0
EGLC 200920Z VRB02KT 9999 FEW012 07/04 Q1007,EGLC,2015-02-20T09:20:00Z,51.5,0.05,7.0,4.0,0,2,,6.21,29.734253,,,,,,,,,,,FEW,1200,,,,,,,VFR,,,,,,,,,,,,METAR,5.0
EDTL 200920Z 07002KT CAVOK 05/01 Q1019,EDTL,2015-02-20T09:20:00Z,48.37,7.83,5.0,1.0,70,2,,6.21,30.088583,,,,,,,,,,,CAVOK,,,,,,,,VFR,,,,,,,,,,,,METAR,156.0
LSZC 200920Z VRB01KT CAVOK 03/M02 Q1021,LSZC,2015-02-20T09:20:00Z,46.97,8.38,3.0,-2.0,0,1,,6.21,30.147638,,,,,,,,,,,CAVOK,,,,,,,,VFR,,,,,,,,,,,,METAR,450.0
LSZR 200920Z 28005KT 250V320 0100 R10/0250N FZFG VV001 M00/M00 Q1021 NOSIG RMK F,LSZR,2015-02-20T09:20:00Z,47.48,9.57,0.0,0.0,280,5,,0.06,30.147638,,,,,,TRUE,,,,FZFG,OVX,0,,,,,,,LIFR,,,,,,,,,,,100,METAR,398.0
LSZG 200920Z VRB02KT 0050 FZFG VV001 M01/M01 Q1022 NOSIG,LSZG,2015-02-20T09:20:00Z,47.17,7.42,-1.0,-1.0,0,2,,0.03,30.177166,,,,,,TRUE,,,,FZFG,OVX,0,,,,,,,LIFR,,,,,,,,,,,100,METAR,430.0
LSGS 200920Z 08006KT CAVOK 02/M07 Q1023,LSGS,2015-02-20T09:20:00Z,46.22,7.32,2.0,-7.0,80,6,,6.21,30.206694,,,,,,,,,,,CAVOK,,,,,,,,VFR,,,,,,,,,,,,METAR,481.0
LSGC 200920Z VRB03KT CAVOK 04/M05 Q1019,LSGC,2015-02-20T09:20:00Z,47.08,6.8,4.0,-5.0,0,3,,6.21,30.088583,,,,,,,,,,,CAVOK,,,,,,,,VFR,,,,,,,,,,,,METAR,1027.0
EGLL 200920Z 00000KT 9999 FEW011 06/04 Q1007 NOSIG,EGLL,2015-02-20T09:20:00Z,51.48,-0.45,6.0,4.0,0,0,,6.21,29.734253,,,,,,TRUE,,,,,FEW,1100,,,,,,,VFR,,,,,,,,,,,,METAR,24.0
EGSS 200920Z VRB02KT 9999 FEW006 05/04 Q1007,EGSS,2015-02-20T09:20:00Z,51.88,0.22,5.0,4.0,0,2,,6.21,29.734253,,,,,,,,,,,FEW,600,,,,,,,VFR,,,,,,,,,,,,METAR,106.0
EGKK 200920Z 34004KT 300V020 9999 FEW009 06/04 Q1007,EGKK,2015-02-20T09:20:00Z,51.13,-0.17,6.0,4.0,340,4,,6.21,29.734253,,,,,,,,,,,FEW,900,,,,,,,VFR,,,,,,,,,,,,METAR,62.0
EGGW 200920Z 27004KT 9999 SCT005 04/04 Q1007,EGGW,2015-02-20T09:20:00Z,51.87,-0.37,4.0,4.0,270,4,,6.21,29.734253,,,,,,,,,,,SCT,500,,,,,,,VFR,,,,,,,,,,,,METAR,160.0
EGFF 200920Z AUTO 35003KT 9999 NCD 03/03 Q1007,EGFF,2015-02-20T09:20:00Z,51.38,-3.35,3.0,3.0,350,3,,6.21,29.734253,,,TRUE,,,,,,,,,,,,,,,,,,,,,,,,,,,,SPECI,67.0
EGHI 200920Z 00000KT 9999 FEW025 05/04 Q1007,EGHI,2015-02-20T09:20:00Z,50.95,-1.35,5.0,4.0,0,0,,6.21,29.734253,,,,,,,,,,,FEW,2500,,,,,,,VFR,,,,,,,,,,,,METAR,14.0
EGGD 200920Z 32003KT 9999 VCFG FEW009 04/02 Q1007,EGGD,2015-02-20T09:20:00Z,51.37,-2.72,4.0,2.0,320,3,,6.21,29.734253,,,,,,,,,,VCFG,FEW,900,,,,,,,VFR,,,,,,,,,,,,METAR,189.0
EGTE 200920Z VRB01KT 9999 FEW002 04/04 Q1008,EGTE,2015-02-20T09:20:00Z,50.72,-3.42,4.0,4.0,0,1,,6.21,29.763779,,,,,,,,,,,FEW,200,,,,,,,VFR,,,,,,,,,,,,METAR,30.0
EGJJ 200920Z 19016KT 6000 -RA SCT003 BKN025 08/08 Q1007 RERA TEMPO 4000 BKN005,EGJJ,2015-02-20T09:20:00Z,49.22,-2.2,8.0,8.0,190,16,,3.73,29.734253,,,,,,,,,,-RA,SCT,300,BKN,2500,,,,,MVFR,,,,,,,,,,,,METAR,84.0
EGJB 200920Z 02006KT 340V040 4000 RA FEW002 SCT004 BKN009 07/07 Q1006,EGJB,2015-02-20T09:20:00Z,49.42,-2.6,7.0,7.0,20,6,,2.49,29.704725,,,,,,,,,,RA,FEW,200,SCT,400,BKN,900,,,IFR,,,,,,,,,,,,METAR,102.0
EGJA 200920Z 02007KT 360V060 5000 RA SCT001 BKN004 BKN015 07/07 Q1006,EGJA,2015-02-20T09:20:00Z,49.72,-2.2,7.0,7.0,20,7,,3.11,29.704725,,,,,,,,,,RA,SCT,100,BKN,400,BKN,1500,,,LIFR,,,,,,,,,,,,METAR,71.0
EGHQ 200920Z 36004KT 9999 FEW032 05/03 Q1008,EGHQ,2015-02-20T09:20:00Z,50.43,-5.0,5.0,3.0,360,4,,6.21,29.763779,,,,,,,,,,,FEW,3200,,,,,,,VFR,,,,,,,,,,,,METAR,119.0
EGTK 200920Z 26004KT 230V290 CAVOK 03/03 Q1007,EGTK,2015-02-20T09:20:00Z,51.83,-1.32,3.0,3.0,260,4,,6.21,29.734253,,,,,,,,,,,CAVOK,,,,,,,,VFR,,,,,,,,,,,,METAR,82.0
EGMD 200920Z 21004KT 7000 -RA FEW010 SCT047 08/08 Q1008,EGMD,2015-02-20T09:20:00Z,50.95,0.92,8.0,8.0,210,4,,4.35,29.763779,,,,,,,,,,-RA,FEW,1000,SCT,4700,,,,,MVFR,,,,,,,,,,,,METAR,3.0
EGLF 200920Z VRB02KT 9000 SCT006 05/04 Q1007,EGLF,2015-02-20T09:20:00Z,51.28,-0.77,5.0,4.0,0,2,,5.59,29.734253,,,,,,,,,,,SCT,600,,,,,,,VFR,,,,,,,,,,,,METAR,65.0
EGKB 200920Z 35001KT 9999 SCT007 05/03 Q1007,EGKB,2015-02-20T09:20:00Z,51.32,0.02,5.0,3.0,350,1,,6.21,29.734253,,,,,,,,,,,SCT,700,,,,,,,VFR,,,,,,,,,,,,METAR,183.0
EGKA 200920Z 00000KT 9999 -RA FEW012 07/06 Q1007,EGKA,2015-02-20T09:20:00Z,50.83,-0.3,7.0,6.0,0,0,,6.21,29.734253,,,,,,,,,,-RA,FEW,1200,,,,,,,VFR,,,,,,,,,,,,METAR,2.0
EGHH 200920Z 35003KT 9999 FEW015 05/05 Q1007,EGHH,2015-02-20T09:20:00Z,50.78,-1.83,5.0,5.0,350,3,,6.21,29.734253,,,,,,,,,,,FEW,1500,,,,,,,VFR,,,,,,,,,,,,METAR,11.0
EBOS 200920Z 21011KT 2000 DZRA BKN004 BKN007 06/05 Q1009 TEMPO 5000 -RA BKN008,EBOS,2015-02-20T09:20:00Z,51.2,2.87,6.0,5.0,210,11,,1.24,29.793306,,,,,,,,,,DZ RA,BKN,400,BKN,700,,,,,LIFR,,,,,,,,,,,,METAR,5.0
LIML 200920Z 19003KT 150V220 5000 BR NSC 07/05 Q1025 NOSIG,LIML,2015-02-20T09:20:00Z,45.47,9.27,7.0,5.0,190,3,,3.11,30.265747,,,,,,TRUE,,,,BR,,,,,,,,,,,,,,,,,,,,,SPECI,103.0
LIMJ 200920Z 11011KT 9999 BKN040 11/06 Q1025,LIMJ,2015-02-20T09:20:00Z,44.42,8.83,11.0,6.0,110,11,,6.21,30.265747,,,,,,,,,,,BKN,4000,,,,,,,VFR,,,,,,,,,,,,METAR,3.0
LIMF 200920Z 11003KT 5000 BR NSC 04/01 Q1025,LIMF,2015-02-20T09:20:00Z,45.22,7.65,4.0,1.0,110,3,,3.11,30.265747,,,,,,,,,,BR,,,,,,,,,,,,,,,,,,,,,SPECI,287.0
LIME 200920Z VRB02KT 5000 BR NSC 07/01 Q1025,LIME,2015-02-20T09:20:00Z,45.67,9.68,7.0,1.0,0,2,,3.11,30.265747,,,,,,,,,,BR,,,,,,,,,,,,,,,,,,,,,SPECI,237.0
LIMC 200920Z VRB02KT CAVOK 07/01 Q1025 NOSIG,LIMC,2015-02-20T09:20:00Z,45.62,8.72,7.0,1.0,0,2,,6.21,30.265747,,,,,,TRUE,,,,,CAVOK,,,,,,,,VFR,,,,,,,,,,,,METAR,211.0
EGMC 200920Z 00000KT 9999 FEW011 06/04 Q1008,EGMC,2015-02-20T09:20:00Z,51.57,0.7,6.0,4.0,0,0,,6.21,29.763779,,,,,,,,,,,FEW,1100,,,,,,,VFR,,,,,,,,,,,,METAR,15.0
ETHF 200920Z 20012KT 9999 FEW020 SCT130 05/01 Q1014 BLU+BLU+ TEMPO GRN,ETHF,2015-02-20T09:20:00Z,51.12,9.27,5.0,1.0,200,12,,6.21,29.940945,,,,,,,,,,,FEW,2000,SCT,13000,,,,,VFR,,,,,,,,,,,,METAR,181.0
ETSB 200920Z 23015KT 8000 BKN011 BKN021 03/01 Q1014 GRN GRN TEMPO WHT,ETSB,2015-02-20T09:20:00Z,50.17,7.07,3.0,1.0,230,15,,4.97,29.940945,,,,,,,,,,,BKN,1100,BKN,2100,,,,,MVFR,,,,,,,,,,,,METAR,486.0
ETNN 200920Z 18007KT 9999 SCT034 BKN048 08/02 Q1012 BLU BLU TEMPO WHT,ETNN,2015-02-20T09:20:00Z,50.82,6.67,8.0,2.0,180,7,,6.21,29.88189,,,,,,,,,,,SCT,3400,BKN,4800,,,,,VFR,,,,,,,,,,,,METAR,135.0
EDLN 200920Z 20009KT 160V230 9999 -RA BKN023 06/03 Q1012 RMK ATIS F,EDLN,2015-02-20T09:20:00Z,51.23,6.5,6.0,3.0,200,9,,6.21,29.88189,,,,,,,,,,-RA,BKN,2300,,,,,,,MVFR,,,,,,,,,,,,METAR,38.0
EDGS 200920Z 20012KT 170V230 3500 BR FEW010 BKN012 00/00 Q1013,EDGS,2015-02-20T09:20:00Z,50.7,8.08,0.0,0.0,200,12,,2.17,29.911417,,,,,,,,,,BR,FEW,1000,BKN,1200,,,,,IFR,,,,,,,,,,,,METAR,602.0
EDLV 200920Z 20011KT 9999 BKN014 06/06 Q1011,EDLV,2015-02-20T09:20:00Z,51.6,6.15,6.0,6.0,200,11,,6.21,29.852362,,,,,,,,,,,BKN,1400,,,,,,,MVFR,,,,,,,,,,,,METAR,32.0
EDFM 200920Z 17009KT 9000 SKC 04/M00 Q1018,EDFM,2015-02-20T09:20:00Z,49.47,8.52,4.0,0.0,170,9,,5.59,30.059055,,,,,,,,,,,SKC,,,,,,,,VFR,,,,,,,,,,,,METAR,100.0
EDFE 200920Z 19008KT 7000 FEW028 05/M00 Q1017,EDFE,2015-02-20T09:20:00Z,49.97,8.63,5.0,0.0,190,8,,4.35,30.029528,,,,,,,,,,,FEW,2800,,,,,,,MVFR,,,,,,,,,,,,METAR,118.0
EDLW 200920Z 20016KT 9999 BKN025 05/00 Q1012 RMK ATIS K,EDLW,2015-02-20T09:20:00Z,51.52,7.62,5.0,0.0,200,16,,6.21,29.88189,,,,,,,,,,,BKN,2500,,,,,,,MVFR,,,,,,,,,,,,SPECI,127.0
EDDF 200920Z 21008KT 180V250 8000 FEW029 BKN120 03/M00 Q1017 NOSIG,EDDF,2015-02-20T09:20:00Z,50.05,8.6,3.0,0.0,210,8,,4.97,30.029528,,,,,,TRUE,,,,,FEW,2900,BKN,12000,,,,,MVFR,,,,,,,,,,,,METAR,113.0
EBLG 200920Z 20017KT 9999 BKN013 05/03 Q1012 NOSIG,EBLG,2015-02-20T09:20:00Z,50.63,5.45,5.0,3.0,200,17,,6.21,29.88189,,,,,,TRUE,,,,,BKN,1300,,,,,,,MVFR,,,,,,,,,,,,METAR,178.0
EBCI 200920Z 20013KT 7000 SCT008 BKN009 05/03 Q1012 TEMPO 20015G25KT,EBCI,2015-02-20T09:20:00Z,50.47,4.45,5.0,3.0,200,13,,4.35,29.88189,,,,,,,,,,,SCT,800,BKN,900,,,,,IFR,,,1.5,,,,,,,,,METAR,192.0
EHVK 200918Z AUTO 20014KT 6000 -DZ SCT010 OVC012 06/04 Q1010 REDZ GRN 20015KT 9000 -RADZ SCT010 OVC015 TEMPO 4000 DZRA SCT007 OVC010,EHVK,2015-02-20T09:18:00Z,51.63,5.7,6.0,4.0,200,14,,3.73,29.822834,,,TRUE,,,,,,,-DZ -RA DZ,SCT,1000,OVC,1200,SCT,1000,OVC,1500,MVFR,,,1.5,,,,,,,,,SPECI,21.0
EBLB 200918Z AUTO 21011KT 9999 SCT006/// BKN008/// 02/01 Q1012 YLO,EBLB,2015-02-20T09:18:00Z,50.47,6.17,2.0,1.0,210,11,,6.21,29.88189,,,TRUE,,,,,,,,,,,,,,,,,,,,,,,,,,,,SPECI,570.0
EHEH 200916Z AUTO 20011KT 8000 BR SCT007 BKN009 OVC010 05/04 Q1011 GRN 20012KT 9000 FEW010 BKN012 OVC015 TEMPO 5000 DZRA BR BKN007 OVC010,EHEH,2015-02-20T09:16:00Z,51.45,5.38,5.0,4.0,200,11,,4.97,29.852362,,,TRUE,,,,,,,BR,SCT,700,BKN,900,OVC,1000,FEW,1000,IFR,,,1.2,,,,,,,,,METAR,22.0
EHEH 200912Z AUTO 20011KT 8000 BR SCT006 BKN008 OVC009 05/04 Q1011 YLO 20012KT 9000 FEW010 BKN012 OVC015 TEMPO 5000 DZRA BR BKN007 OVC010,EHEH,2015-02-20T09:12:00Z,51.45,5.38,5.0,4.0,200,11,,4.97,29.852362,,,TRUE,,,,,,,BR,SCT,600,BKN,800,OVC,900,FEW,1000,IFR,,,1.2,,,,,,,,,SPECI,22.0
EGVA 200911Z AUTO 00000KT 1200 R27/0700 BR VV001 02/02 A2974 RMK AO2 $,EGVA,2015-02-20T09:11:00Z,51.67,-1.77,2.0,2.0,0,0,,0.75,29.740158,,,TRUE,TRUE,TRUE,,,,,BR,OVX,0,,,,,,,LIFR,,,,,,,,,,,100,SPECI,87.0
EHWO 200911Z AUTO 21010G20KT 7000 BR BKN008 OVC010 06/05 Q1009 REDZ GRN 20011KT 9999 -RA SCT010 OVC011 TEMPO 4000 RADZ SCT006 OVC009,EHWO,2015-02-20T09:11:00Z,51.45,4.32,6.0,5.0,210,10,20,6.21,29.793306,,,TRUE,,,,,,,-RA BR,BKN,800,OVC,1000,SCT,1000,OVC,1100,IFR,,,1.1,,,,,,,,,SPECI,17.0
EHVK 200909Z AUTO 20014KT 6000 -UP BKN010 OVC013 06/04 Q1010 GRN 20014KT 9000 -RADZ SCT010 OVC015 TEMPO 4000 DZRA SCT009 OVC012,EHVK,2015-02-20T09:09:00Z,51.63,5.7,6.0,4.0,200,14,,3.73,29.822834,,,TRUE,,,,,,,-RA DZ UP,BKN,1000,OVC,1300,SCT,1000,OVC,1500,MVFR,,,1.4,,,,,,,,,SPECI,21.0
EHGR 200908Z AUTO 21012KT 8000 BR SCT007 BKN008 OVC010 06/05 Q1010 GRN 21015KT 4500 RADZ FEW006 SCT008 BKN010,EHGR,2015-02-20T09:08:00Z,51.57,4.92,6.0,5.0,210,12,,4.97,29.822834,,,TRUE,,,,,,,BR RA DZ,SCT,700,BKN,800,OVC,1000,FEW,600,IFR,,,-1.5,,,,,,,,,SPECI,13.0
EHWO 200908Z AUTO 21009KT 9000 BR BKN008 OVC009 06/05 Q1009 REDZ GRN 20011KT 9999 -RA SCT010 OVC011 TEMPO 4000 RADZ SCT006 OVC009,EHWO,2015-02-20T09:08:00Z,51.45,4.32,6.0,5.0,210,9,,6.21,29.793306,,,TRUE,,,,,,,-RA BR,BKN,800,OVC,900,SCT,1000,OVC,1100,IFR,,,1.1,,,,,,,,,SPECI,17.0
EGVN 200907Z 25003KT 0900 FG BKN001 03/02 Q1007 RED BECMG SCT002 AMB,EGVN,2015-02-20T09:07:00Z,51.77,-1.58,3.0,2.0,250,3,,0.56,29.734253,,,,,,,,,,FG,BKN,100,,,,,,,LIFR,,,,,,,,,,,,METAR,88.0
EGVA 200906Z AUTO 00000KT 0800 R27/0600 FG VV001 02/02 A2974 RMK AO2 $,EGVA,2015-02-20T09:06:00Z,51.67,-1.77,2.0,2.0,0,0,,0.5,29.740158,,,TRUE,TRUE,TRUE,,,,,FG,OVX,0,,,,,,,LIFR,,,,,,,,,,,100,METAR,87.0
EHGR 200905Z AUTO 21012KT 6000 BR SCT006 BKN008 OVC009 06/05 Q1010 YLO 21015KT 4500 RADZ FEW006 SCT008 BKN010,EHGR,2015-02-20T09:05:00Z,51.57,4.92,6.0,5.0,210,12,,3.73,29.822834,,,TRUE,,,,,,,BR RA DZ,SCT,600,BKN,800,OVC,900,FEW,600,IFR,,,-1.5,,,,,,,,,SPECI,13.0
LOIH 200900Z 00000KT 35KM SKC 00/M03 Q1021,LOIH,2015-02-20T09:00:00Z,47.38,9.7,0.0,-3.0,0,0,,21.75,30.147638,,,,,,,,,,,SKC,,,,,,,,VFR,,,,,,,,,,,,METAR,418.0
LFQG 200900Z AUTO 17012KT 9999 NSC 08/02 Q1018,LFQG,2015-02-20T09:00:00Z,47.0,3.1,8.0,2.0,170,12,,6.21,30.059055,,,TRUE,,,,,,,,,,,,,,,,,,,,,,,,,,,,METAR,181.0
LFLW 200900Z AUTO 13008KT 9999 NSC 05/M06 Q1021,LFLW,2015-02-20T09:00:00Z,44.88,2.42,5.0,-6.0,130,8,,6.21,30.147638,,,TRUE,,,,,,,,,,,,,,,,,,,,,,,,,,,,METAR,639.0
LELO 200900Z 00000KT 6000 FEW001 02/02 Q1024,LELO,2015-02-20T09:00:00Z,42.45,-2.32,2.0,2.0,0,0,,3.73,30.236221,,,,,,,,,,,FEW,100,,,,,,,MVFR,,,,,,,,,,,,METAR,363.0
LESU 200900Z VRB02KT CAVOK 01/M03 Q1024,LESU,2015-02-20T09:00:00Z,42.33,1.4,1.0,-3.0,0,2,,6.21,30.236221,,,,,,,,,,,CAVOK,,,,,,,,VFR,,,,,,,,,,,,METAR,800.0
LEBG 200900Z 18007KT CAVOK 04/00 Q1022,LEBG,2015-02-20T09:00:00Z,42.37,-3.62,4.0,0.0,180,7,,6.21,30.177166,,,,,,,,,,,CAVOK,,,,,,,,VFR,,,,,,,,,,,,METAR,891.0
LELN 200900Z 29010KT 8000 -RA SCT024 BKN035 02/01 Q1022,LELN,2015-02-20T09:00:00Z,42.57,-5.65,2.0,1.0,290,10,,4.97,30.177166,,,,,,,,,,-RA,SCT,2400,BKN,3500,,,,,MVFR,,,,,,,,,,,,METAR,914.0
LEVD 200900Z 20004KT 8000 NSC 02/01 Q1023,LEVD,2015-02-20T09:00:00Z,41.72,-4.83,2.0,1.0,200,4,,4.97,30.206694,,,,,,,,,,,,,,,,,,,,,,,,,,,,,,,METAR,854.0
LEXJ 200900Z 00000KT 9999 SCT067 SCT080 10/06 Q1020,LEXJ,2015-02-20T09:00:00Z,43.42,-3.82,10.0,6.0,0,0,,6.21,30.11811,,,,,,,,,,,SCT,6700,SCT,8000,,,,,VFR,,,,,,,,,,,,METAR,6.0
LEPP 200900Z 00000KT 7000 NSC 03/02 Q1023,LEPP,2015-02-20T09:00:00Z,42.77,-1.65,3.0,2.0,0,0,,4.35,30.206694,,,,,,,,,,,,,,,,,,,,,,,,,,,,,,,METAR,459.0
LELL 200900Z 00000KT 6000 FEW015 07/05 Q1025,LELL,2015-02-20T09:00:00Z,41.52,2.1,7.0,5.0,0,0,,3.73,30.265747,,,,,,,,,,,FEW,1500,,,,,,,MVFR,,,,,,,,,,,,METAR,250.0
LEDA 200900Z 08005KT 050V110 8000 NSC 06/03 Q1024 NOSIG,LEDA,2015-02-20T09:00:00Z,41.73,0.53,6.0,3.0,80,5,,4.97,30.236221,,,,,,TRUE,,,,,,,,,,,,,,,,,,,,,,,,,METAR,350.0
LEVT 200900Z 21003KT CAVOK 04/02 Q1022,LEVT,2015-02-20T09:00:00Z,42.87,-2.72,4.0,2.0,210,3,,6.21,30.177166,,,,,,,,,,,CAVOK,,,,,,,,VFR,,,,,,,,,,,,METAR,509.0
LESO 200900Z 20007KT CAVOK 13/00 Q1020,LESO,2015-02-20T09:00:00Z,43.35,-1.8,13.0,0.0,200,7,,6.21,30.11811,,,,,,,,,,,CAVOK,,,,,,,,VFR,,,,,,,,,,,,METAR,8.0
LEZG 200900Z 10007KT CAVOK 04/01 Q1024,LEZG,2015-02-20T09:00:00Z,41.67,-1.02,4.0,1.0,100,7,,6.21,30.236221,,,,,,,,,,,CAVOK,,,,,,,,VFR,,,,,,,,,,,,METAR,258.0
LEGE 200900Z 00000KT 2500 BR NSC 03/03 Q1024,LEGE,2015-02-20T09:00:00Z,41.88,2.77,3.0,3.0,0,0,,1.55,30.236221,,,,,,,,,,BR,,,,,,,,,,,,,,,,,,,,,METAR,129.0
LEBB 200900Z 00000KT CAVOK 11/04 Q1021 NOSIG,LEBB,2015-02-20T09:00:00Z,43.28,-2.92,11.0,4.0,0,0,,6.21,30.147638,,,,,,TRUE,,,,,CAVOK,,,,,,,,VFR,,,,,,,,,,,,METAR,34.0
LEAS 200900Z 22014KT 8000 -RA FEW040 BKN055 09/05 Q1019 TEMPO 4000 RA,LEAS,2015-02-20T09:00:00Z,43.53,-6.02,9.0,5.0,220,14,,4.97,30.088583,,,,,,,,,,-RA,FEW,4000,BKN,5500,,,,,MVFR,,,,,,,,,,,,METAR,134.0
LFRU 200900Z AUTO 22012KT 9999 BKN011 BKN017 BKN047 10/08 Q1006,LFRU,2015-02-20T09:00:00Z,48.6,-3.82,10.0,8.0,220,12,,6.21,29.704725,,,TRUE,,,,,,,,BKN,1100,BKN,1700,BKN,4700,,,MVFR,,,,,,,,,,,,METAR,86.0
LFRK 200900Z AUTO 20010KT 9999 -RA BKN020 BKN040 BKN050 08/07 Q1009,LFRK,2015-02-20T09:00:00Z,49.17,-0.45,8.0,7.0,200,10,,6.21,29.793306,,,TRUE,,,,,,,-RA,BKN,2000,BKN,4000,BKN,5000,,,MVFR,,,,,,,,,,,,METAR,67.0
LFRG 200900Z AUTO 22012KT 170V240 9999 -RA OVC006/// ///TCU 07/07 Q1009,LFRG,2015-02-20T09:00:00Z,49.37,0.15,7.0,7.0,220,12,,6.21,29.793306,,,TRUE,,,,,,,-RA,,,,,,,,,,,,,,,,,,,,,METAR,146.0
LFRC 200900Z AUTO 19014KT 8000 -RA OVC006 08/07 Q1006,LFRC,2015-02-20T09:00:00Z,49.63,-1.47,8.0,7.0,190,14,,4.97,29.704725,,,TRUE,,,,,,,-RA,OVC,600,,,,,,,IFR,,,,,,,,,,,,METAR,138.0
LFPN 200900Z AUTO 21017KT 9999 -DZ OVC008 05/04 Q1013,LFPN,2015-02-20T09:00:00Z,48.75,2.12,5.0,4.0,210,17,,6.21,29.911417,,,TRUE,,,,,,,-DZ,OVC,800,,,,,,,IFR,,,,,,,,,,,,METAR,164.0
LFOT 200900Z AUTO 19012KT 9999 -RA BKN038 OVC062 07/05 Q1015,LFOT,2015-02-20T09:00:00Z,47.43,0.72,7.0,5.0,190,12,,6.21,29.970472,,,TRUE,,,,,,,-RA,BKN,3800,OVC,6200,,,,,VFR,,,,,,,,,,,,METAR,108.0
LFMH 200900Z 17010KT CAVOK 09/M06 Q1021 NOSIG,LFMH,2015-02-20T09:00:00Z,45.52,4.28,9.0,-6.0,170,10,,6.21,30.147638,,,,,,TRUE,,,,,CAVOK,,,,,,,,VFR,,,,,,,,,,,,METAR,402.0
LFMD 200900Z AUTO 35003KT 310V040 9999 SCT033 09/04 Q1025,LFMD,2015-02-20T09:00:00Z,43.53,6.95,9.0,4.0,350,3,,6.21,30.265747,,,TRUE,,,,,,,,SCT,3300,,,,,,,VFR,,,,,,,,,,,,METAR,9.0
LFJR 200900Z AUTO 19012KT 9000 -RA BKN008 OVC013 08/07 Q1013,LFJR,2015-02-20T09:00:00Z,47.57,-0.3,8.0,7.0,190,12,,5.59,29.911417,,,TRUE,,,,,,,-RA,BKN,800,OVC,1300,,,,,IFR,,,,,,,,,,,,METAR,60.0
LFGJ 200900Z AUTO 21013KT 180V240 9999 NSC 07/02 Q1020,LFGJ,2015-02-20T09:00:00Z,47.05,5.43,7.0,2.0,210,13,,6.21,30.11811,,,TRUE,,,,,,,,,,,,,,,,,,,,,,,,,,,,METAR,196.0
LFBE 200900Z AUTO 13008KT 9999 NSC 07/03 Q1021,LFBE,2015-02-20T09:00:00Z,44.82,0.52,7.0,3.0,130,8,,6.21,30.147638,,,TRUE,,,,,,,,,,,,,,,,,,,,,,,,,,,,METAR,52.0
LFBA 200900Z AUTO 10008KT 2400 BR SCT003 03/02 Q1022,LFBA,2015-02-20T09:00:00Z,44.17,0.6,3.0,2.0,100,8,,1.49,30.177166,,,TRUE,,,,,,,BR,SCT,300,,,,,,,IFR,,,,,,,,,,,,METAR,60.0
LFSL 200900Z AUTO 16008KT 130V200 9999 NSC 06/M02 Q1021,LFSL,2015-02-20T09:00:00Z,45.03,1.48,6.0,-2.0,160,8,,6.21,30.147638,,,TRUE,,,,,,,,,,,,,,,,,,,,,,,,,,,,METAR,310.0
LFMV 200900Z AUTO 09003KT 9999 BKN034 OVC047 07/02 Q1025,LFMV,2015-02-20T09:00:00Z,43.9,4.9,7.0,2.0,90,3,,6.21,30.265747,,,TRUE,,,,,,,,BKN,3400,OVC,4700,,,,,VFR,,,,,,,,,,,,METAR,38.0
LFMP 200900Z AUTO VRB01KT 8000 OVC010 05/05 Q1024,LFMP,2015-02-20T09:00:00Z,42.72,2.87,5.0,5.0,0,1,,4.97,30.236221,,,TRUE,,,,,,,,OVC,1000,,,,,,,MVFR,,,,,,,,,,,,METAR,48.0
LFLC 200900Z 18015KT CAVOK 07/M02 Q1020 NOSIG,LFLC,2015-02-20T09:00:00Z,45.77,3.17,7.0,-2.0,180,15,,6.21,30.11811,,,,,,TRUE,,,,,CAVOK,,,,,,,,VFR,,,,,,,,,,,,METAR,330.0
LFKJ 200900Z VRB03KT 9999 FEW053 11/04 Q1026 NOSIG,LFKJ,2015-02-20T09:00:00Z,41.92,8.8,11.0,4.0,0,3,,6.21,30.295275,,,,,,TRUE,,,,,FEW,5300,,,,,,,VFR,,,,,,,,,,,,METAR,9.0
LFKF 200900Z AUTO VRB02KT 9999 NCD 12/07 Q1025,LFKF,2015-02-20T09:00:00Z,41.5,9.08,12.0,7.0,0,2,,6.21,30.265747,,,TRUE,,,,,,,,,,,,,,,,,,,,,,,,,,,,METAR,23.0
LFKC 200900Z VRB02KT 9999 FEW030 12/03 Q1025 NOSIG,LFKC,2015-02-20T09:00:00Z,42.52,8.8,12.0,3.0,0,2,,6.21,30.265747,,,,,,TRUE,,,,,FEW,3000,,,,,,,VFR,,,,,,,,,,,,METAR,58.0
LFKB 200900Z 23004KT 200V270 9999 FEW030 11/03 Q1026 NOSIG,LFKB,2015-02-20T09:00:00Z,42.53,9.47,11.0,3.0,230,4,,6.21,30.295275,,,,,,TRUE,,,,,FEW,3000,,,,,,,VFR,,,,,,,,,,,,METAR,12.0
LFRS 200900Z 20015KT 7000 -RA OVC007 09/08 Q1013 NOSIG,LFRS,2015-02-20T09:00:00Z,47.17,-1.6,9.0,8.0,200,15,,4.35,29.911417,,,,,,TRUE,,,,-RA,OVC,700,,,,,,,IFR,,,,,,,,,,,,METAR,27.0
LFRB 200900Z 23013KT 190V250 3000 -RADZ BR OVC006 10/09 Q1006 BECMG 36015KT,LFRB,2015-02-20T09:00:00Z,48.45,-4.42,10.0,9.0,230,13,,1.86,29.704725,,,,,,,,,,-RA -DZ BR,OVC,600,,,,,,,IFR,,,,,,,,,,,,METAR,103.0
LFQQ 200900Z 19014KT 9999 BKN008 06/05 Q1010 TEMPO 3000 RADZ BKN008,LFQQ,2015-02-20T09:00:00Z,50.57,3.1,6.0,5.0,190,14,,6.21,29.822834,,,,,,,,,,,BKN,800,,,,,,,IFR,,,,,,,,,,,,METAR,52.0
LFPO 200900Z 21012G22KT 180V240 8000 -RA BKN010 06/05 Q1014 NOSIG,LFPO,2015-02-20T09:00:00Z,48.72,2.38,6.0,5.0,210,12,22,4.97,29.940945,,,,,,TRUE,,,,-RA,BKN,1000,,,,,,,MVFR,,,,,,,,,,,,METAR,96.0
LFPG 200900Z 19013KT 4000 -RA BKN006 BKN007 06/05 Q1013 NOSIG,LFPG,2015-02-20T09:00:00Z,49.02,2.52,6.0,5.0,190,13,,2.49,29.911417,,,,,,TRUE,,,,-RA,BKN,600,BKN,700,,,,,IFR,,,,,,,,,,,,METAR,109.0
LFMN 200900Z 33009KT 9999 FEW020 BKN033 09/02 Q1025 NOSIG,LFMN,2015-02-20T09:00:00Z,43.63,7.2,9.0,2.0,330,9,,6.21,30.265747,,,,,,TRUE,,,,,FEW,2000,BKN,3300,,,,,VFR,,,,,,,,,,,,METAR,10.0
LFLL 200900Z 16014KT CAVOK 09/M01 Q1022 NOSIG,LFLL,2015-02-20T09:00:00Z,45.72,5.07,9.0,-1.0,160,14,,6.21,30.177166,,,,,,TRUE,,,,,CAVOK,,,,,,,,VFR,,,,,,,,,,,,METAR,240.0
LFSN 200900Z AUTO 18003KT 110V240 7000 NSC 06/01 Q1018,LFSN,2015-02-20T09:00:00Z,48.67,6.22,6.0,1.0,180,3,,4.35,30.059055,,,TRUE,,,,,,,,,,,,,,,,,,,,,,,,,,,,METAR,217.0
LFQB 200900Z AUTO 18011KT 9999 NSC 07/03 Q1016,LFQB,2015-02-20T09:00:00Z,48.32,4.02,7.0,3.0,180,11,,6.21,30.0,,,TRUE,,,,,,,,,,,,,,,,,,,,,,,,,,,,METAR,118.0
LFQA 200900Z AUTO 20006KT 170V240 9999 -RA BKN036 OVC078 05/03 Q1015,LFQA,2015-02-20T09:00:00Z,49.2,4.15,5.0,3.0,200,6,,6.21,29.970472,,,TRUE,,,,,,,-RA,BKN,3600,OVC,7800,,,,,VFR,,,,,,,,,,,,METAR,95.0
LFPB 200900Z AUTO 21013KT 8000 -RA OVC011/// ///TCU 07/05 Q1013,LFPB,2015-02-20T09:00:00Z,48.97,2.45,7.0,5.0,210,13,,4.97,29.911417,,,TRUE,,,,,,,-RA,,,,,,,,,,,,,,,,,,,,,METAR,65.0
LFOP 200900Z AUTO 19014KT 8000 -RA OVC008/// ///TCU 07/05 Q1010,LFOP,2015-02-20T09:00:00Z,49.37,1.17,7.0,5.0,190,14,,4.97,29.822834,,,TRUE,,,,,,,-RA,,,,,,,,,,,,,,,,,,,,,METAR,157.0
LFOK 200900Z AUTO 19014KT 9999 -RA BKN042 OVC050 05/03 Q1016,LFOK,2015-02-20T09:00:00Z,48.78,4.18,5.0,3.0,190,14,,6.21,30.0,,,TRUE,,,,,,,-RA,BKN,4200,OVC,5000,,,,,VFR,,,,,,,,,,,,METAR,162.0
LFOH 200900Z AUTO 19013KT 9999 -RA SCT007/// BKN012/// BKN021/// ///TCU 07/06 Q1009,LFOH,2015-02-20T09:00:00Z,49.52,0.07,7.0,6.0,190,13,,6.21,29.793306,,,TRUE,,,,,,,-RA,,,,,,,,,,,,,,,,,,,,,METAR,103.0
LFOB 200900Z AUTO 19012KT 8000 -RA OVC008/// ///TCU 06/05 Q1012,LFOB,2015-02-20T09:00:00Z,49.47,2.12,6.0,5.0,190,12,,4.97,29.88189,,,TRUE,,,,,,,-RA,,,,,,,,,,,,,,,,,,,,,METAR,111.0
LFMU 200900Z AUTO 03007KT 360V060 9999 NSC 07/04 Q1024,LFMU,2015-02-20T09:00:00Z,43.32,3.35,7.0,4.0,30,7,,6.21,30.236221,,,TRUE,,,,,,,,,,,,,,,,,,,,,,,,,,,,METAR,17.0
LFMT 200900Z 01008KT 8000 BKN043 06/03 Q1025 NOSIG,LFMT,2015-02-20T09:00:00Z,43.57,3.97,6.0,3.0,10,8,,4.97,30.265747,,,,,,TRUE,,,,,BKN,4300,,,,,,,MVFR,,,,,,,,,,,,METAR,6.0
LFLY 200900Z AUTO 19014KT 9999 NSC 08/M01 Q1022,LFLY,2015-02-20T09:00:00Z,45.72,4.95,8.0,-1.0,190,14,,6.21,30.177166,,,TRUE,,,,,,,,,,,,,,,,,,,,,,,,,,,,METAR,201.0
LFLU 200900Z AUTO 21011KT 9999 NSC 06/02 Q1023,LFLU,2015-02-20T09:00:00Z,44.92,4.98,6.0,2.0,210,11,,6.21,30.206694,,,TRUE,,,,,,,,,,,,,,,,,,,,,,,,,,,,METAR,160.0
LFLS 200900Z AUTO VRB02KT 9999 NSC 06/M01 Q1023,LFLS,2015-02-20T09:00:00Z,45.37,5.32,6.0,-1.0,0,2,,6.21,30.206694,,,TRUE,,,,,,,,,,,,,,,,,,,,,,,,,,,,METAR,386.0
LFLP 200900Z AUTO VRB03KT 9999 NSC 04/M04 Q1022,LFLP,2015-02-20T09:00:00Z,45.92,6.08,4.0,-4.0,0,3,,6.21,30.177166,,,TRUE,,,,,,,,,,,,,,,,,,,,,,,,,,,,METAR,463.0
LFJL 200900Z AUTO 20012KT 9999 NSC 07/02 Q1017,LFJL,2015-02-20T09:00:00Z,48.97,6.25,7.0,2.0,200,12,,6.21,30.029528,,,TRUE,,,,,,,,,,,,,,,,,,,,,,,,,,,,METAR,264.0
LFCR 200900Z AUTO 13009KT 9999 NSC 05/M01 Q1021,LFCR,2015-02-20T09:00:00Z,44.38,2.47,5.0,-1.0,130,9,,6.21,30.147638,,,TRUE,,,,,,,,,,,,,,,,,,,,,,,,,,,,METAR,580.0
LFYR 200900Z AUTO 20009KT 9999 NSC 08/04 Q1017,LFYR,2015-02-20T09:00:00Z,47.32,1.67,8.0,4.0,200,9,,6.21,30.029528,,,TRUE,,,,,,,,,,,,,,,,,,,,,,,,,,,,METAR,86.0
LFSX 200900Z AUTO 08004KT 9999 NSC 05/01 Q1020,LFSX,2015-02-20T09:00:00Z,47.77,6.33,5.0,1.0,80,4,,6.21,30.11811,,,TRUE,,,,,,,,,,,,,,,,,,,,,,,,,,,,METAR,273.0
LFSO 200900Z AUTO 20016KT 9999 NSC 06/01 Q1017,LFSO,2015-02-20T09:00:00Z,48.57,5.97,6.0,1.0,200,16,,6.21,30.029528,,,TRUE,,,,,,,,,,,,,,,,,,,,,,,,,,,,METAR,350.0
LFSI 200900Z AUTO 20009KT 9999 -RA BKN043 OVC050 07/03 Q1017,LFSI,2015-02-20T09:00:00Z,48.62,4.9,7.0,3.0,200,9,,6.21,30.029528,,,TRUE,,,,,,,-RA,BKN,4300,OVC,5000,,,,,VFR,,,,,,,,,,,,METAR,140.0
LFTH 200900Z AUTO 31003KT 280V340 9999 NSC 10/05 Q1025,LFTH,2015-02-20T09:00:00Z,43.1,6.15,10.0,5.0,310,3,,6.21,30.265747,,,TRUE,,,,,,,,,,,,,,,,,,,,,,,,,,,,METAR,4.0
LFST 200900Z AUTO 21004KT 140V270 7000 NSC 04/02 Q1019,LFST,2015-02-20T09:00:00Z,48.53,7.62,4.0,2.0,210,4,,4.35,30.088583,,,TRUE,,,,,,,,,,,,,,,,,,,,,,,,,,,,METAR,154.0
LFSG 200900Z AUTO 19014KT 9999 NSC 04/01 Q1018,LFSG,2015-02-20T09:00:00Z,48.33,6.07,4.0,1.0,190,14,,6.21,30.059055,,,TRUE,,,,,,,,,,,,,,,,,,,,,,,,,,,,METAR,330.0
LFSB 200900Z 17005KT 150V210 7000 NSC 04/00 Q1020 NOSIG,LFSB,2015-02-20T09:00:00Z,47.6,7.52,4.0,0.0,170,5,,4.35,30.11811,,,,,,TRUE,,,,,,,,,,,,,,,,,,,,,,,,,METAR,271.0
LFRZ 200900Z AUTO 21017KT 6000 -RA OVC005 10/09 Q1012,LFRZ,2015-02-20T09:00:00Z,47.32,-2.17,10.0,9.0,210,17,,3.73,29.88189,,,TRUE,,,,,,,-RA,OVC,500,,,,,,,IFR,,,,,,,,,,,,METAR,4.0
LFRV 200900Z AUTO 21009KT 170V240 2800 RA BR OVC002 09/09 Q1009,LFRV,2015-02-20T09:00:00Z,47.72,-2.72,9.0,9.0,210,9,,1.74,29.793306,,,TRUE,,,,,,,RA BR,OVC,200,,,,,,,LIFR,,,,,,,,,,,,METAR,133.0
LFRO 200900Z AUTO 20008KT 9999 OVC008 10/09 Q1006,LFRO,2015-02-20T09:00:00Z,48.75,-3.47,10.0,9.0,200,8,,6.21,29.704725,,,TRUE,,,,,,,,OVC,800,,,,,,,IFR,,,,,,,,,,,,METAR,89.0
LFRN 200900Z AUTO 18012KT 9999 -RA OVC009 09/08 Q1010,LFRN,2015-02-20T09:00:00Z,48.07,-1.72,9.0,8.0,180,12,,6.21,29.822834,,,TRUE,,,,,,,-RA,OVC,900,,,,,,,IFR,,,,,,,,,,,,METAR,37.0
LFRM 200900Z AUTO 19011KT 7000 -RA OVC007 07/06 Q1013,LFRM,2015-02-20T09:00:00Z,47.95,0.2,7.0,6.0,190,11,,4.35,29.911417,,,TRUE,,,,,,,-RA,OVC,700,,,,,,,IFR,,,,,,,,,,,,METAR,52.0
LFRI 200900Z AUTO 20014KT 7000 -RA BKN014 OVC021 08/07 Q1015,LFRI,2015-02-20T09:00:00Z,46.7,-1.37,8.0,7.0,200,14,,4.35,29.970472,,,TRUE,,,,,,,-RA,BKN,1400,OVC,2100,,,,,MVFR,,,,,,,,,,,,METAR,91.0
LFRD 200900Z AUTO 19014KT 9999 -RA FEW010 OVC054 09/08 Q1008,LFRD,2015-02-20T09:00:00Z,48.58,-2.07,9.0,8.0,190,14,,6.21,29.763779,,,TRUE,,,,,,,-RA,FEW,1000,OVC,5400,,,,,VFR,,,,,,,,,,,,METAR,59.0
LFOV 200900Z AUTO 19010KT 7000 -RA OVC004 08/08 Q1011,LFOV,2015-02-20T09:00:00Z,48.03,-0.75,8.0,8.0,190,10,,4.35,29.852362,,,TRUE,,,,,,,-RA,OVC,400,,,,,,,LIFR,,,,,,,,,,,,METAR,101.0
LFMK 200900Z AUTO 10009KT 8000 OVC017 07/05 Q1023,LFMK,2015-02-20T09:00:00Z,43.22,2.32,7.0,5.0,100,9,,4.97,30.206694,,,TRUE,,,,,,,,OVC,1700,,,,,,,MVFR,,,,,,,,,,,,METAR,130.0
LFMI 200900Z AUTO 08007KT 9999 NSC 07/03 Q1025,LFMI,2015-02-20T09:00:00Z,43.52,4.92,7.0,3.0,80,7,,6.21,30.265747,,,TRUE,,,,,,,,,,,,,,,,,,,,,,,,,,,,METAR,24.0
LFLX 200900Z 20014KT CAVOK 08/02 Q1017 NOSIG,LFLX,2015-02-20T09:00:00Z,46.85,1.72,8.0,2.0,200,14,,6.21,30.029528,,,,,,TRUE,,,,,CAVOK,,,,,,,,VFR,,,,,,,,,,,,METAR,157.0
LFLB 200900Z VRB03KT CAVOK 05/M01 Q1023 NOSIG,LFLB,2015-02-20T09:00:00Z,45.63,5.87,5.0,-1.0,0,3,,6.21,30.206694,,,,,,TRUE,,,,,CAVOK,,,,,,,,VFR,,,,,,,,,,,,METAR,239.0
LFCK 200900Z AUTO 12017KT 9999 NSC 09/03 Q1022,LFCK,2015-02-20T09:00:00Z,43.55,2.28,9.0,3.0,120,17,,6.21,30.177166,,,TRUE,,,,,,,,,,,,,,,,,,,,,,,,,,,,METAR,240.0
LFBZ 200900Z AUTO 21006KT 160V290 9999 NSC 13/M00 Q1020,LFBZ,2015-02-20T09:00:00Z,43.47,-1.52,13.0,0.0,210,6,,6.21,30.11811,,,TRUE,,,,,,,,,,,,,,,,,,,,,,,,,,,,METAR,71.0
LFBT 200900Z AUTO 18006KT 9999 NSC 10/M02 Q1020,LFBT,2015-02-20T09:00:00Z,43.17,0.0,10.0,-2.0,180,6,,6.21,30.11811,,,TRUE,,,,,,,,,,,,,,,,,,,,,,,,,,,,METAR,363.0
LFBP 200900Z AUTO 13003KT 9999 NSC 09/02 Q1021,LFBP,2015-02-20T09:00:00Z,43.37,-0.42,9.0,2.0,130,3,,6.21,30.147638,,,TRUE,,,,,,,,,,,,,,,,,,,,,,,,,,,,METAR,185.0
LFBO 200900Z AUTO 14010KT 8000 NSC 08/05 Q1022,LFBO,2015-02-20T09:00:00Z,43.62,1.37,8.0,5.0,140,10,,4.97,30.177166,,,TRUE,,,,,,,,,,,,,,,,,,,,,,,,,,,,METAR,153.0
LFBL 200900Z AUTO 16011KT 9999 NSC 05/01 Q1018,LFBL,2015-02-20T09:00:00Z,45.87,1.17,5.0,1.0,160,11,,6.21,30.059055,,,TRUE,,,,,,,,,,,,,,,,,,,,,,,,,,,,METAR,402.0
LFBI 200900Z AUTO 19014KT 9999 FEW033 OVC120 07/04 Q1017,LFBI,2015-02-20T09:00:00Z,46.57,0.32,7.0,4.0,190,14,,6.21,30.029528,,,TRUE,,,,,,,,FEW,3300,OVC,12000,,,,,VFR,,,,,,,,,,,,METAR,120.0
LFBH 200900Z AUTO 21013KT 9999 -RA OVC040 09/06 Q1017,LFBH,2015-02-20T09:00:00Z,46.18,-1.2,9.0,6.0,210,13,,6.21,30.029528,,,TRUE,,,,,,,-RA,OVC,4000,,,,,,,VFR,,,,,,,,,,,,METAR,10.0
LFBD 200900Z AUTO 17008KT 9999 NSC 07/03 Q1019,LFBD,2015-02-20T09:00:00Z,44.82,-0.7,7.0,3.0,170,8,,6.21,30.088583,,,TRUE,,,,,,,,,,,,,,,,,,,,,,,,,,,,METAR,61.0
LFTW 200900Z AUTO 06005KT 030V090 5000 BR BKN038 06/03 Q1025,LFTW,2015-02-20T09:00:00Z,43.75,4.42,6.0,3.0,60,5,,3.11,30.265747,,,TRUE,,,,,,,BR,BKN,3800,,,,,,,MVFR,,,,,,,,,,,,METAR,96.0
LFSD 200900Z AUTO 19012KT 9000 NSC 05/02 Q1020,LFSD,2015-02-20T09:00:00Z,47.27,5.07,5.0,2.0,190,12,,5.59,30.11811,,,TRUE,,,,,,,,,,,,,,,,,,,,,,,,,,,,METAR,227.0
LFRT 200900Z AUTO 20009KT 170V230 4200 -RA BR FEW009 SCT015 BKN023 09/08 Q1007,LFRT,2015-02-20T09:00:00Z,48.52,-2.85,9.0,8.0,200,9,,2.61,29.734253,,,TRUE,,,,,,,-RA BR,FEW,900,SCT,1500,BKN,2300,,,IFR,,,,,,,,,,,,METAR,136.0
LFRQ 200900Z AUTO 22014KT 190V260 9999 OVC006 10/09 Q1007,LFRQ,2015-02-20T09:00:00Z,47.97,-4.17,10.0,9.0,220,14,,6.21,29.734253,,,TRUE,,,,,,,,OVC,600,,,,,,,IFR,,,,,,,,,,,,METAR,94.0
LFRH 200900Z AUTO 23018KT 9999 BKN006 BKN010 OVC015 10/09 Q1009,LFRH,2015-02-20T09:00:00Z,47.77,-3.45,10.0,9.0,230,18,,6.21,29.793306,,,TRUE,,,,,,,,BKN,600,BKN,1000,OVC,1500,,,IFR,,,,,,,,,,,,METAR,44.0
LFPT 200900Z AUTO 20012KT 5000 -RA BR OVC010/// ///TCU 06/05 Q1012,LFPT,2015-02-20T09:00:00Z,49.1,2.03,6.0,5.0,200,12,,3.11,29.88189,,,TRUE,,,,,,,-RA BR,,,,,,,,,,,,,,,,,,,,,METAR,99.0
LFPM 200900Z AUTO 19011KT 9999 -RA OVC027 06/04 Q1014,LFPM,2015-02-20T09:00:00Z,48.62,2.67,6.0,4.0,190,11,,6.21,29.940945,,,TRUE,,,,,,,-RA,OVC,2700,,,,,,,MVFR,,,,,,,,,,,,METAR,92.0
LFLN 200900Z AUTO VRB02KT 9999 NSC 04/01 Q1020,LFLN,2015-02-20T09:00:00Z,46.42,4.02,4.0,1.0,0,2,,6.21,30.11811,,,TRUE,,,,,,,,,,,,,,,,,,,,,,,,,,,,METAR,244.0
LFGA 200900Z AUTO 16007KT 130V190 9999 NSC 05/M00 Q1019,LFGA,2015-02-20T09:00:00Z,48.1,7.35,5.0,0.0,160,7,,6.21,30.088583,,,TRUE,,,,,,,,,,,,,,,,,,,,,,,,,,,,METAR,191.0
LFBU 200900Z AUTO 17008KT 140V200 9999 NSC 07/04 Q1019,LFBU,2015-02-20T09:00:00Z,45.72,0.22,7.0,4.0,170,8,,6.21,30.088583,,,TRUE,,,,,,,,,,,,,,,,,,,,,,,,,,,,METAR,133.0
LFAT 200900Z AUTO 15010KT 120V180 3200 -RA BR FEW008 BKN016 OVC024 07/06 Q1009,LFAT,2015-02-20T09:00:00Z,50.52,1.62,7.0,6.0,150,10,,1.99,29.793306,,,TRUE,,,,,,,-RA BR,FEW,800,BKN,1600,OVC,2400,,,IFR,,,,,,,,,,,,METAR,14.0
LFAQ 200900Z AUTO 19012KT 8000 OVC008 06/04 Q1011,LFAQ,2015-02-20T09:00:00Z,49.97,2.7,6.0,4.0,190,12,,4.97,29.852362,,,TRUE,,,,,,,,OVC,800,,,,,,,IFR,,,,,,,,,,,,METAR,111.0
LFRL 200900Z AUTO 21014KT 9999 BKN009 OVC015 10/09 Q1007,LFRL,2015-02-20T09:00:00Z,48.27,-4.42,10.0,9.0,210,14,,6.21,29.734253,,,TRUE,,,,,,,,BKN,900,OVC,1500,,,,,IFR,,,,,,,,,,,,METAR,82.0
LFRJ 200900Z AUTO 23011KT 5000 -RA BR BKN008 BKN013 OVC045 10/09 Q1006,LFRJ,2015-02-20T09:00:00Z,48.52,-4.15,10.0,9.0,230,11,,3.11,29.704725,,,TRUE,,,,,,,-RA BR,BKN,800,BKN,1300,OVC,4500,,,IFR,,,,,,,,,,,,METAR,115.0
LFOJ 200900Z AUTO 19014KT 9999 FEW028 OVC042 06/04 Q1015,LFOJ,2015-02-20T09:00:00Z,47.97,1.75,6.0,4.0,190,14,,6.21,29.970472,,,TRUE,,,,,,,,FEW,2800,OVC,4200,,,,,VFR,,,,,,,,,,,,METAR,125.0
LFOE 200900Z AUTO 19015KT 7000 RA OVC009/// ///TCU 06/06 Q1011,LFOE,2015-02-20T09:00:00Z,49.02,1.22,6.0,6.0,190,15,,4.35,29.852362,,,TRUE,,,,,,,RA,,,,,,,,,,,,,,,,,,,,,METAR,146.0
LFOC 200900Z AUTO 20017KT 9999 DZ BKN017 BKN022 OVC029 06/05 Q1014,LFOC,2015-02-20T09:00:00Z,48.03,1.37,6.0,5.0,200,17,,6.21,29.940945,,,TRUE,,,,,,,DZ,BKN,1700,BKN,2200,OVC,2900,,,MVFR,,,,,,,,,,,,METAR,127.0
LFPV 200900Z AUTO 20012KT 160V230 9999 OVC008 05/04 Q1013,LFPV,2015-02-20T09:00:00Z,48.77,2.2,5.0,4.0,200,12,,6.21,29.911417,,,TRUE,,,,,,,,OVC,800,,,,,,,IFR,,,,,,,,,,,,METAR,179.0
LFPC 200900Z AUTO 19012KT 7000 -RA ////// 06/05 Q1012,LFPC,2015-02-20T09:00:00Z,49.25,2.52,6.0,5.0,190,12,,4.35,29.88189,,,TRUE,,,,,,,-RA,,,,,,,,,,,,,,,,,,,,,METAR,88.0
LFOA 200900Z AUTO 18010KT 9999 NSC 07/02 Q1017,LFOA,2015-02-20T09:00:00Z,47.03,2.63,7.0,2.0,180,10,,6.21,30.029528,,,TRUE,,,,,,,,,,,,,,,,,,,,,,,,,,,,METAR,179.0
LFMY 200900Z AUTO 04003KT 9999 OVC034 06/03 Q1025,LFMY,2015-02-20T09:00:00Z,43.6,5.08,6.0,3.0,40,3,,6.21,30.265747,,,TRUE,,,,,,,,OVC,3400,,,,,,,VFR,,,,,,,,,,,,METAR,60.0
LFMO 200900Z AUTO VRB01KT 7000 SCT037 SCT044 03/02 Q1026,LFMO,2015-02-20T09:00:00Z,44.12,4.87,3.0,2.0,0,1,,4.35,30.295275,,,TRUE,,,,,,,,SCT,3700,SCT,4400,,,,,MVFR,,,,,,,,,,,,METAR,55.0
LFMC 200900Z VRB01KT 0300 FG BKN001 02/02 Q1026,LFMC,2015-02-20T09:00:00Z,43.37,6.37,2.0,2.0,0,1,,0.19,30.295275,,,,,,,,,,FG,BKN,100,,,,,,,LIFR,,,,,,,,,,,,METAR,78.0
LFKS 200900Z AUTO VRB02KT 9999 NSC 13/05 Q1026,LFKS,2015-02-20T09:00:00Z,41.92,9.4,13.0,5.0,0,2,,6.21,30.295275,,,TRUE,,,,,,,,,,,,,,,,,,,,,,,,,,,,METAR,22.0
LFBY 200900Z VRB01KT 9000 NSC 07/04 Q1020,LFBY,2015-02-20T09:00:00Z,43.67,-1.07,7.0,4.0,0,1,,5.59,30.11811,,,,,,,,,,,,,,,,,,,,,,,,,,,,,,,METAR,32.0
LFBM 200900Z AUTO 13003KT 9999 NSC 06/03 Q1021,LFBM,2015-02-20T09:00:00Z,43.92,-0.5,6.0,3.0,130,3,,6.21,30.147638,,,TRUE,,,,,,,,,,,,,,,,,,,,,,,,,,,,METAR,63.0
LFBG 200900Z AUTO 22010KT 170V270 9999 FEW012 BKN070 OVC084 07/05 Q1019,LFBG,2015-02-20T09:00:00Z,45.67,-0.32,7.0,5.0,220,10,,6.21,30.088583,,,TRUE,,,,,,,,FEW,1200,BKN,7000,OVC,8400,,,VFR,,,,,,,,,,,,METAR,31.0
LFBC 200900Z AUTO 19006KT 9999 NSC 07/04 Q1020,LFBC,2015-02-20T09:00:00Z,44.52,-1.12,7.0,4.0,190,6,,6.21,30.11811,,,TRUE,,,,,,,,,,,,,,,,,,,,,,,,,,,,METAR,33.0
LFML 200900Z 00000KT 9000 BKN040 07/04 Q1025 NOSIG,LFML,2015-02-20T09:00:00Z,43.45,5.22,7.0,4.0,0,0,,5.59,30.265747,,,,,,TRUE,,,,,BKN,4000,,,,,,,VFR,,,,,,,,,,,,METAR,36.0
EHEH 200859Z AUTO 20012KT 5000 BR SCT007 BKN008 OVC010 05/04 Q1011 GRN 20012KT 9000 FEW010 BKN012 OVC015 TEMPO 5000 DZRA BR BKN007 OVC010,EHEH,2015-02-20T08:59:00Z,51.45,5.38,5.0,4.0,200,12,,3.11,29.852362,,,TRUE,,,,,,,BR,SCT,700,BKN,800,OVC,1000,FEW,1000,IFR,,,1.2,,,,,,,,,METAR,22.0
ETAD 200859Z 22017G20KT 9999 BKN016 BKN021 04/02 A2997 RMK AO2A SLP156 60000 T00410016 57014,ETAD,2015-02-20T08:59:00Z,49.98,6.7,4.1,1.6,220,17,20,6.21,29.970472,1015.6,,,TRUE,,,,,,,BKN,1600,BKN,2100,,,,,MVFR,-1.4,,,,,,0.0050,,,,,METAR,365.0
EGVA 200858Z AUTO 25004KT 0800 R27/0350 FG VV001 02/01 A2974 RMK AO2 SLP077 58009 $,EGVA,2015-02-20T08:58:00Z,51.67,-1.77,2.0,1.0,250,4,,0.5,29.740158,1007.7,,TRUE,TRUE,TRUE,,,,,FG,OVX,0,,,,,,,LIFR,-0.9,,,,,,,,,,100,METAR,87.0
EHGR 200858Z AUTO 21012KT 6000 BR BKN006 OVC008 06/05 Q1010 YLO 21015KT 8000 BKN020 TEMPO 4500 RADZ FEW006 SCT010 BKN012,EHGR,2015-02-20T08:58:00Z,51.57,4.92,6.0,5.0,210,12,,3.73,29.822834,,,TRUE,,,,,,,BR,BKN,600,OVC,800,BKN,2000,,,IFR,,,-1.5,,,,,,,,,METAR,13.0
ETAR 200858Z AUTO 22008G16KT 9999 SCT031 06/00 A3003 RMK AO2 SLP183 T00600002 57015 $,ETAR,2015-02-20T08:58:00Z,49.42,7.58,6.0,0.2,220,8,16,6.21,30.029528,1018.3,,TRUE,TRUE,TRUE,,,,,,SCT,3100,,,,,,,VFR,-1.5,,,,,,,,,,,METAR,238.0
ETOU 200858Z AUTO 17004KT 9000 BR FEW085 SCT110 01/00 A3006 RMK AO2 SLP189 T00141005 58012 $,ETOU,2015-02-20T08:58:00Z,50.03,8.32,1.4,-0.5,170,4,,5.59,30.059055,1018.9,,TRUE,TRUE,TRUE,,,,,BR,FEW,8500,SCT,11000,,,,,VFR,-1.2,,,,,,,,,,,METAR,141.0
LIMY 200855Z VRB01KT CAVOK 02/M03 Q1024 RMK SCT SCT083 VAL NIL VIS MIN 9999,LIMY,2015-02-20T08:55:00Z,44.25,7.78,2.0,-3.0,0,1,,6.21,30.236221,,,,,,,,,,,CAVOK,,,,,,,,VFR,,,,,,,,,,,,METAR,1742.0
LIMV 200855Z /////KT 9999 SCT012 BKN015 02/M01 Q1025 RMK OVC MON LIB CUF VAL NIL VIS MIN 9999,LIMV,2015-02-20T08:55:00Z,44.55,8.92,2.0,-1.0,,,,6.21,30.265747,,,,,,,,,,,SCT,1200,BKN,1500,,,,,MVFR,,,,,,,,,,,,METAR,475.0
LIMU 200855Z 22005KT 9999 BKN033 09/04 Q1025 RMK BKN QUK 1 QUL 1 S VIS MAR 20 KM VIS MIN 9999,LIMU,2015-02-20T08:55:00Z,43.95,8.17,9.0,4.0,220,5,,6.21,30.265747,,,,,,,,,,,BKN,3300,,,,,,,VFR,,,,,,,,,,,,METAR,221.0
LIMH 200855Z /////KT CAVOK M09/M30 Q1017 RMK SKC MON LIB VAL NIL VIS MIN 9999,LIMH,2015-02-20T08:55:00Z,45.93,7.7,-9.0,-30.0,,,,6.21,30.029528,,,,,,,,,,,CAVOK,,,,,,,,VFR,,,,,,,,,,,,METAR,3488.0
LIMN 200855Z /////KT 7000 NSC 02/M01 Q1025 RMK FEW FEW080 VIS MIN 7000 WHT,LIMN,2015-02-20T08:55:00Z,45.52,8.67,2.0,-1.0,,,,4.35,30.265747,,,,,,,,,,,,,,,,,,,,,,,,,,,,,,,METAR,169.0
LIMK 200855Z 00000KT 6000 NSC 03/01 Q1023 RMK SKC VAL FOSCHIA SKC SUP VIS MIN 6000,LIMK,2015-02-20T08:55:00Z,45.02,7.72,3.0,1.0,0,0,,3.73,30.206694,,,,,,,,,,,,,,,,,,,,,,,,,,,,,,,METAR,710.0
LIMS 200855Z 27008KT CAVOK 05/02 Q1024 RMK FEW FEW200 VIS MIN 9999 WIND THR30 27007KT BLU,LIMS,2015-02-20T08:55:00Z,44.92,9.72,5.0,2.0,270,8,,6.21,30.236221,,,,,,,,,,,CAVOK,,,,,,,,VFR,,,,,,,,,,,,METAR,138.0
EBFS 200855Z 21015KT 7000 SCT008 BKN011 04/03 Q1012 GRN GRN TEMPO YLO,EBFS,2015-02-20T08:55:00Z,50.22,4.65,4.0,3.0,210,15,,4.35,29.88189,,,,,,,,,,,SCT,800,BKN,1100,,,,,MVFR,,,,,,,,,,,,METAR,299.0
EBFN 200855Z 20011KT 2400 RADZ FEW004 BKN007 BKN009 06/06 Q1009 YLO GRN TEMPO YLO,EBFN,2015-02-20T08:55:00Z,51.07,2.63,6.0,6.0,200,11,,1.49,29.793306,,,,,,,,,,RA DZ,FEW,400,BKN,700,BKN,900,,,IFR,,,,,,,,,,,,METAR,9.0
EBBL 200855Z 21010KT 4500 -RA SCT015 BKN020 05/03 Q1012 GRN GRN TEMPO YLO,EBBL,2015-02-20T08:55:00Z,51.17,5.47,5.0,3.0,210,10,,2.8,29.88189,,,,,,,,,,-RA,SCT,1500,BKN,2000,,,,,IFR,,,,,,,,,,,,METAR,64.0
EHFS 200855Z AUTO 20018KT 5000 -DZ FEW005/// SCT007/// BKN008/// 06/05 Q1009,EHFS,2015-02-20T08:55:00Z,51.45,3.6,6.0,5.0,200,18,,3.11,29.793306,,,TRUE,,,,,,,-DZ,,,,,,,,,,,,,,,,,,,,,METAR,32.0
EHEH 200855Z AUTO 20011KT 8000 BR FEW007 BKN008 BKN009 05/04 Q1011 GRN 20012KT 9000 -DZRA FEW010 BKN015 OVC020 TEMPO 5000 DZRA SCT010 BKN013 OVC018,EHEH,2015-02-20T08:55:00Z,51.45,5.38,5.0,4.0,200,11,,4.97,29.852362,,,TRUE,,,,,,,BR RA -DZ,FEW,700,BKN,800,BKN,900,FEW,1000,IFR,,,1.2,,,,,,,,,METAR,22.0
EHWO 200855Z AUTO 21010KT 3900 R25/2700 DZ SCT007 OVC008 06/05 Q1010 GRN 20011KT 9999 -RA SCT010 OVC011 TEMPO 4000 RADZ SCT006 OVC009,EHWO,2015-02-20T08:55:00Z,51.45,4.32,6.0,5.0,210,10,,6.21,29.822834,,,TRUE,,,,,,,-RA DZ,SCT,700,OVC,800,SCT,1000,OVC,1100,IFR,,,1.1,,,,,,,,,METAR,17.0
EHVK 200855Z AUTO 20015KT 9999 FEW010 OVC012 05/04 Q1010 REDZ GRN 20014KT 9000 -RADZ SCT010 OVC015 TEMPO 4000 DZRA SCT009 OVC012,EHVK,2015-02-20T08:55:00Z,51.63,5.7,5.0,4.0,200,15,,6.21,29.822834,,,TRUE,,,,,,,-RA DZ,FEW,1000,OVC,1200,SCT,1000,OVC,1500,MVFR,,,1.4,,,,,,,,,METAR,21.0
EHGR 200855Z AUTO 21013KT 6000 BR SCT007 OVC008 06/05 Q1010 GRN 21015KT 8000 BKN020 TEMPO 4500 RADZ FEW006 SCT010 BKN012,EHGR,2015-02-20T08:55:00Z,51.57,4.92,6.0,5.0,210,13,,3.73,29.822834,,,TRUE,,,,,,,BR,SCT,700,OVC,800,BKN,2000,,,IFR,,,-1.5,,,,,,,,,METAR,13.0
EHBK 200855Z AUTO 21017KT 9999 FEW017 OVC020 06/03 Q1012 NOSIG,EHBK,2015-02-20T08:55:00Z,50.92,5.77,6.0,3.0,210,17,,6.21,29.88189,,,TRUE,,,TRUE,,,,,FEW,1700,OVC,2000,,,,,MVFR,,,,,,,,,,,,METAR,116.0
EBLB 200853Z AUTO 21011KT 8000 FEW005/// BKN007/// BKN009/// 02/00 Q1012 GRN,EBLB,2015-02-20T08:53:00Z,50.47,6.17,2.0,0.0,210,11,,4.97,29.88189,,,TRUE,,,,,,,,,,,,,,,,,,,,,,,,,,,,METAR,570.0
EHWO 200851Z AUTO 21011KT 3700 R25/2800 DZ SCT007 OVC008 06/05 Q1010 GRN 20011KT 9999 -RA SCT010 OVC011 TEMPO 4000 RADZ SCT006 OVC009,EHWO,2015-02-20T08:51:00Z,51.45,4.32,6.0,5.0,210,11,,6.21,29.822834,,,TRUE,,,,,,,-RA DZ,SCT,700,OVC,800,SCT,1000,OVC,1100,IFR,,,1.1,,,,,,,,,METAR,17.0
EDTL 200850Z 32005KT CAVOK 03/00 Q1019,EDTL,2015-02-20T08:50:00Z,48.37,7.83,3.0,0.0,320,5,,6.21,30.088583,,,,,,,,,,,CAVOK,,,,,,,,VFR,,,,,,,,,,,,METAR,156.0
LSMS 200850Z 09007KT CAVOK 01/M07 Q1023,LSMS,2015-02-20T08:50:00Z,46.22,7.32,1.0,-7.0,90,7,,6.21,30.206694,,,,,,,,,,,CAVOK,,,,,,,,VFR,,,,,,,,,,,,METAR,481.0
LSMP 200850Z 00000KT 0250 R05/0375V0550N R23/0275V0450N FG VV001 M02/M02 Q1022 RMK RED,LSMP,2015-02-20T08:50:00Z,46.82,6.92,-2.0,-2.0,0,0,,0.16,30.177166,,,,,,,,,,FG,OVX,0,,,,,,,LIFR,,,,,,,,,,,100,METAR,491.0
LSMM 200850Z VRB01KT CAVOK M04/M08 Q1021 RMK BLU,LSMM,2015-02-20T08:50:00Z,46.75,8.12,-4.0,-8.0,0,1,,6.21,30.147638,,,,,,,,,,,CAVOK,,,,,,,,VFR,,,,,,,,,,,,METAR,577.0
LSME 200850Z VRB01KT CAVOK 01/M03 Q1022 RMK BLU,LSME,2015-02-20T08:50:00Z,47.1,8.3,1.0,-3.0,0,1,,6.21,30.177166,,,,,,,,,,,CAVOK,,,,,,,,VFR,,,,,,,,,,,,METAR,427.0
LSMD 200850Z 00000KT CAVOK 02/M04 Q1021 RMK BLU,LSMD,2015-02-20T08:50:00Z,47.4,8.65,2.0,-4.0,0,0,,6.21,30.147638,,,,,,,,,,,CAVOK,,,,,,,,VFR,,,,,,,,,,,,METAR,448.0
LSMA 200850Z 18003KT CAVOK M01/M04 Q1022 RMK BLU,LSMA,2015-02-20T08:50:00Z,46.95,8.28,-1.0,-4.0,180,3,,6.21,30.177166,,,,,,,,,,,CAVOK,,,,,,,,VFR,,,,,,,,,,,,METAR,444.0
EGHI 200850Z VRB01KT 9999 FEW025 04/03 Q1008,EGHI,2015-02-20T08:50:00Z,50.95,-1.35,4.0,3.0,0,1,,6.21,29.763779,,,,,,,,,,,FEW,2500,,,,,,,VFR,,,,,,,,,,,,METAR,14.0
EGGD 200850Z 00000KT 9999 VCFG FEW025 03/02 Q1007,EGGD,2015-02-20T08:50:00Z,51.37,-2.72,3.0,2.0,0,0,,6.21,29.734253,,,,,,,,,,VCFG,FEW,2500,,,,,,,VFR,,,,,,,,,,,,METAR,189.0
EGLC 200850Z 31002KT 9999 FEW013 06/04 Q1008,EGLC,2015-02-20T08:50:00Z,51.5,0.05,6.0,4.0,310,2,,6.21,29.763779,,,,,,,,,,,FEW,1300,,,,,,,VFR,,,,,,,,,,,,METAR,5.0
EGGW 200850Z 27006KT 8000 BKN004 04/04 Q1007,EGGW,2015-02-20T08:50:00Z,51.87,-0.37,4.0,4.0,270,6,,4.97,29.734253,,,,,,,,,,,BKN,400,,,,,,,LIFR,,,,,,,,,,,,METAR,160.0
EGFF 200850Z AUTO 36004KT 9999 NCD 02/02 Q1008,EGFF,2015-02-20T08:50:00Z,51.38,-3.35,2.0,2.0,360,4,,6.21,29.763779,,,TRUE,,,,,,,,,,,,,,,,,,,,,,,,,,,,METAR,67.0
EGTK 200850Z VRB01KT CAVOK 02/02 Q1007,EGTK,2015-02-20T08:50:00Z,51.83,-1.32,2.0,2.0,0,1,,6.21,29.734253,,,,,,,,,,,CAVOK,,,,,,,,VFR,,,,,,,,,,,,METAR,82.0
EGMD 200850Z 22004KT 6000 -RA FEW035 SCT046 07/07 Q1009,EGMD,2015-02-20T08:50:00Z,50.95,0.92,7.0,7.0,220,4,,3.73,29.793306,,,,,,,,,,-RA,FEW,3500,SCT,4600,,,,,MVFR,,,,,,,,,,,,METAR,3.0
EGLF 200850Z 21001KT 9999 VCFG NSC 04/03 Q1008,EGLF,2015-02-20T08:50:00Z,51.28,-0.77,4.0,3.0,210,1,,6.21,29.763779,,,,,,,,,,VCFG,,,,,,,,,,,,,,,,,,,,,METAR,65.0
EGKB 200850Z 29002KT 9999 SCT007 04/03 Q1007,EGKB,2015-02-20T08:50:00Z,51.32,0.02,4.0,3.0,290,2,,6.21,29.734253,,,,,,,,,,,SCT,700,,,,,,,VFR,,,,,,,,,,,,METAR,183.0
EGKA 200850Z 00000KT 9999 -RA FEW012 BKN040 07/06 Q1008,EGKA,2015-02-20T08:50:00Z,50.83,-0.3,7.0,6.0,0,0,,6.21,29.763779,,,,,,,,,,-RA,FEW,1200,BKN,4000,,,,,VFR,,,,,,,,,,,,METAR,2.0
EGHH 200850Z 35002KT 9999 FEW030 05/05 Q1008,EGHH,2015-02-20T08:50:00Z,50.78,-1.83,5.0,5.0,350,2,,6.21,29.763779,,,,,,,,,,,FEW,3000,,,,,,,VFR,,,,,,,,,,,,METAR,11.0
EGLL 200850Z VRB03KT 9999 FEW010 06/05 Q1008 NOSIG,EGLL,2015-02-20T08:50:00Z,51.48,-0.45,6.0,5.0,0,3,,6.21,29.763779,,,,,,TRUE,,,,,FEW,1000,,,,,,,VFR,,,,,,,,,,,,METAR,24.0
EGSS 200850Z 22002KT CAVOK 04/04 Q1007,EGSS,2015-02-20T08:50:00Z,51.88,0.22,4.0,4.0,220,2,,6.21,29.734253,,,,,,,,,,,CAVOK,,,,,,,,VFR,,,,,,,,,,,,METAR,106.0
EGKK 200850Z 32004KT 290V350 9999 FEW016 06/04 Q1008,EGKK,2015-02-20T08:50:00Z,51.13,-0.17,6.0,4.0,320,4,,6.21,29.763779,,,,,,,,,,,FEW,1600,,,,,,,VFR,,,,,,,,,,,,METAR,62.0
EGTE 200850Z VRB01KT 9999 FEW002 04/04 Q1008,EGTE,2015-02-20T08:50:00Z,50.72,-3.42,4.0,4.0,0,1,,6.21,29.763779,,,,,,,,,,,FEW,200,,,,,,,VFR,,,,,,,,,,,,METAR,30.0
EGJJ 200850Z 20015KT 6000 RA SCT003 BKN042 08/08 Q1007 TEMPO 4000 BKN005,EGJJ,2015-02-20T08:50:00Z,49.22,-2.2,8.0,8.0,200,15,,3.73,29.734253,,,,,,,,,,RA,SCT,300,BKN,4200,,,,,MVFR,,,,,,,,,,,,METAR,84.0
EGJB 200850Z 24012KT 5000 RA SCT002 BKN004 09/09 Q1007 RERA,EGJB,2015-02-20T08:50:00Z,49.42,-2.6,9.0,9.0,240,12,,3.11,29.734253,,,,,,,,,,RA,SCT,200,BKN,400,,,,,LIFR,,,,,,,,,,,,METAR,102.0
EGJA 200850Z 02007KT 3000 RADZ BR SCT001 BKN003 07/07 Q1007,EGJA,2015-02-20T08:50:00Z,49.72,-2.2,7.0,7.0,20,7,,1.86,29.734253,,,,,,,,,,RA DZ BR,SCT,100,BKN,300,,,,,LIFR,,,,,,,,,,,,METAR,71.0
EGHQ 200850Z VRB03KT 9999 FEW021 04/02 Q1009,EGHQ,2015-02-20T08:50:00Z,50.43,-5.0,4.0,2.0,0,3,,6.21,29.793306,,,,,,,,,,,FEW,2100,,,,,,,VFR,,,,,,,,,,,,METAR,119.0
LSZL 200850Z VRB02KT CAVOK 02/M03 Q1025 RMK BLU,LSZL,2015-02-20T08:50:00Z,46.17,8.88,2.0,-3.0,0,2,,6.21,30.265747,,,,,,,,,,,CAVOK,,,,,,,,VFR,,,,,,,,,,,,METAR,600.0
LSZC 200850Z VRB01KT CAVOK 01/M03 Q1021,LSZC,2015-02-20T08:50:00Z,46.97,8.38,1.0,-3.0,0,1,,6.21,30.147638,,,,,,,,,,,CAVOK,,,,,,,,VFR,,,,,,,,,,,,METAR,450.0
LSZR 200850Z 26006KT 0100 R10/0275N FZFG VV001 M00/M00 Q1022 NOSIG RMK E,LSZR,2015-02-20T08:50:00Z,47.48,9.57,0.0,0.0,260,6,,0.06,30.177166,,,,,,TRUE,,,,FZFG,OVX,0,,,,,,,LIFR,,,,,,,,,,,100,METAR,398.0
LSZG 200850Z VRB03KT 0050 FZFG VV001 M02/M02 Q1022 NOSIG,LSZG,2015-02-20T08:50:00Z,47.17,7.42,-2.0,-2.0,0,3,,0.03,30.177166,,,,,,TRUE,,,,FZFG,OVX,0,,,,,,,LIFR,,,,,,,,,,,100,METAR,430.0
LSGS 200850Z 09007KT CAVOK 01/M07 Q1023,LSGS,2015-02-20T08:50:00Z,46.22,7.32,1.0,-7.0,90,7,,6.21,30.206694,,,,,,,,,,,CAVOK,,,,,,,,VFR,,,,,,,,,,,,METAR,481.0
LSGC 200850Z AUTO VRB01KT CAVOK 03/M05 Q1019,LSGC,2015-02-20T08:50:00Z,47.08,6.8,3.0,-5.0,0,1,,6.21,30.088583,,,TRUE,,,,,,,,CAVOK,,,,,,,,VFR,,,,,,,,,,,,METAR,1027.0
EDDL 200850Z 18012KT 9999 BKN022 06/02 Q1012 NOSIG,EDDL,2015-02-20T08:50:00Z,51.3,6.77,6.0,2.0,180,12,,6.21,29.88189,,,,,,TRUE,,,,,BKN,2200,,,,,,,MVFR,,,,,,,,,,,,METAR,44.0
EDDR 200850Z 21013KT 170V230 9000 FEW025 03/00 Q1017 NOSIG,EDDR,2015-02-20T08:50:00Z,49.22,7.1,3.0,0.0,210,13,,5.59,30.029528,,,,,,TRUE,,,,,FEW,2500,,,,,,,VFR,,,,,,,,,,,,METAR,320.0
EDVK 200850Z 17011G21KT 130V200 7000 BKN019 03/M00 Q1014 RMK ATIS I,EDVK,2015-02-20T08:50:00Z,51.38,9.37,3.0,0.0,170,11,21,4.35,29.940945,,,,,,,,,,,BKN,1900,,,,,,,MVFR,,,,,,,,,,,,METAR,285.0
EDSB 200850Z VRB02KT 4000 BR NSC M00/M01 Q1019,EDSB,2015-02-20T08:50:00Z,48.78,8.08,0.0,-1.0,0,2,,2.49,30.088583,,,,,,,,,,BR,,,,,,,,,,,,,,,,,,,,,METAR,124.0
EDNY 200850Z 00000KT CAVOK 04/M04 Q1021 RMK ATIS I,EDNY,2015-02-20T08:50:00Z,47.67,9.52,4.0,-4.0,0,0,,6.21,30.147638,,,,,,,,,,,CAVOK,,,,,,,,VFR,,,,,,,,,,,,METAR,424.0
EDLP 200850Z 21014KT 9999 SCT025 04/01 Q1013 RMK ATIS UNI,EDLP,2015-02-20T08:50:00Z,51.62,8.62,4.0,1.0,210,14,,6.21,29.911417,,,,,,,,,,,SCT,2500,,,,,,,VFR,,,,,,,,,,,,METAR,213.0
EDLN 200850Z 20009KT 140V220 9000 -RA BKN026 06/03 Q1012 RMK ATIS E,EDLN,2015-02-20T08:50:00Z,51.23,6.5,6.0,3.0,200,9,,5.59,29.88189,,,,,,,,,,-RA,BKN,2600,,,,,,,MVFR,,,,,,,,,,,,METAR,38.0
EDFH 200850Z 22011G21KT 190V250 9999 FEW016 BKN050 04/01 Q1014,EDFH,2015-02-20T08:50:00Z,49.95,7.27,4.0,1.0,220,11,21,6.21,29.940945,,,,,,,,,,,FEW,1600,BKN,5000,,,,,VFR,,,,,,,,,,,,METAR,498.0
EDDS 200850Z VRB02KT CAVOK 02/00 Q1019 NOSIG,EDDS,2015-02-20T08:50:00Z,48.67,9.22,2.0,0.0,0,2,,6.21,30.088583,,,,,,TRUE,,,,,CAVOK,,,,,,,,VFR,,,,,,,,,,,,METAR,419.0
EDDK 200850Z 18014KT 9999 FEW025 BKN040 06/01 Q1014 NOSIG,EDDK,2015-02-20T08:50:00Z,50.87,7.15,6.0,1.0,180,14,,6.21,29.940945,,,,,,TRUE,,,,,FEW,2500,BKN,4000,,,,,VFR,,,,,,,,,,,,METAR,99.0
EDDF 200850Z 20009KT 170V230 8000 FEW029 BKN100 03/M00 Q1018 NOSIG,EDDF,2015-02-20T08:50:00Z,50.05,8.6,3.0,0.0,200,9,,4.97,30.059055,,,,,,TRUE,,,,,FEW,2900,BKN,10000,,,,,MVFR,,,,,,,,,,,,METAR,113.0
LSZA 200850Z VRB01KT CAVOK 03/M01 Q1025 NOSIG,LSZA,2015-02-20T08:50:00Z,46.0,8.92,3.0,-1.0,0,1,,6.21,30.265747,,,,,,TRUE,,,,,CAVOK,,,,,,,,VFR,,,,,,,,,,,,METAR,276.0
LSZB 200850Z 17004KT 130V190 CAVOK 00/M03 Q1021 NOSIG,LSZB,2015-02-20T08:50:00Z,46.92,7.5,0.0,-3.0,170,4,,6.21,30.147638,,,,,,TRUE,,,,,CAVOK,,,,,,,,VFR,,,,,,,,,,,,METAR,505.0
LSGG 200850Z VRB02KT CAVOK 05/M00 Q1022 NOSIG,LSGG,2015-02-20T08:50:00Z,46.25,6.12,5.0,0.0,0,2,,6.21,30.177166,,,,,,TRUE,,,,,CAVOK,,,,,,,,VFR,,,,,,,,,,,,METAR,416.0
LSZH 200850Z 13003KT 9000 NSC 03/M02 Q1021 NOSIG,LSZH,2015-02-20T08:50:00Z,47.48,8.53,3.0,-2.0,130,3,,5.59,30.147638,,,,,,TRUE,,,,,,,,,,,,,,,,,,,,,,,,,METAR,432.0
EDLW 200850Z 21017G28KT 9999 BKN028 05/00 Q1012 RMK ATIS J,EDLW,2015-02-20T08:50:00Z,51.52,7.62,5.0,0.0,210,17,28,6.21,29.88189,,,,,,,,,,,BKN,2800,,,,,,,MVFR,,,,,,,,,,,,METAR,127.0
ETNG 200850Z 21011G22KT 9999 FEW026 BKN035 BKN045 07/03 Q1012 TEMPO -RA,ETNG,2015-02-20T08:50:00Z,50.97,6.03,7.0,3.0,210,11,22,6.21,29.88189,,,,,,,,,,,FEW,2600,BKN,3500,BKN,4500,,,VFR,,,,,,,,,,,,METAR,98.0
EGUO 200850Z 27004KT 6000 0800W MIFG BKN020 03/03 Q1008 AMB,EGUO,2015-02-20T08:50:00Z,51.43,-2.28,3.0,3.0,270,4,,3.73,29.763779,,,,,,,,,,MIFG,BKN,2000,,,,,,,MVFR,,,,,,,,,,,,METAR,13.0
EGMC 200850Z VRB02KT 9999 FEW013 06/04 Q1008,EGMC,2015-02-20T08:50:00Z,51.57,0.7,6.0,4.0,0,2,,6.21,29.763779,,,,,,,,,,,FEW,1300,,,,,,,VFR,,,,,,,,,,,,METAR,15.0
LIMZ 200850Z VRB02KT 9000 NSC 02/M01 Q1025,LIMZ,2015-02-20T08:50:00Z,44.53,7.62,2.0,-1.0,0,2,,5.59,30.265747,,,,,,,,,,,,,,,,,,,,,,,,,,,,,,,METAR,380.0
LIMG 200850Z 30005KT 250V330 9999 BKN045 09/05 Q1025,LIMG,2015-02-20T08:50:00Z,44.03,8.12,9.0,5.0,300,5,,6.21,30.265747,,,,,,,,,,,BKN,4500,,,,,,,VFR,,,,,,,,,,,,METAR,49.0
LIMA 200850Z 00000KT 5000 BR NSC 04/M01 Q1025,LIMA,2015-02-20T08:50:00Z,45.08,7.6,4.0,-1.0,0,0,,3.11,30.265747,,,,,,,,,,BR,,,,,,,,,,,,,,,,,,,,,METAR,287.0
EGDY 200850Z 33001KT 0200 FG SCT001 OVC200 03/03 Q1008 RED BECMG 4000 BR SCT012 GRN,EGDY,2015-02-20T08:50:00Z,51.0,-2.62,3.0,3.0,330,1,,0.12,29.763779,,,,,,,,,,FG,SCT,100,OVC,20000,,,,,LIFR,,,,,,,,,,,,METAR,23.0
EGWU 200850Z 29002KT 9999 FEW008 BKN250 05/04 Q1007 BLU TEMPO SCT010 GRN,EGWU,2015-02-20T08:50:00Z,51.55,-0.42,5.0,4.0,290,2,,6.21,29.734253,,,,,,,,,,,FEW,800,BKN,25000,,,,,VFR,,,,,,,,,,,,METAR,40.0
EGVP 200850Z 34003KT 0200 FG BKN000 BKN230 03/03 Q1007 RED BECMG 9999 FEW010 BLU,EGVP,2015-02-20T08:50:00Z,51.13,-1.57,3.0,3.0,340,3,,0.12,29.734253,,,,,,,,,,FG,BKN,0,BKN,23000,,,,,LIFR,,,,,,,,,,,,METAR,91.0
EGVO 200850Z 29003KT CAVOK 04/03 Q1007 BLU NOSIG,EGVO,2015-02-20T08:50:00Z,51.23,-0.95,4.0,3.0,290,3,,6.21,29.734253,,,,,,TRUE,,,,,CAVOK,,,,,,,,VFR,,,,,,,,,,,,METAR,123.0
EGUB 200850Z 20001KT 5000 3000NW BR SCT003 BKN200 05/04 Q1007 YLO2 BECMG 7000 BR FEW003 WHT,EGUB,2015-02-20T08:50:00Z,51.62,-1.07,5.0,4.0,200,1,,3.11,29.734253,,,,,,,,,,BR,SCT,300,BKN,20000,,,,,MVFR,,,,,,,,,,,,METAR,63.0
EGOP 200850Z 08003KT 5000 BR FEW018 BKN150 02/02 Q1008 WHT,EGOP,2015-02-20T08:50:00Z,51.72,-4.32,2.0,2.0,80,3,,3.11,29.763779,,,,,,,,,,BR,FEW,1800,BKN,15000,,,,,MVFR,,,,,,,,,,,,METAR,6.0
EGDX 200850Z 02003KT 9999 VCFG SCT050 BKN160 03/02 Q1007 BLU,EGDX,2015-02-20T08:50:00Z,51.4,-3.43,3.0,2.0,20,3,,6.21,29.734253,,,,,,,,,,VCFG,SCT,5000,BKN,16000,,,,,VFR,,,,,,,,,,,,METAR,50.0
EGDM 200850Z 35002KT 0200 FG SCT001 BKN180 03/03 Q1007 RED BECMG 9999 NSW BLU,EGDM,2015-02-20T08:50:00Z,51.17,-1.75,3.0,3.0,350,2,,0.12,29.734253,,,,,,,,,,FG,SCT,100,BKN,18000,,,,,LIFR,,,,,,,,,,,,METAR,124.0
EGVN 200850Z 20003KT 0200 FG OVC001 02/02 Q1007 BECMG 1000 MIFG BKN002,EGVN,2015-02-20T08:50:00Z,51.77,-1.58,2.0,2.0,200,3,,0.12,29.734253,,,,,,,,,,FG,OVC,100,,,,,,,LIFR,,,,,,,,,,,,METAR,88.0
EGDR 200850Z 36008KT 9999 FEW018 SCT100 05/03 Q1008 BLU TEMPO SCT018 WHT,EGDR,2015-02-20T08:50:00Z,50.08,-5.25,5.0,3.0,360,8,,6.21,29.763779,,,,,,,,,,,FEW,1800,SCT,10000,,,,,VFR,,,,,,,,,,,,SPECI,82.0
LIML 200850Z 19002KT 3500 BR NSC 06/05 Q1025 NOSIG,LIML,2015-02-20T08:50:00Z,45.47,9.27,6.0,5.0,190,2,,2.17,30.265747,,,,,,TRUE,,,,BR,,,,,,,,,,,,,,,,,,,,,METAR,103.0
LIMJ 200850Z 10007KT 9999 BKN040 10/05 Q1026,LIMJ,2015-02-20T08:50:00Z,44.42,8.83,10.0,5.0,100,7,,6.21,30.295275,,,,,,,,,,,BKN,4000,,,,,,,VFR,,,,,,,,,,,,METAR,3.0
LIMF 200850Z 00000KT 5000 BR NSC 04/00 Q1025,LIMF,2015-02-20T08:50:00Z,45.22,7.65,4.0,0.0,0,0,,3.11,30.265747,,,,,,,,,,BR,,,,,,,,,,,,,,,,,,,,,METAR,287.0
LIME 200850Z VRB01KT 5000 BR NSC 06/02 Q1025,LIME,2015-02-20T08:50:00Z,45.67,9.68,6.0,2.0,0,1,,3.11,30.265747,,,,,,,,,,BR,,,,,,,,,,,,,,,,,,,,,METAR,237.0
LIMC 200850Z VRB02KT CAVOK 05/01 Q1025 NOSIG,LIMC,2015-02-20T08:50:00Z,45.62,8.72,5.0,1.0,0,2,,6.21,30.265747,,,,,,TRUE,,,,,CAVOK,,,,,,,,VFR,,,,,,,,,,,,METAR,211.0
ELLX 200850Z 20011KT 6000 -RA SCT015 BKN017 02/01 Q1015 NOSIG,ELLX,2015-02-20T08:50:00Z,49.63,6.2,2.0,1.0,200,11,,3.73,29.970472,,,,,,TRUE,,,,-RA,SCT,1500,BKN,1700,,,,,MVFR,,,,,,,,,,,,METAR,379.0
EBOS 200850Z 20012KT 3500 -RADZ BKN005 BKN008 06/05 Q1009 TEMPO 2000 RA BR BKN003 BECMG 6000 BKN008,EBOS,2015-02-20T08:50:00Z,51.2,2.87,6.0,5.0,200,12,,2.17,29.793306,,,,,,,,,,-RA -DZ,BKN,500,BKN,800,,,,,IFR,,,,,,,,,,,,METAR,5.0
EBLG 200850Z 20017KT 9000 -RA BKN013 05/03 Q1012 TEMPO 5000 RADZ,EBLG,2015-02-20T08:50:00Z,50.63,5.45,5.0,3.0,200,17,,5.59,29.88189,,,,,,,,,,-RA,BKN,1300,,,,,,,MVFR,,,,,,,,,,,,METAR,178.0
EBCI 200850Z 20015KT 8000 FEW008 BKN009 04/03 Q1012 TEMPO 20015G25KT,EBCI,2015-02-20T08:50:00Z,50.47,4.45,4.0,3.0,200,15,,4.97,29.88189,,,,,,,,,,,FEW,800,BKN,900,,,,,IFR,,,1.5,,,,,,,,,METAR,192.0
EBBR 200850Z 20016KT 7000 BR BKN010 05/04 Q1011 BECMG 4000 RADZ BR BKN008,EBBR,2015-02-20T08:50:00Z,50.9,4.5,5.0,4.0,200,16,,4.35,29.852362,,,,,,,,,,BR,BKN,1000,,,,,,,MVFR,,,,,,,,,,,,METAR,58.0
EBAW 200850Z 20012KT 7000 SCT007 BKN008 BKN009 06/04 Q1011 TEMPO 3000 RADZ BKN006,EBAW,2015-02-20T08:50:00Z,51.2,4.47,6.0,4.0,200,12,,4.35,29.852362,,,,,,,,,,,SCT,700,BKN,800,BKN,900,,,IFR,,,,,,,,,,,,METAR,14.0
EBBL 200850Z 21011KT 4500 -RA SCT015 BKN020 05/03 Q1012 GRN GRN TEMPO YLO,EBBL,2015-02-20T08:50:00Z,51.17,5.47,5.0,3.0,210,11,,2.8,29.88189,,,,,,,,,,-RA,SCT,1500,BKN,2000,,,,,IFR,,,,,,,,,,,,METAR,64.0
EDGS 200850Z 20011KT 4000 BR BKN012 00/00 Q1013,EDGS,2015-02-20T08:50:00Z,50.7,8.08,0.0,0.0,200,11,,2.49,29.911417,,,,,,,,,,BR,BKN,1200,,,,,,,IFR,,,,,,,,,,,,METAR,602.0
EDLV 200850Z 20012KT 9999 -DZ BKN016 06/06 Q1011,EDLV,2015-02-20T08:50:00Z,51.6,6.15,6.0,6.0,200,12,,6.21,29.852362,,,,,,,,,,-DZ,BKN,1600,,,,,,,MVFR,,,,,,,,,,,,METAR,32.0
EDFM 200850Z 17007KT 140V210 8000 FEW037 03/M01 Q1019,EDFM,2015-02-20T08:50:00Z,49.47,8.52,3.0,-1.0,170,7,,4.97,30.088583,,,,,,,,,,,FEW,3700,,,,,,,MVFR,,,,,,,,,,,,METAR,100.0
EDFE 200850Z 21008KT 6000 FEW027 04/M00 Q1018,EDFE,2015-02-20T08:50:00Z,49.97,8.63,4.0,0.0,210,8,,3.73,30.059055,,,,,,,,,,,FEW,2700,,,,,,,MVFR,,,,,,,,,,,,METAR,118.0
ETAD 200848Z 22015KT 9999 BKN015 BKN021 04/01 A2997 RMK AO2A CIG 014V130,ETAD,2015-02-20T08:48:00Z,49.98,6.7,4.0,1.0,220,15,,6.21,29.970472,,,,TRUE,,,,,,,BKN,1500,BKN,2100,,,,,MVFR,,,,,,,,,,,,METAR,365.0
EHWO 200846Z AUTO 21011KT 3200 R25/P3000 -UP FEW007 BKN008 OVC010 06/05 Q1010 YLO 20011KT 9999 -RA SCT010 OVC011 TEMPO 4000 RADZ SCT006 OVC009,EHWO,2015-02-20T08:46:00Z,51.45,4.32,6.0,5.0,210,11,,6.21,29.822834,,,TRUE,,,,,,,-RA UP,FEW,700,BKN,800,OVC,1000,SCT,1000,IFR,,,1.1,,,,,,,,,SPECI,17.0
EHVK 200846Z AUTO 20015KT 9999 BKN012 OVC015 05/04 Q1011 REDZ GRN 20014KT 9000 -RADZ SCT010 OVC015 TEMPO 4000 DZRA SCT009 OVC012,EHVK,2015-02-20T08:46:00Z,51.63,5.7,5.0,4.0,200,15,,6.21,29.852362,,,TRUE,,,,,,,-RA DZ,BKN,1200,OVC,1500,SCT,1000,OVC,1500,MVFR,,,1.4,,,,,,,,,SPECI,21.0
ETAD 200845Z 23013KT 9999 BKN014 BKN021 04/01 A2998 RMK AO2A CIG 014V130 BKN014 V FEW,ETAD,2015-02-20T08:45:00Z,49.98,6.7,4.0,1.0,230,13,,6.21,29.97933,,,,TRUE,,,,,,,BKN,1400,BKN,2100,,,,,MVFR,,,,,,,,,,,,METAR,365.0
EHWO 200842Z AUTO 21011KT 7000 BR BKN008 OVC009 06/05 Q1010 GRN 20011KT 9999 -RA SCT010 OVC011 TEMPO 4000 RADZ SCT006 OVC009,EHWO,2015-02-20T08:42:00Z,51.45,4.32,6.0,5.0,210,11,,6.21,29.822834,,,TRUE,,,,,,,-RA BR,BKN,800,OVC,900,SCT,1000,OVC,1100,IFR,,,1.1,,,,,,,,,METAR,17.0
ETAD 200841Z 22012KT 9999 SCT014 SCT021 BKN034 BKN130 04/01 A2997 RMK AO2A,ETAD,2015-02-20T08:41:00Z,49.98,6.7,4.0,1.0,220,12,,6.21,29.970472,,,,TRUE,,,,,,,SCT,1400,SCT,2100,BKN,3400,BKN,13000,VFR,,,,,,,,,,,,METAR,365.0
EHWO 200838Z AUTO 21010KT 9000 BR BKN008 OVC009 06/05 Q1010 GRN 20011KT 9999 -RA SCT010 OVC011 TEMPO 4000 RADZ SCT006 OVC009,EHWO,2015-02-20T08:38:00Z,51.45,4.32,6.0,5.0,210,10,,6.21,29.822834,,,TRUE,,,,,,,-RA BR,BKN,800,OVC,900,SCT,1000,OVC,1100,IFR,,,1.1,,,,,,,,,SPECI,17.0
EHGR 200836Z AUTO 21011KT 6000 BR FEW006 BKN007 OVC008 05/04 Q1010 GRN 21015KT 8000 BKN020 TEMPO 4500 RADZ FEW006 SCT010 BKN012,EHGR,2015-02-20T08:36:00Z,51.57,4.92,5.0,4.0,210,11,,3.73,29.822834,,,TRUE,,,,,,,BR,FEW,600,BKN,700,OVC,800,BKN,2000,IFR,,,-1.5,,,,,,,,,METAR,13.0
ETAD 200835Z 22013KT 9999 FEW015 BKN021 SCT035 SCT130 04/01 A2998 RMK AO2A,ETAD,2015-02-20T08:35:00Z,49.98,6.7,4.0,1.0,220,13,,6.21,29.97933,,,,TRUE,,,,,,,FEW,1500,BKN,2100,SCT,3500,SCT,13000,MVFR,,,,,,,,,,,,METAR,365.0
EGVA 200834Z AUTO 25002KT 0400 R27/0350 FG VV001 01/01 A2975 RMK AO2 $,EGVA,2015-02-20T08:34:00Z,51.67,-1.77,1.0,1.0,250,2,,0.25,29.749016,,,TRUE,TRUE,TRUE,,,,,FG,OVX,0,,,,,,,LIFR,,,,,,,,,,,100,METAR,87.0
LESU 200830Z VRB02KT CAVOK M01/M03 Q1024,LESU,2015-02-20T08:30:00Z,42.33,1.4,-1.0,-3.0,0,2,,6.21,30.236221,,,,,,,,,,,CAVOK,,,,,,,,VFR,,,,,,,,,,,,METAR,800.0
LEXJ 200830Z 14006KT 9999 SCT067 SCT080 09/05 Q1020,LEXJ,2015-02-20T08:30:00Z,43.42,-3.82,9.0,5.0,140,6,,6.21,30.11811,,,,,,,,,,,SCT,6700,SCT,8000,,,,,VFR,,,,,,,,,,,,METAR,6.0
LEPP 200830Z 00000KT 6000 NSC 02/02 Q1023,LEPP,2015-02-20T08:30:00Z,42.77,-1.65,2.0,2.0,0,0,,3.73,30.206694,,,,,,,,,,,,,,,,,,,,,,,,,,,,,,,METAR,459.0
LELL 200830Z 00000KT 6000 FEW015 06/05 Q1025,LELL,2015-02-20T08:30:00Z,41.52,2.1,6.0,5.0,0,0,,3.73,30.265747,,,,,,,,,,,FEW,1500,,,,,,,MVFR,,,,,,,,,,,,METAR,250.0
LEVD 200830Z 20003KT 8000 NSC 01/00 Q1023,LEVD,2015-02-20T08:30:00Z,41.72,-4.83,1.0,0.0,200,3,,4.97,30.206694,,,,,,,,,,,,,,,,,,,,,,,,,,,,,,,METAR,854.0
LEVT 200830Z 23006KT CAVOK 03/02 Q1022,LEVT,2015-02-20T08:30:00Z,42.87,-2.72,3.0,2.0,230,6,,6.21,30.177166,,,,,,,,,,,CAVOK,,,,,,,,VFR,,,,,,,,,,,,METAR,509.0
LESO 200830Z 16003KT 130V210 CAVOK 11/01 Q1021,LESO,2015-02-20T08:30:00Z,43.35,-1.8,11.0,1.0,160,3,,6.21,30.147638,,,,,,,,,,,CAVOK,,,,,,,,VFR,,,,,,,,,,,,METAR,8.0
LEZG 200830Z 10005KT CAVOK 02/01 Q1024,LEZG,2015-02-20T08:30:00Z,41.67,-1.02,2.0,1.0,100,5,,6.21,30.236221,,,,,,,,,,,CAVOK,,,,,,,,VFR,,,,,,,,,,,,METAR,258.0
LEGE 200830Z 00000KT 2000 BR NSC 02/02 Q1024,LEGE,2015-02-20T08:30:00Z,41.88,2.77,2.0,2.0,0,0,,1.24,30.236221,,,,,,,,,,BR,,,,,,,,,,,,,,,,,,,,,METAR,129.0
LEBB 200830Z 00000KT CAVOK 09/04 Q1021 NOSIG,LEBB,2015-02-20T08:30:00Z,43.28,-2.92,9.0,4.0,0,0,,6.21,30.147638,,,,,,TRUE,,,,,CAVOK,,,,,,,,VFR,,,,,,,,,,,,METAR,34.0
LEAS 200830Z 22010KT 9000 -RA FEW035 BKN045 08/05 Q1020 TEMPO 4000 RA,LEAS,2015-02-20T08:30:00Z,43.53,-6.02,8.0,5.0,220,10,,5.59,30.11811,,,,,,,,,,-RA,FEW,3500,BKN,4500,,,,,VFR,,,,,,,,,,,,METAR,134.0
LFRU 200830Z AUTO 23011KT 9999 BKN010 OVC016 10/09 Q1007,LFRU,2015-02-20T08:30:00Z,48.6,-3.82,10.0,9.0,230,11,,6.21,29.734253,,,TRUE,,,,,,,,BKN,1000,OVC,1600,,,,,MVFR,,,,,,,,,,,,METAR,86.0
LFRK 200830Z AUTO 20011KT 9999 -RA FEW035/// BKN062/// OVC072/// ///TCU 08/07 Q1009,LFRK,2015-02-20T08:30:00Z,49.17,-0.45,8.0,7.0,200,11,,6.21,29.793306,,,TRUE,,,,,,,-RA,,,,,,,,,,,,,,,,,,,,,METAR,67.0
LFRG 200830Z AUTO 21013KT 9999 -RA OVC007/// ///TCU 07/06 Q1010,LFRG,2015-02-20T08:30:00Z,49.37,0.15,7.0,6.0,210,13,,6.21,29.822834,,,TRUE,,,,,,,-RA,,,,,,,,,,,,,,,,,,,,,METAR,146.0
LFRC 200830Z AUTO 20013KT 7000 -RA OVC006 08/07 Q1007,LFRC,2015-02-20T08:30:00Z,49.63,-1.47,8.0,7.0,200,13,,4.35,29.734253,,,TRUE,,,,,,,-RA,OVC,600,,,,,,,IFR,,,,,,,,,,,,METAR,138.0
LFPN 200830Z AUTO 20015KT 5000 -RA BR OVC008 05/04 Q1013,LFPN,2015-02-20T08:30:00Z,48.75,2.12,5.0,4.0,200,15,,3.11,29.911417,,,TRUE,,,,,,,-RA BR,OVC,800,,,,,,,IFR,,,,,,,,,,,,METAR,164.0
LFOT 200830Z AUTO 18013KT 7000 -RA FEW028 SCT047 OVC056 06/04 Q1016,LFOT,2015-02-20T08:30:00Z,47.43,0.72,6.0,4.0,180,13,,4.35,30.0,,,TRUE,,,,,,,-RA,FEW,2800,SCT,4700,OVC,5600,,,MVFR,,,,,,,,,,,,METAR,108.0
LFMH 200830Z 17005KT CAVOK 07/M04 Q1021 NOSIG,LFMH,2015-02-20T08:30:00Z,45.52,4.28,7.0,-4.0,170,5,,6.21,30.147638,,,,,,TRUE,,,,,CAVOK,,,,,,,,VFR,,,,,,,,,,,,METAR,402.0
LFMD 200830Z AUTO 36005KT 320V030 9999 BKN033 07/04 Q1026,LFMD,2015-02-20T08:30:00Z,43.53,6.95,7.0,4.0,360,5,,6.21,30.295275,,,TRUE,,,,,,,,BKN,3300,,,,,,,VFR,,,,,,,,,,,,METAR,9.0
LFJR 200830Z AUTO 19010KT 3500 -RA BR OVC006 08/07 Q1014,LFJR,2015-02-20T08:30:00Z,47.57,-0.3,8.0,7.0,190,10,,2.17,29.940945,,,TRUE,,,,,,,-RA BR,OVC,600,,,,,,,IFR,,,,,,,,,,,,METAR,60.0
LFGJ 200830Z AUTO 18004KT 090V230 7000 NSC 04/02 Q1021,LFGJ,2015-02-20T08:30:00Z,47.05,5.43,4.0,2.0,180,4,,4.35,30.147638,,,TRUE,,,,,,,,,,,,,,,,,,,,,,,,,,,,METAR,196.0
LFBE 200830Z AUTO 13007KT 9999 NSC 06/03 Q1021,LFBE,2015-02-20T08:30:00Z,44.82,0.52,6.0,3.0,130,7,,6.21,30.147638,,,TRUE,,,,,,,,,,,,,,,,,,,,,,,,,,,,METAR,52.0
LFBA 200830Z AUTO 11008KT 6000 NSC 03/02 Q1022,LFBA,2015-02-20T08:30:00Z,44.17,0.6,3.0,2.0,110,8,,3.73,30.177166,,,TRUE,,,,,,,,,,,,,,,,,,,,,,,,,,,,METAR,60.0
ETOU 200830Z AUTO 15003KT 9000 BR SCT024 02/00 A3007 RMK AO2,ETOU,2015-02-20T08:30:00Z,50.03,8.32,2.0,0.0,150,3,,5.59,30.070866,,,TRUE,TRUE,,,,,,BR,SCT,2400,,,,,,,VFR,,,,,,,,,,,,SPECI,141.0
LFKS 200830Z AUTO 00000KT 9999 NSC 11/04 Q1026,LFKS,2015-02-20T08:30:00Z,41.92,9.4,11.0,4.0,0,0,,6.21,30.295275,,,TRUE,,,,,,,,,,,,,,,,,,,,,,,,,,,,METAR,22.0
LFBM 200830Z AUTO 11003KT 9999 NSC 05/03 Q1021,LFBM,2015-02-20T08:30:00Z,43.92,-0.5,5.0,3.0,110,3,,6.21,30.147638,,,TRUE,,,,,,,,,,,,,,,,,,,,,,,,,,,,METAR,63.0
LFBG 200830Z AUTO 17011KT 9999 NSC 07/05 Q1019,LFBG,2015-02-20T08:30:00Z,45.67,-0.32,7.0,5.0,170,11,,6.21,30.088583,,,TRUE,,,,,,,,,,,,,,,,,,,,,,,,,,,,METAR,31.0
LFBC 200830Z AUTO 17006KT 9999 NSC 07/04 Q1020,LFBC,2015-02-20T08:30:00Z,44.52,-1.12,7.0,4.0,170,6,,6.21,30.11811,,,TRUE,,,,,,,,,,,,,,,,,,,,,,,,,,,,METAR,33.0
LFQQ 200830Z 19015KT 9999 BKN008 06/05 Q1011 TEMPO 3000 RADZ BKN008,LFQQ,2015-02-20T08:30:00Z,50.57,3.1,6.0,5.0,190,15,,6.21,29.852362,,,,,,,,,,,BKN,800,,,,,,,IFR,,,,,,,,,,,,METAR,52.0
LFRS 200830Z 20013KT 5000 -RA OVC006 09/09 Q1013 NOSIG,LFRS,2015-02-20T08:30:00Z,47.17,-1.6,9.0,9.0,200,13,,3.11,29.911417,,,,,,TRUE,,,,-RA,OVC,600,,,,,,,IFR,,,,,,,,,,,,METAR,27.0
LFRB 200830Z 22015KT 6000 -RA OVC006 10/09 Q1007 BECMG 36015KT,LFRB,2015-02-20T08:30:00Z,48.45,-4.42,10.0,9.0,220,15,,3.73,29.734253,,,,,,,,,,-RA,OVC,600,,,,,,,IFR,,,,,,,,,,,,METAR,103.0
LFPO 200830Z 21012KT 180V240 4500 -RA BKN010 BKN026 06/05 Q1014 NOSIG,LFPO,2015-02-20T08:30:00Z,48.72,2.38,6.0,5.0,210,12,,2.8,29.940945,,,,,,TRUE,,,,-RA,BKN,1000,BKN,2600,,,,,IFR,,,,,,,,,,,,METAR,96.0
LFPG 200830Z 20012KT 180V270 8000 -RA BKN007 BKN008 06/05 Q1013 NOSIG,LFPG,2015-02-20T08:30:00Z,49.02,2.52,6.0,5.0,200,12,,4.97,29.911417,,,,,,TRUE,,,,-RA,BKN,700,BKN,800,,,,,IFR,,,,,,,,,,,,METAR,109.0
LFMN 200830Z 33009KT 9999 FEW020 BKN033 08/02 Q1026 NOSIG,LFMN,2015-02-20T08:30:00Z,43.63,7.2,8.0,2.0,330,9,,6.21,30.295275,,,,,,TRUE,,,,,FEW,2000,BKN,3300,,,,,VFR,,,,,,,,,,,,METAR,10.0
LFLL 200830Z 17013KT CAVOK 08/M01 Q1022 NOSIG,LFLL,2015-02-20T08:30:00Z,45.72,5.07,8.0,-1.0,170,13,,6.21,30.177166,,,,,,TRUE,,,,,CAVOK,,,,,,,,VFR,,,,,,,,,,,,METAR,240.0
LFPV 200830Z AUTO 20010G21KT 170V230 7000 -RA OVC007 05/04 Q1013,LFPV,2015-02-20T08:30:00Z,48.77,2.2,5.0,4.0,200,10,21,4.35,29.911417,,,TRUE,,,,,,,-RA,OVC,700,,,,,,,IFR,,,,,,,,,,,,METAR,179.0
LFPC 200830Z AUTO 19012KT 7000 -RA ////// 06/05 Q1013,LFPC,2015-02-20T08:30:00Z,49.25,2.52,6.0,5.0,190,12,,4.35,29.911417,,,TRUE,,,,,,,-RA,,,,,,,,,,,,,,,,,,,,,METAR,88.0
LFOA 200830Z AUTO 18010KT 9999 NSC 06/02 Q1018,LFOA,2015-02-20T08:30:00Z,47.03,2.63,6.0,2.0,180,10,,6.21,30.059055,,,TRUE,,,,,,,,,,,,,,,,,,,,,,,,,,,,METAR,179.0
LFMO 200830Z AUTO VRB02KT 7000 SCT034 02/01 Q1026,LFMO,2015-02-20T08:30:00Z,44.12,4.87,2.0,1.0,0,2,,4.35,30.295275,,,TRUE,,,,,,,,SCT,3400,,,,,,,MVFR,,,,,,,,,,,,METAR,55.0
LFSI 200830Z AUTO 20007KT 9999 OVC043 07/02 Q1017,LFSI,2015-02-20T08:30:00Z,48.62,4.9,7.0,2.0,200,7,,6.21,30.029528,,,TRUE,,,,,,,,OVC,4300,,,,,,,VFR,,,,,,,,,,,,METAR,140.0
LFMY 200830Z AUTO 05005KT 9999 SCT033 06/02 Q1025,LFMY,2015-02-20T08:30:00Z,43.6,5.08,6.0,2.0,50,5,,6.21,30.265747,,,TRUE,,,,,,,,SCT,3300,,,,,,,VFR,,,,,,,,,,,,METAR,60.0
LFBH 200830Z AUTO 20012KT 9999 -RA BKN041 OVC047 09/06 Q1017,LFBH,2015-02-20T08:30:00Z,46.18,-1.2,9.0,6.0,200,12,,6.21,30.029528,,,TRUE,,,,,,,-RA,BKN,4100,OVC,4700,,,,,VFR,,,,,,,,,,,,METAR,10.0
LFBD 200830Z AUTO 16005KT 9999 NSC 06/03 Q1020,LFBD,2015-02-20T08:30:00Z,44.82,-0.7,6.0,3.0,160,5,,6.21,30.11811,,,TRUE,,,,,,,,,,,,,,,,,,,,,,,,,,,,METAR,61.0
LFYR 200830Z AUTO 20011KT 9999 NSC 07/04 Q1017,LFYR,2015-02-20T08:30:00Z,47.32,1.67,7.0,4.0,200,11,,6.21,30.029528,,,TRUE,,,,,,,,,,,,,,,,,,,,,,,,,,,,METAR,86.0
LFSX 200830Z AUTO 09004KT 9999 NSC 02/00 Q1020,LFSX,2015-02-20T08:30:00Z,47.77,6.33,2.0,0.0,90,4,,6.21,30.11811,,,TRUE,,,,,,,,,,,,,,,,,,,,,,,,,,,,METAR,273.0
LFSO 200830Z AUTO 19013KT 9999 NSC 06/01 Q1017,LFSO,2015-02-20T08:30:00Z,48.57,5.97,6.0,1.0,190,13,,6.21,30.029528,,,TRUE,,,,,,,,,,,,,,,,,,,,,,,,,,,,METAR,350.0
LFOK 200830Z AUTO 19014KT 9999 -DZ OVC040 05/03 Q1016,LFOK,2015-02-20T08:30:00Z,48.78,4.18,5.0,3.0,190,14,,6.21,30.0,,,TRUE,,,,,,,-DZ,OVC,4000,,,,,,,VFR,,,,,,,,,,,,METAR,162.0
LFOH 200830Z AUTO 19012KT 9999 -RA FEW009/// BKN021/// BKN033/// ///TCU 07/06 Q1009,LFOH,2015-02-20T08:30:00Z,49.52,0.07,7.0,6.0,190,12,,6.21,29.793306,,,TRUE,,,,,,,-RA,,,,,,,,,,,,,,,,,,,,,METAR,103.0
LFOB 200830Z AUTO 20011KT 9999 -RA OVC009 06/05 Q1012,LFOB,2015-02-20T08:30:00Z,49.47,2.12,6.0,5.0,200,11,,6.21,29.88189,,,TRUE,,,,,,,-RA,OVC,900,,,,,,,IFR,,,,,,,,,,,,METAR,111.0
LFMU 200830Z AUTO 02007KT 9999 FEW042 06/03 Q1024,LFMU,2015-02-20T08:30:00Z,43.32,3.35,6.0,3.0,20,7,,6.21,30.236221,,,TRUE,,,,,,,,FEW,4200,,,,,,,VFR,,,,,,,,,,,,METAR,17.0
LFLY 200830Z AUTO 19010KT 160V220 9999 NSC 07/M00 Q1022,LFLY,2015-02-20T08:30:00Z,45.72,4.95,7.0,0.0,190,10,,6.21,30.177166,,,TRUE,,,,,,,,,,,,,,,,,,,,,,,,,,,,METAR,201.0
LFLU 200830Z AUTO 22010KT 9999 NSC 05/01 Q1024,LFLU,2015-02-20T08:30:00Z,44.92,4.98,5.0,1.0,220,10,,6.21,30.236221,,,TRUE,,,,,,,,,,,,,,,,,,,,,,,,,,,,METAR,160.0
LFLS 200830Z AUTO 06006KT 9999 NSC 04/00 Q1023,LFLS,2015-02-20T08:30:00Z,45.37,5.32,4.0,0.0,60,6,,6.21,30.206694,,,TRUE,,,,,,,,,,,,,,,,,,,,,,,,,,,,METAR,386.0
LFLP 200830Z AUTO 00000KT 9999 NSC 03/M03 Q1023,LFLP,2015-02-20T08:30:00Z,45.92,6.08,3.0,-3.0,0,0,,6.21,30.206694,,,TRUE,,,,,,,,,,,,,,,,,,,,,,,,,,,,METAR,463.0
LFJL 200830Z AUTO 17008KT 9999 NSC 05/02 Q1017,LFJL,2015-02-20T08:30:00Z,48.97,6.25,5.0,2.0,170,8,,6.21,30.029528,,,TRUE,,,,,,,,,,,,,,,,,,,,,,,,,,,,METAR,264.0
LFCR 200830Z AUTO 11006KT 9999 NSC 03/M04 Q1022,LFCR,2015-02-20T08:30:00Z,44.38,2.47,3.0,-4.0,110,6,,6.21,30.177166,,,TRUE,,,,,,,,,,,,,,,,,,,,,,,,,,,,METAR,580.0
LFRL 200830Z AUTO 21014KT 9999 BKN007 BKN012 OVC018 10/09 Q1007,LFRL,2015-02-20T08:30:00Z,48.27,-4.42,10.0,9.0,210,14,,6.21,29.734253,,,TRUE,,,,,,,,BKN,700,BKN,1200,OVC,1800,,,IFR,,,,,,,,,,,,METAR,82.0
LFRJ 200830Z AUTO 23014KT 9999 -RADZ BKN007 BKN014 BKN026 10/09 Q1007,LFRJ,2015-02-20T08:30:00Z,48.52,-4.15,10.0,9.0,230,14,,6.21,29.734253,,,TRUE,,,,,,,-RA -DZ,BKN,700,BKN,1400,BKN,2600,,,IFR,,,,,,,,,,,,METAR,115.0
LFOJ 200830Z AUTO 19011KT 9999 BKN034 OVC049 05/03 Q1015,LFOJ,2015-02-20T08:30:00Z,47.97,1.75,5.0,3.0,190,11,,6.21,29.970472,,,TRUE,,,,,,,,BKN,3400,OVC,4900,,,,,VFR,,,,,,,,,,,,METAR,125.0
LFOE 200830Z AUTO 20015KT 7000 -RA OVC009/// ///TCU 06/05 Q1012,LFOE,2015-02-20T08:30:00Z,49.02,1.22,6.0,5.0,200,15,,4.35,29.88189,,,TRUE,,,,,,,-RA,,,,,,,,,,,,,,,,,,,,,METAR,146.0
LFOC 200830Z AUTO 20015KT 7000 -DZ OVC018 06/05 Q1014,LFOC,2015-02-20T08:30:00Z,48.03,1.37,6.0,5.0,200,15,,4.35,29.940945,,,TRUE,,,,,,,-DZ,OVC,1800,,,,,,,MVFR,,,,,,,,,,,,METAR,127.0
LFSL 200830Z AUTO 15008KT 120V180 9999 NSC 05/M02 Q1021,LFSL,2015-02-20T08:30:00Z,45.03,1.48,5.0,-2.0,150,8,,6.21,30.147638,,,TRUE,,,,,,,,,,,,,,,,,,,,,,,,,,,,METAR,310.0
LFMV 200830Z AUTO VRB03KT 9999 BKN033 OVC044 06/02 Q1026,LFMV,2015-02-20T08:30:00Z,43.9,4.9,6.0,2.0,0,3,,6.21,30.295275,,,TRUE,,,,,,,,BKN,3300,OVC,4400,,,,,VFR,,,,,,,,,,,,METAR,38.0
LFMP 200830Z AUTO 00000KT 8000 BKN010 OVC014 03/03 Q1024,LFMP,2015-02-20T08:30:00Z,42.72,2.87,3.0,3.0,0,0,,4.97,30.236221,,,TRUE,,,,,,,,BKN,1000,OVC,1400,,,,,MVFR,,,,,,,,,,,,METAR,48.0
LFLC 200830Z 19013KT CAVOK 05/M02 Q1020 NOSIG,LFLC,2015-02-20T08:30:00Z,45.77,3.17,5.0,-2.0,190,13,,6.21,30.11811,,,,,,TRUE,,,,,CAVOK,,,,,,,,VFR,,,,,,,,,,,,METAR,330.0
LFKJ 200830Z 04003KT 010V070 9999 FEW053 09/04 Q1026 NOSIG,LFKJ,2015-02-20T08:30:00Z,41.92,8.8,9.0,4.0,40,3,,6.21,30.295275,,,,,,TRUE,,,,,FEW,5300,,,,,,,VFR,,,,,,,,,,,,METAR,9.0
LFKF 200830Z AUTO 00000KT 9999 NCD 09/06 Q1026,LFKF,2015-02-20T08:30:00Z,41.5,9.08,9.0,6.0,0,0,,6.21,30.295275,,,TRUE,,,,,,,,,,,,,,,,,,,,,,,,,,,,METAR,23.0
LFKC 200830Z VRB01KT 9999 FEW030 10/03 Q1026 NOSIG,LFKC,2015-02-20T08:30:00Z,42.52,8.8,10.0,3.0,0,1,,6.21,30.295275,,,,,,TRUE,,,,,FEW,3000,,,,,,,VFR,,,,,,,,,,,,METAR,58.0
LFKB 200830Z 24007KT 9999 FEW026 10/03 Q1026 NOSIG,LFKB,2015-02-20T08:30:00Z,42.53,9.47,10.0,3.0,240,7,,6.21,30.295275,,,,,,TRUE,,,,,FEW,2600,,,,,,,VFR,,,,,,,,,,,,METAR,12.0
LFML 200830Z 00000KT 9000 BKN033 05/03 Q1025 NOSIG,LFML,2015-02-20T08:30:00Z,43.45,5.22,5.0,3.0,0,0,,5.59,30.265747,,,,,,TRUE,,,,,BKN,3300,,,,,,,VFR,,,,,,,,,,,,METAR,36.0
LFLX 200830Z 20013KT CAVOK 07/02 Q1017 NOSIG,LFLX,2015-02-20T08:30:00Z,46.85,1.72,7.0,2.0,200,13,,6.21,30.029528,,,,,,TRUE,,,,,CAVOK,,,,,,,,VFR,,,,,,,,,,,,METAR,157.0
LFCK 200830Z AUTO 12018KT 9999 NSC 09/03 Q1023,LFCK,2015-02-20T08:30:00Z,43.55,2.28,9.0,3.0,120,18,,6.21,30.206694,,,TRUE,,,,,,,,,,,,,,,,,,,,,,,,,,,,METAR,240.0
LFBZ 200830Z AUTO 21004KT 140V290 9999 NSC 12/M00 Q1020,LFBZ,2015-02-20T08:30:00Z,43.47,-1.52,12.0,0.0,210,4,,6.21,30.11811,,,TRUE,,,,,,,,,,,,,,,,,,,,,,,,,,,,METAR,71.0
LFBT 200830Z AUTO 19005KT 9999 NSC 08/M01 Q1021,LFBT,2015-02-20T08:30:00Z,43.17,0.0,8.0,-1.0,190,5,,6.21,30.147638,,,TRUE,,,,,,,,,,,,,,,,,,,,,,,,,,,,METAR,363.0
LFBP 200830Z AUTO 10003KT 9999 NSC 07/02 Q1021,LFBP,2015-02-20T08:30:00Z,43.37,-0.42,7.0,2.0,100,3,,6.21,30.147638,,,TRUE,,,,,,,,,,,,,,,,,,,,,,,,,,,,METAR,185.0
LFBO 200830Z AUTO VRB02KT 6000 NSC 05/05 Q1022,LFBO,2015-02-20T08:30:00Z,43.62,1.37,5.0,5.0,0,2,,3.73,30.177166,,,TRUE,,,,,,,,,,,,,,,,,,,,,,,,,,,,METAR,153.0
LFBL 200830Z AUTO 16010KT 9999 NSC 04/01 Q1019,LFBL,2015-02-20T08:30:00Z,45.87,1.17,4.0,1.0,160,10,,6.21,30.088583,,,TRUE,,,,,,,,,,,,,,,,,,,,,,,,,,,,METAR,402.0
LFBI 200830Z AUTO 18012KT 9999 SCT034 SCT068 OVC096 06/04 Q1017,LFBI,2015-02-20T08:30:00Z,46.57,0.32,6.0,4.0,180,12,,6.21,30.029528,,,TRUE,,,,,,,,SCT,3400,SCT,6800,OVC,9600,,,VFR,,,,,,,,,,,,METAR,120.0
LFTW 200830Z AUTO 05003KT 020V090 6000 SCT037 05/02 Q1025,LFTW,2015-02-20T08:30:00Z,43.75,4.42,5.0,2.0,50,3,,3.73,30.265747,,,TRUE,,,,,,,,SCT,3700,,,,,,,MVFR,,,,,,,,,,,,METAR,96.0
LFSD 200830Z AUTO 19010KT 7000 NSC 04/02 Q1020,LFSD,2015-02-20T08:30:00Z,47.27,5.07,4.0,2.0,190,10,,4.35,30.11811,,,TRUE,,,,,,,,,,,,,,,,,,,,,,,,,,,,METAR,227.0
LFRT 200830Z AUTO 20008KT 170V230 9999 -RA SCT029 BKN039 BKN045 09/08 Q1008,LFRT,2015-02-20T08:30:00Z,48.52,-2.85,9.0,8.0,200,8,,6.21,29.763779,,,TRUE,,,,,,,-RA,SCT,2900,BKN,3900,BKN,4500,,,VFR,,,,,,,,,,,,METAR,136.0
LFRQ 200830Z AUTO 22016KT 9999 OVC006 10/09 Q1008,LFRQ,2015-02-20T08:30:00Z,47.97,-4.17,10.0,9.0,220,16,,6.21,29.763779,,,TRUE,,,,,,,,OVC,600,,,,,,,IFR,,,,,,,,,,,,METAR,94.0
LFRH 200830Z AUTO 22018G31KT 200V260 7000 3200 -DZ BKN005 OVC009 10/09 Q1010,LFRH,2015-02-20T08:30:00Z,47.77,-3.45,10.0,9.0,220,18,31,4.35,29.822834,,,TRUE,,,,,,,-DZ,BKN,500,OVC,900,,,,,IFR,,,,,,,,,,,,METAR,44.0
LFPT 200830Z AUTO 20011KT 7000 -RA OVC010/// ///TCU 06/05 Q1013,LFPT,2015-02-20T08:30:00Z,49.1,2.03,6.0,5.0,200,11,,4.35,29.911417,,,TRUE,,,,,,,-RA,,,,,,,,,,,,,,,,,,,,,METAR,99.0
LFPM 200830Z AUTO 19012KT 9000 -RA OVC029 05/03 Q1015,LFPM,2015-02-20T08:30:00Z,48.62,2.67,5.0,3.0,190,12,,5.59,29.970472,,,TRUE,,,,,,,-RA,OVC,2900,,,,,,,MVFR,,,,,,,,,,,,METAR,92.0
LFLN 200830Z AUTO 13003KT 9999 NSC 03/00 Q1020,LFLN,2015-02-20T08:30:00Z,46.42,4.02,3.0,0.0,130,3,,6.21,30.11811,,,TRUE,,,,,,,,,,,,,,,,,,,,,,,,,,,,METAR,244.0
LFGA 200830Z AUTO VRB03KT 9999 NSC 03/M01 Q1020,LFGA,2015-02-20T08:30:00Z,48.1,7.35,3.0,-1.0,0,3,,6.21,30.11811,,,TRUE,,,,,,,,,,,,,,,,,,,,,,,,,,,,METAR,191.0
LFBU 200830Z AUTO 17010KT 9999 NSC 06/03 Q1019,LFBU,2015-02-20T08:30:00Z,45.72,0.22,6.0,3.0,170,10,,6.21,30.088583,,,TRUE,,,,,,,,,,,,,,,,,,,,,,,,,,,,METAR,133.0
LFAT 200830Z AUTO 15011KT 120V180 9000 -RA BKN018 OVC024 08/06 Q1009,LFAT,2015-02-20T08:30:00Z,50.52,1.62,8.0,6.0,150,11,,5.59,29.793306,,,TRUE,,,,,,,-RA,BKN,1800,OVC,2400,,,,,MVFR,,,,,,,,,,,,METAR,14.0
LFAQ 200830Z AUTO 19012KT 7000 OVC008 05/04 Q1011,LFAQ,2015-02-20T08:30:00Z,49.97,2.7,5.0,4.0,190,12,,4.35,29.852362,,,TRUE,,,,,,,,OVC,800,,,,,,,IFR,,,,,,,,,,,,METAR,111.0
LFTH 200830Z AUTO 31005KT 9999 FEW028 09/05 Q1025,LFTH,2015-02-20T08:30:00Z,43.1,6.15,9.0,5.0,310,5,,6.21,30.265747,,,TRUE,,,,,,,,FEW,2800,,,,,,,VFR,,,,,,,,,,,,METAR,4.0
LFST 200830Z AUTO 18006KT 150V220 5000 BR NSC 02/00 Q1019,LFST,2015-02-20T08:30:00Z,48.53,7.62,2.0,0.0,180,6,,3.11,30.088583,,,TRUE,,,,,,,BR,,,,,,,,,,,,,,,,,,,,,METAR,154.0
LFSG 200830Z AUTO 19013KT 9999 NSC 03/01 Q1018,LFSG,2015-02-20T08:30:00Z,48.33,6.07,3.0,1.0,190,13,,6.21,30.059055,,,TRUE,,,,,,,,,,,,,,,,,,,,,,,,,,,,METAR,330.0
LFSB 200830Z 17006KT 140V200 7000 NSC 02/M00 Q1021 NOSIG,LFSB,2015-02-20T08:30:00Z,47.6,7.52,2.0,0.0,170,6,,4.35,30.147638,,,,,,TRUE,,,,,,,,,,,,,,,,,,,,,,,,,METAR,271.0
LFRZ 200830Z AUTO 21016KT 5000 -RA BR BKN005 BKN010 BKN043 10/09 Q1012,LFRZ,2015-02-20T08:30:00Z,47.32,-2.17,10.0,9.0,210,16,,3.11,29.88189,,,TRUE,,,,,,,-RA BR,BKN,500,BKN,1000,BKN,4300,,,IFR,,,,,,,,,,,,METAR,4.0
LFRV 200830Z AUTO 19009KT 160V220 4100 RA BR OVC002 09/08 Q1010,LFRV,2015-02-20T08:30:00Z,47.72,-2.72,9.0,8.0,190,9,,2.55,29.822834,,,TRUE,,,,,,,RA BR,OVC,200,,,,,,,LIFR,,,,,,,,,,,,METAR,133.0
LFRO 200830Z AUTO 19007KT 160V220 9999 OVC011 09/09 Q1007,LFRO,2015-02-20T08:30:00Z,48.75,-3.47,9.0,9.0,190,7,,6.21,29.734253,,,TRUE,,,,,,,,OVC,1100,,,,,,,MVFR,,,,,,,,,,,,METAR,89.0
LFRN 200830Z AUTO 18010KT 7000 -RA BKN008 OVC012 09/08 Q1011,LFRN,2015-02-20T08:30:00Z,48.07,-1.72,9.0,8.0,180,10,,4.35,29.852362,,,TRUE,,,,,,,-RA,BKN,800,OVC,1200,,,,,IFR,,,,,,,,,,,,METAR,37.0
LFRM 200830Z AUTO 19007KT 160V230 6000 -RA OVC007 07/06 Q1014,LFRM,2015-02-20T08:30:00Z,47.95,0.2,7.0,6.0,190,7,,3.73,29.940945,,,TRUE,,,,,,,-RA,OVC,700,,,,,,,IFR,,,,,,,,,,,,METAR,52.0
LFRI 200830Z AUTO 21014KT 8000 -RA BKN012 BKN017 OVC022 08/07 Q1015,LFRI,2015-02-20T08:30:00Z,46.7,-1.37,8.0,7.0,210,14,,4.97,29.970472,,,TRUE,,,,,,,-RA,BKN,1200,BKN,1700,OVC,2200,,,MVFR,,,,,,,,,,,,METAR,91.0
LFRD 200830Z AUTO 19013KT 9999 -RA FEW024 SCT045 OVC052 09/08 Q1009,LFRD,2015-02-20T08:30:00Z,48.58,-2.07,9.0,8.0,190,13,,6.21,29.793306,,,TRUE,,,,,,,-RA,FEW,2400,SCT,4500,OVC,5200,,,VFR,,,,,,,,,,,,METAR,59.0
LFOV 200830Z AUTO 19010KT 5000 -RA BR OVC004 08/08 Q1012,LFOV,2015-02-20T08:30:00Z,48.03,-0.75,8.0,8.0,190,10,,3.11,29.88189,,,TRUE,,,,,,,-RA BR,OVC,400,,,,,,,LIFR,,,,,,,,,,,,METAR,101.0
LFMK 200830Z AUTO 10009KT 5000 BR OVC019 06/05 Q1023,LFMK,2015-02-20T08:30:00Z,43.22,2.32,6.0,5.0,100,9,,3.11,30.206694,,,TRUE,,,,,,,BR,OVC,1900,,,,,,,MVFR,,,,,,,,,,,,METAR,130.0
LFMI 200830Z AUTO 08006KT 9999 NSC 07/03 Q1025,LFMI,2015-02-20T08:30:00Z,43.52,4.92,7.0,3.0,80,6,,6.21,30.265747,,,TRUE,,,,,,,,,,,,,,,,,,,,,,,,,,,,METAR,24.0
LFSN 200830Z AUTO VRB03KT 6000 NSC 04/01 Q1018,LFSN,2015-02-20T08:30:00Z,48.67,6.22,4.0,1.0,0,3,,3.73,30.059055,,,TRUE,,,,,,,,,,,,,,,,,,,,,,,,,,,,METAR,217.0
LFQB 200830Z AUTO 18011KT 9999 NSC 06/03 Q1017,LFQB,2015-02-20T08:30:00Z,48.32,4.02,6.0,3.0,180,11,,6.21,30.029528,,,TRUE,,,,,,,,,,,,,,,,,,,,,,,,,,,,METAR,118.0
LFQA 200830Z AUTO 19006KT 140V230 9999 -RA BKN033 OVC058 05/02 Q1015,LFQA,2015-02-20T08:30:00Z,49.2,4.15,5.0,2.0,190,6,,6.21,29.970472,,,TRUE,,,,,,,-RA,BKN,3300,OVC,5800,,,,,VFR,,,,,,,,,,,,METAR,95.0
LFPB 200830Z AUTO 21014KT 9999 -RA OVC012/// ///TCU 07/05 Q1014,LFPB,2015-02-20T08:30:00Z,48.97,2.45,7.0,5.0,210,14,,6.21,29.940945,,,TRUE,,,,,,,-RA,,,,,,,,,,,,,,,,,,,,,METAR,65.0
LFOP 200830Z AUTO 19014KT 9999 -DZ OVC008/// ///TCU 07/05 Q1011,LFOP,2015-02-20T08:30:00Z,49.37,1.17,7.0,5.0,190,14,,6.21,29.852362,,,TRUE,,,,,,,-DZ,,,,,,,,,,,,,,,,,,,,,METAR,157.0
LFQG 200830Z AUTO 16009KT 9999 NSC 07/02 Q1018,LFQG,2015-02-20T08:30:00Z,47.0,3.1,7.0,2.0,160,9,,6.21,30.059055,,,TRUE,,,,,,,,,,,,,,,,,,,,,,,,,,,,METAR,181.0
LFLW 200830Z AUTO 10005KT 9999 NSC 04/M05 Q1021,LFLW,2015-02-20T08:30:00Z,44.88,2.42,4.0,-5.0,100,5,,6.21,30.147638,,,TRUE,,,,,,,,,,,,,,,,,,,,,,,,,,,,METAR,639.0
EBCV 200825Z AUTO 20014KT 9999 OVC012/// 05/04 Q1012 GRN,EBCV,2015-02-20T08:25:00Z,50.57,3.82,5.0,4.0,200,14,,6.21,29.88189,,,TRUE,,,,,,,,,,,,,,,,,,,,,,,,,,,,METAR,63.0
EHEH 200825Z AUTO 20012KT 7000 DZ BKN010 OVC013 05/04 Q1011 GRN 20012KT 9000 -DZRA FEW010 BKN015 OVC020 TEMPO 5000 DZRA SCT010 BKN013 OVC018,EHEH,2015-02-20T08:25:00Z,51.45,5.38,5.0,4.0,200,12,,4.35,29.852362,,,TRUE,,,,,,,DZ RA -DZ,BKN,1000,OVC,1300,FEW,1000,BKN,1500,MVFR,,,1.2,,,,,,,,,METAR,22.0
EBLB 200825Z AUTO 22012KT 8000 BKN006/// BKN009/// 01/00 Q1012 YLO,EBLB,2015-02-20T08:25:00Z,50.47,6.17,1.0,0.0,220,12,,4.97,29.88189,,,TRUE,,,,,,,,,,,,,,,,,,,,,,,,,,,,METAR,570.0
EBFS 200825Z 20014KT 9999 SCT009 BKN011 04/02 Q1013 GRN GRN TEMPO YLO,EBFS,2015-02-20T08:25:00Z,50.22,4.65,4.0,2.0,200,14,,6.21,29.911417,,,,,,,,,,,SCT,900,BKN,1100,,,,,MVFR,,,,,,,,,,,,METAR,299.0
EBFN 200825Z 20012KT 3400 RADZ FEW005 BKN007 BKN009 06/06 Q1009 YLO GRN TEMPO YLO,EBFN,2015-02-20T08:25:00Z,51.07,2.63,6.0,6.0,200,12,,2.11,29.793306,,,,,,,,,,RA DZ,FEW,500,BKN,700,BKN,900,,,IFR,,,,,,,,,,,,METAR,9.0
EBDT 200825Z 20012KT 9000 -RA SCT012 BKN016 05/03 Q1012 BLACKGRN GRN,EBDT,2015-02-20T08:25:00Z,51.02,5.07,5.0,3.0,200,12,,5.59,29.88189,,,,,,,,,,-RA,SCT,1200,BKN,1600,,,,,MVFR,,,,,,,,,,,,METAR,54.0
EBBL 200825Z 21012KT 9999 SCT016 BKN019 06/02 Q1012 WHT WHT BECMG GRN,EBBL,2015-02-20T08:25:00Z,51.17,5.47,6.0,2.0,210,12,,6.21,29.88189,,,,,,,,,,,SCT,1600,BKN,1900,,,,,MVFR,,,,,,,,,,,,METAR,64.0
EBBE 200825Z 21015KT 6000 -DZ SCT011 BKN014 05/03 Q1012 GRN WHT TEMPO GRN,EBBE,2015-02-20T08:25:00Z,50.75,4.77,5.0,3.0,210,15,,3.73,29.88189,,,,,,,,,,-DZ,SCT,1100,BKN,1400,,,,,MVFR,,,,,,,,,,,,METAR,127.0
