LFLB 201043Z VRB02KT CAVOK 08/M03 Q1022 NOSIG,LFLB,2015-02-20T10:43:00Z,45.63,5.87,8.0,-3.0,0,2,,6.21,30.177166,,,,,,TRUE,,,,,CAVOK,,,,,,,,VFR,,,,,,,,,,,,METAR,239.0
ETOU 201043Z AUTO 18007KT 9999 FEW085 SCT130 05/02 A3000 RMK AO2,ETOU,2015-02-20T10:43:00Z,50.03,8.32,5.0,2.0,180,7,,6.21,30.0,,,TRUE,TRUE,,,,,,,FEW,8500,SCT,13000,,,,,VFR,,,,,,,,,,,,SPECI,141.0
EHEH 201040Z AUTO 20012KT 4300 BR BKN010 OVC012 06/05 Q1010 GRN 20012KT 9000 FEW010 BKN012 OVC015 TEMPO 5000 DZRA BR BKN007 OVC010,EHEH,2015-02-20T10:40:00Z,51.45,5.38,6.0,5.0,200,12,,2.67,29.822834,,,TRUE,,,,,,,BR,BKN,1000,OVC,1200,FEW,1000,BKN,1200,IFR,,,1.2,,,,,,,,,METAR,22.0
